street,housenumber,place,lat,lon
Strada Nuova dei Bagni ,"5",,45.347872,12.321924
Via Agostino Barbarigo ,"3",,45.409121,12.366718
Via Agostino Barbarigo ,"10",,45.408665,12.367217
Via Agostino Barbarigo ,"4",,45.409172,12.366641
Via Agostino Barbarigo ,"2",,45.409403,12.366262
Via Agostino Barbarigo ,6a,,45.408954,12.366652
Via Agostino Barbarigo ,6b,,45.408878,12.366723
Via Agostino Barbarigo ,"7",,45.4087,12.367288
Via Agostino Barbarigo ,"6",,45.409064,12.366635
Via Agostino Barbarigo ,"8",,45.408778,12.366954
Via Agostino Barbarigo ,"1",,45.409303,12.366686
Via Agostino Barbarigo ,1a,,45.409426,12.36641
Via Agostino Barbarigo ,"5",,45.408818,12.367011
Via Sandro Gallo ,"169",,45.399095,12.359954
Via Giovanni Pividor ,"9",,45.388515,12.352344
Via Giovanni Pividor ,"16",,45.38856,12.352082
Via Giovanni Pividor ,"14",,45.38856,12.352082
Via Giovanni Pividor ,"12",,45.38856,12.352082
Via Giovanni Pividor ,10c,,45.388576,12.352044
Via Giovanni Pividor ,10d,,45.388576,12.352044
Via Giovanni Pividor ,10b,,45.388576,12.352044
Via Giovanni Pividor ,"18",,45.388558,12.352087
Via Giovanni Pividor ,"16",,45.388558,12.352087
Via Giovanni Pividor ,"14",,45.388558,12.352087
Via Giovanni Pividor ,"12",,45.388558,12.352087
Via Giovanni Pividor ,8b,,45.388586,12.352022
Via Giovanni Pividor ,8d,,45.388586,12.352022
Via Giovanni Pividor ,8c,,45.388586,12.352022
Via Giovanni Pividor ,10a,,45.38858,12.352035
Via Giovanni Pividor ,"10",,45.38858,12.352035
Via Giovanni Pividor ,8e,,45.388584,12.352026
Via Giovanni Pividor ,8d,,45.388584,12.352026
Via Giovanni Pividor ,8c,,45.388584,12.352026
Via Giovanni Pividor ,"13",,45.38842,12.35259
Via Giovanni Pividor ,10f,,45.38857,12.352059
Via Giovanni Pividor ,10g,,45.38857,12.352059
Via Giovanni Pividor ,"15",,45.388392,12.352669
Via Giovanni Pividor ,"18",,45.388557,12.35209
Via Giovanni Pividor ,"16",,45.388557,12.35209
Via Giovanni Pividor ,10a,,45.388579,12.352038
Via Giovanni Pividor ,10b,,45.388579,12.352038
Via Giovanni Pividor ,"10",,45.388579,12.352038
Via Giovanni Pividor ,10d,,45.388574,12.352051
Via Giovanni Pividor ,10f,,45.388574,12.352051
Via Giovanni Pividor ,10e,,45.388574,12.352051
Via Giovanni Pividor ,"16",,45.388559,12.352084
Via Giovanni Pividor ,"14",,45.388559,12.352084
Via Giovanni Pividor ,"12",,45.388559,12.352084
Via Giovanni Pividor ,8e,,45.388583,12.352029
Via Giovanni Pividor ,8d,,45.388583,12.352029
Via Giovanni Pividor ,8b,,45.38859,12.352014
Via Giovanni Pividor ,8a,,45.38859,12.352014
Via Giovanni Pividor ,"8",,45.38859,12.352014
Via Giovanni Pividor ,"5",,45.388561,12.352226
Via Giovanni Pividor ,8b,,45.388588,12.352018
Via Giovanni Pividor ,8a,,45.388588,12.352018
Via Giovanni Pividor ,8c,,45.388588,12.352018
Via Giovanni Pividor ,10c,,45.388575,12.352047
Via Giovanni Pividor ,10d,,45.388575,12.352047
Via Giovanni Pividor ,10e,,45.388575,12.352047
Via Giovanni Pividor ,8a,,45.388591,12.352011
Via Giovanni Pividor ,"8",,45.388591,12.352011
Via Giovanni Pividor ,"20",,45.388534,12.352141
Via Giovanni Pividor ,"4",,45.388739,12.351723
Via Giovanni Pividor ,10c,,45.388578,12.352042
Via Giovanni Pividor ,10a,,45.388578,12.352042
Via Giovanni Pividor ,10b,,45.388578,12.352042
Via Giovanni Pividor ,"1",,45.388644,12.352041
Via Giovanni Pividor ,"3",,45.388576,12.352188
Via Giovanni Pividor ,10f,,45.388572,12.352054
Via Giovanni Pividor ,10e,,45.388572,12.352054
Via Giovanni Pividor ,10g,,45.388572,12.352054
Via Giovanni Pividor ,"7",,45.388537,12.352287
Via Antonio Loredan ,"9",,45.417427,12.374256
Via Antonio Loredan ,2b,,45.418164,12.3728
Via Antonio Loredan ,"10",,45.417221,12.37463
Via Antonio Loredan ,"3",,45.41813,12.372869
Via Antonio Loredan ,2a,,45.418283,12.372573
Via Antonio Loredan ,"6",,45.41763,12.373861
Via Antonio Loredan ,"2",,45.418227,12.372681
Via Antonio Loredan ,"15",,45.416892,12.375298
Via Antonio Loredan ,"7",,45.417595,12.373929
Via Antonio Loredan ,"5",,45.417774,12.373572
Via Antonio Loredan ,6a,,45.417676,12.373772
Via Antonio Loredan ,12a,,45.417068,12.374949
Via Antonio Loredan ,"8",,45.417509,12.374094
Via Antonio Loredan ,"14",,45.416988,12.375106
Via Paolo Paruta ,"6",,45.403013,12.361676
Via Paolo Paruta ,"12",,45.403156,12.361279
Via Paolo Paruta ,"7",,45.40309,12.361177
Via Paolo Paruta ,"15",,45.403342,12.360764
Via Paolo Paruta ,"14",,45.403269,12.361345
Via Paolo Paruta ,9a,,45.403157,12.360997
Via Paolo Paruta ,"11",,45.403215,12.360844
Via Paolo Paruta ,"4",,45.402983,12.361759
Via Paolo Paruta ,"18",,45.403343,12.360832
Via Paolo Paruta ,"16",,45.403184,12.361093
Via Paolo Paruta ,"5",,45.403079,12.361206
Via Paolo Paruta ,"2",,45.402952,12.361844
Via Paolo Paruta ,"8",,45.403039,12.361603
Via Paolo Paruta ,"20",,45.403435,12.360899
Via Paolo Paruta ,"1",,45.402934,12.36151
Via Paolo Paruta ,"9",,45.403116,12.361106
Via Jacopo Fontana ,"46",,45.38504,12.349122
Via Jacopo Fontana ,"44",,45.385083,12.349157
Via Jacopo Fontana ,"48",,45.384979,12.349072
Via Jacopo Fontana ,"4",,45.385455,12.348684
Via Jacopo Fontana ,"30",,45.385269,12.349146
Via Jacopo Fontana ,"8",,45.385302,12.348559
Via Jacopo Fontana ,"16",,45.384957,12.348907
Via Jacopo Fontana ,"92",,45.384609,12.349933
Via Jacopo Fontana ,"98",,45.384772,12.350068
Via Jacopo Fontana ,"14",,45.385158,12.348438
Via Jacopo Fontana ,"106",,45.384998,12.350286
Via Jacopo Fontana ,"90",,45.384561,12.349893
Via Jacopo Fontana ,"42",,45.38514,12.349204
Via Jacopo Fontana ,"76",,45.384988,12.349758
Via Jacopo Fontana ,"32",,45.385237,12.349168
Via Jacopo Fontana ,"100",,45.384817,12.350105
Via Jacopo Fontana ,"60",,45.384974,12.34955
Via Jacopo Fontana ,"62",,45.385015,12.349583
Via Jacopo Fontana ,"102",,45.384868,12.350148
Via Jacopo Fontana ,"38",,45.385188,12.349336
Strada della Marina ,21a,,45.348505,12.317111
Strada della Marina ,"12",,45.348193,12.316902
Strada della Marina ,1a,,45.349222,12.318475
Strada della Marina ,4a,,45.348928,12.317671
Strada della Marina ,"3",,45.349163,12.318349
Strada della Marina ,"6",,45.348829,12.317462
Strada della Marina ,"21",,45.348514,12.317119
Strada della Marina ,10c,,45.348514,12.317028
Strada della Marina ,"17",,45.348536,12.317142
Strada della Marina ,15b,,45.348656,12.317299
Strada della Marina ,"23",,45.348466,12.317068
Strada della Marina ,"11",,45.34884,12.317665
Strada della Marina ,"1",,45.349259,12.318557
Strada della Marina ,17a,,45.348529,12.317135
Campiello dei Meloni ,"10",,45.37168,12.338238
Campiello dei Meloni ,"6",,45.371592,12.338371
Campiello dei Meloni ,"5",,45.371596,12.338437
Campiello dei Meloni ,"4",,45.371656,12.338473
Via Jacopo Fontana ,"12",,45.385198,12.348472
Via Jacopo Fontana ,"84",,45.384863,12.349657
Via Jacopo Fontana ,"10",,45.38524,12.348507
Via Jacopo Fontana ,"20",,45.385052,12.348981
Via Jacopo Fontana ,"22",,45.385093,12.349014
Via Jacopo Fontana ,"6",,45.38538,12.348623
Via Jacopo Fontana ,"28",,45.38532,12.349055
Via Jacopo Fontana ,"2",,45.385508,12.348723
Via Jacopo Fontana ,"88",,45.384729,12.349549
Via Jacopo Fontana ,"18",,45.385009,12.348947
Via Jacopo Fontana ,"94",,45.384672,12.349985
Via Jacopo Fontana ,"86",,45.384808,12.349613
Via Jacopo Fontana ,"5",,45.385296,12.34961
Via Jacopo Fontana ,"72",,45.385017,12.349709
Via Jacopo Fontana ,"82",,45.384904,12.34969
Via Jacopo Fontana ,"40",,45.385174,12.349231
Via Jacopo Fontana ,"26",,45.385212,12.349107
Via Jacopo Fontana ,"3",,45.385411,12.349325
Via Jacopo Fontana ,"50",,45.384932,12.349033
Via Jacopo Fontana ,"56",,45.384894,12.349485
Via Jacopo Fontana ,"80",,45.384945,12.349723
Via Jacopo Fontana ,"54",,45.38482,12.349425
Via Jacopo Fontana ,"78",,45.384968,12.349741
Via Jacopo Fontana ,"104",,45.384904,12.350177
Via Jacopo Fontana ,"96",,45.384722,12.350026
Via Jacopo Fontana ,"34",,45.385224,12.3492
Via Jacopo Fontana ,"36",,45.385225,12.349253
Via Jacopo Fontana ,"52",,45.384761,12.349377
Via Jacopo Fontana ,"24",,45.38513,12.349043
Via Jacopo Fontana ,"58",,45.384941,12.349523
Strada del Forte Malamocco ,"8",,45.371148,12.340208
Strada del Forte Malamocco ,"1",,45.372015,12.340965
Strada del Forte Malamocco ,"6",,45.371365,12.340368
Strada del Forte Malamocco ,"4",,45.37279,12.341084
Strada della Marina ,"25",,45.34801,12.317042
Strada della Marina ,"5",,45.349096,12.318205
Strada della Marina ,"4",,45.348993,12.317809
Strada della Marina ,"19",,45.348518,12.317123
Strada della Marina ,3a,,45.349099,12.318213
Strada della Marina ,"9",,45.349042,12.318076
Strada della Marina ,17b,,45.348522,12.317128
Strada della Marina ,"15",,45.348739,12.317412
Strada della Marina ,"2",,45.349092,12.318014
Strada della Marina ,"10",,45.348654,12.317213
Strada Vecchia dei Bagni ,"3",,45.349877,12.32128
Strada Vecchia dei Bagni ,"33",,45.347494,12.325307
Strada Vecchia dei Bagni ,"8",,45.349252,12.322125
Strada Vecchia dei Bagni ,"13",,45.34839,12.323593
Sotoportego Povolati ,"12",,45.37159,12.338008
Sotoportego Povolati ,"3",,45.371735,12.338052
Sotoportego Povolati ,"7",,45.371672,12.338062
Sotoportego Povolati ,"6",,45.371673,12.337998
Sotoportego Povolati ,"5",,45.371704,12.338056
Sotoportego Povolati ,"10",,45.37162,12.337932
Sotoportego Povolati ,"8",,45.371639,12.337972
Sotoportego Povolati ,"2",,45.371783,12.338012
Sotoportego Povolati ,"1",,45.371808,12.338044
Piazzale Cardinale Pietro La Fontaine ,"4",,45.389254,12.35109
Piazzale Cardinale Pietro La Fontaine ,"1",,45.388905,12.350854
Piazzale Cardinale Pietro La Fontaine ,"2",,45.389214,12.350995
Piazzale Cardinale Pietro La Fontaine ,"3",,45.389236,12.351042
Piazzale Cardinale Pietro La Fontaine ,"20",,45.388756,12.351402
Strada Vecchia dei Bagni ,"27",,45.347882,12.324605
Strada Vecchia dei Bagni ,"6",,45.349636,12.321587
Strada Vecchia dei Bagni ,"5",,45.349866,12.321296
Strada Vecchia dei Bagni ,"19",,45.348098,12.324214
Strada Vecchia dei Bagni ,"21",,45.348349,12.324695
Strada Vecchia dei Bagni ,"9",,45.349722,12.321516
Strada Vecchia dei Bagni ,"31",,45.347567,12.325176
Strada Vecchia dei Bagni ,"20",,45.348672,12.323048
Strada Vecchia dei Bagni ,"11",,45.349104,12.322503
Strada Vecchia dei Bagni ,"29",,45.347728,12.324884
Strada Vecchia dei Bagni ,"15",,45.348364,12.32364
Strada Vecchia dei Bagni ,"22",,45.34855,12.323237
Strada Vecchia dei Bagni ,"7",,45.349795,12.321401
Via dei Zatta ,"9",,45.389448,12.349915
Via dei Zatta ,"8",,45.389658,12.34983
Via dei Zatta ,"6",,45.389553,12.350088
Via dei Zatta ,"2",,45.389252,12.35084
Via dei Zatta ,"7",,45.389398,12.350035
Via dei Zatta ,1b,,45.389159,12.350562
Via dei Zatta ,"3",,45.389187,12.350486
Via dei Zatta ,"4",,45.389363,12.350571
Via Biagio Zulian ,10c,,45.413999,12.368311
Via Biagio Zulian ,"7",,45.41379,12.368843
Via Biagio Zulian ,10a,,45.413991,12.368416
Via Biagio Zulian ,"9",,45.413858,12.368673
Via Biagio Zulian ,"6",,45.413814,12.369108
Via Biagio Zulian ,"11",,45.413908,12.368563
Via Biagio Zulian ,"21",,45.413934,12.368216
Via Biagio Zulian ,"4",,45.413797,12.369406
Via Biagio Zulian ,"1",,45.413727,12.369651
Via Biagio Zulian ,"12",,45.414011,12.368145
Via Biagio Zulian ,"8",,45.413852,12.36881
Via Biagio Zulian ,"3",,45.413741,12.369441
Via Biagio Zulian ,"19",,45.413925,12.368356
Via Biagio Zulian ,"14",,45.414031,12.367898
Via Biagio Zulian ,"16",,45.414039,12.367764
Via Biagio Zulian ,"10",,45.413982,12.368635
Via Biagio Zulian ,"5",,45.413753,12.369173
Via Dardanelli ,3a,,45.414718,12.373737
Via Dardanelli ,53d,,45.408071,12.368993
Via Dardanelli ,36a,,45.409793,12.370228
Via Dardanelli ,"20",,45.412028,12.371786
Via Dardanelli ,"24",,45.411676,12.371553
Via Dardanelli ,"22",,45.411933,12.371722
Via Dardanelli ,"16",,45.412779,12.372275
Via Dardanelli ,17d,,45.412886,12.372448
Via Dardanelli ,46c,,45.408625,12.369325
Via Dardanelli ,"8",,45.413841,12.373028
Via Dardanelli ,"37",,45.410054,12.370496
Via Dardanelli ,54a,,45.408138,12.368895
Via Dardanelli ,54b,,45.408138,12.368895
Via Dardanelli ,"9",,45.413579,12.372821
Via Dardanelli ,53g,,45.407943,12.368873
Via Dardanelli ,53f,,45.407943,12.368873
Via Dardanelli ,49d,,45.407964,12.368894
Via Dardanelli ,49b,,45.407964,12.368894
Via Dardanelli ,49a,,45.407968,12.368897
Via Dardanelli ,38a,,45.409718,12.370176
Via Dardanelli ,"19",,45.41227,12.372031
Via Dardanelli ,46b,,45.408685,12.369372
Via Dardanelli ,"48",,45.40851,12.36923
Via Dardanelli ,53a,,45.408142,12.369059
Via Dardanelli ,"53",,45.408203,12.369114
Via Dardanelli ,32f,,45.41028,12.370559
Via Dardanelli ,19a,,45.4121,12.371926
Via Dardanelli ,18b,,45.412232,12.37192
Via Dardanelli ,18c,,45.412128,12.371853
Via Dardanelli ,53l,,45.407931,12.368862
Via Dardanelli ,"49",,45.407972,12.368901
Via Dardanelli ,7a,,45.413933,12.373116
Via Dardanelli ,"42",,45.409307,12.369901
Via Dardanelli ,"11",,45.413427,12.372711
Via Dardanelli ,"38",,45.409759,12.370205
Via Dardanelli ,"3",,45.414848,12.37377
Via Dardanelli ,40a,,45.409526,12.370045
Via Dardanelli ,49e,,45.407951,12.368881
Via Dardanelli ,51b,,45.408489,12.369371
Via Dardanelli ,"18",,45.412451,12.372055
Via Dardanelli ,32d,,45.410427,12.370656
Via Dardanelli ,"31",,45.410871,12.371076
Via Dardanelli ,"40",,45.409476,12.370013
Via Dardanelli ,7b,,45.413881,12.373064
Via Dardanelli ,53i,,45.407939,12.368869
Via Dardanelli ,53h,,45.407939,12.368869
Via Dardanelli ,"34",,45.410221,12.370496
Via Dardanelli ,"39",,45.409902,12.370394
Via Dardanelli ,"14",,45.413021,12.372432
Via Dardanelli ,32e,,45.410371,12.370619
Via Dardanelli ,"47",,45.409119,12.369856
Via Dardanelli ,"27",,45.411282,12.371382
Via Dardanelli ,46a,,45.408742,12.369416
Via Dardanelli ,"45",,45.409321,12.370001
Via Dardanelli ,"29",,45.411021,12.371193
Via Dardanelli ,"36",,45.40994,12.370326
Calle Alberti ,"3",,45.372691,12.340358
Calle Alberti ,"1",,45.372623,12.340386
Calle Alberti ,"2",,45.372585,12.340439
Calle Alberti ,"6",,45.372767,12.340389
Calle Alberti ,"8",,45.372925,12.340371
Calle Alberti ,"5",,45.372767,12.340328
Calle Alberti ,"9",,45.372939,12.34032
Via Marin Sanudo ,"14",,45.402686,12.361272
Via Marin Sanudo ,"12",,45.40273,12.361304
Via Marin Sanudo ,"1",,45.402549,12.361088
Via Marin Sanudo ,"10",,45.402833,12.361315
Via Marin Sanudo ,"6",,45.402797,12.361415
Via Marin Sanudo ,"8",,45.402815,12.361366
Via Marin Sanudo ,"4",,45.402751,12.36139
Via Marin Sanudo ,"2",,45.402511,12.361384
Piazzetta Sebenico ,"1",,45.403111,12.360458
Via Dardanelli ,54a,,45.408134,12.368891
Via Dardanelli ,54b,,45.408134,12.368891
Via Dardanelli ,53c,,45.40808,12.369002
Via Dardanelli ,39b,,45.409831,12.370346
Via Dardanelli ,18a,,45.412344,12.371989
Via Dardanelli ,49c,,45.407955,12.368885
Via Dardanelli ,25a,,45.411599,12.371599
Via Dardanelli ,"50",,45.408415,12.36915
Via Dardanelli ,"55",,45.407658,12.368592
Via Dardanelli ,8a,,45.413661,12.372878
Via Dardanelli ,53e,,45.408019,12.368945
Via Dardanelli ,"41",,45.409671,12.370238
Via Dardanelli ,32c,,45.410541,12.370731
Via Dardanelli ,"26",,45.411427,12.371398
Via Dardanelli ,"7",,45.414056,12.373248
Via Dardanelli ,"5",,45.414544,12.373645
Via Dardanelli ,"32",,45.410717,12.370857
Via Dardanelli ,"56",,45.407982,12.368747
Via Dardanelli ,"52",,45.408311,12.369057
Via Dardanelli ,54c,,45.40813,12.368888
Via Dardanelli ,"46",,45.40897,12.369641
Via Dardanelli ,"10",,45.413487,12.372756
Via Dardanelli ,49d,,45.40796,12.36889
Via Dardanelli ,49b,,45.40796,12.36889
Via Dardanelli ,31a,,45.41079,12.371012
Via Dardanelli ,22b,,45.411743,12.371597
Via Dardanelli ,"21",,45.412066,12.371905
Via Dardanelli ,39a,,45.409754,12.370295
Via Dardanelli ,22a,,45.411797,12.371632
Via Dardanelli ,"30",,45.410985,12.371081
Via Dardanelli ,53b,,45.408135,12.369052
Via Dardanelli ,21a,,45.411923,12.371815
Via Dardanelli ,"43",,45.40949,12.370115
Via Dardanelli ,"12",,45.41318,12.372541
Via Dardanelli ,"51",,45.408572,12.369435
Via Dardanelli ,44a,,45.409093,12.369741
Via Dardanelli ,"44",,45.409167,12.369799
Via Dardanelli ,23a,,45.411856,12.37177
Via Dardanelli ,47b,,45.408991,12.369753
Via Dardanelli ,"54",,45.408229,12.368981
Via Dardanelli ,11a,,45.413294,12.372619
Via Dardanelli ,34c,,45.410003,12.370369
Via Dardanelli ,"23",,45.411697,12.371664
Via Dardanelli ,47a,,45.40907,12.369817
Via Dardanelli ,51c,,45.408454,12.369342
Via Dardanelli ,"25",,45.411459,12.371508
Via Dardanelli ,30a,,45.410906,12.371009
Via Dardanelli ,53i,,45.407935,12.368865
Via Dardanelli ,53h,,45.407935,12.368865
Via Dardanelli ,53g,,45.407946,12.368876
Via Dardanelli ,53f,,45.407946,12.368876
Via Dardanelli ,51a,,45.408549,12.369417
Via Eugenio Gatto ,"19",,45.380902,12.347899
Via Eugenio Gatto ,"3",,45.380718,12.347553
Via Eugenio Gatto ,"7",,45.380814,12.347635
Via Eugenio Gatto ,"29",,45.380682,12.347659
Via Eugenio Gatto ,"27",,45.380712,12.347683
Via Eugenio Gatto ,"23",,45.380815,12.347766
Via Eugenio Gatto ,"31",,45.380621,12.347609
Via Eugenio Gatto ,"21",,45.38089,12.347827
Via Eugenio Gatto ,"11",,45.380898,12.347701
Via Eugenio Gatto ,"15",,45.381023,12.347805
Via Eugenio Gatto ,"1",,45.380685,12.347527
Via Eugenio Gatto ,"33",,45.380598,12.347588
Via Eugenio Gatto ,"5",,45.380788,12.347613
Via Eugenio Gatto ,"13",,45.380977,12.347766
Via Eugenio Gatto ,"9",,45.380883,12.347689
Via Eugenio Gatto ,"17",,45.380945,12.347931
Via Eugenio Gatto ,"25",,45.380787,12.347743
Calle dei Meloni ,"8",,45.371558,12.338201
Calle dei Meloni ,"7",,45.371324,12.33833
Calle dei Meloni ,"5",,45.371361,12.338317
Calle dei Meloni ,"3",,45.371557,12.338271
Calle dei Meloni ,"10",,45.371295,12.338298
Calle dei Meloni ,"6",,45.371612,12.338192
Calle dei Meloni ,"1",,45.371785,12.338299
Via Negroponte ,12a,,45.417314,12.372631
Via Negroponte ,12c,,45.417378,12.372734
Via Negroponte ,"9",,45.416629,12.371288
Via Negroponte ,25a,,45.417837,12.373281
Via Negroponte ,"22",,45.417754,12.373346
Via Negroponte ,14b,,45.417463,12.37286
Via Negroponte ,2c,,45.416466,12.371224
Via Negroponte ,"19",,45.41737,12.372525
Via Negroponte ,"3",,45.416496,12.37105
Via Negroponte ,2f,,45.41658,12.371406
Via Negroponte ,"7",,45.416524,12.37109
Via Negroponte ,10a,,45.417192,12.372446
Via Negroponte ,2h,,45.41663,12.371487
Via Negroponte ,12e,,45.417281,12.372576
Via Negroponte ,"2",,45.416533,12.371334
Via Negroponte ,"16",,45.417523,12.372957
Via Negroponte ,14a,,45.417489,12.372902
Via Negroponte ,2g,,45.4166,12.371439
Via Negroponte ,12d,,45.417401,12.372771
Via Ettore Sorger ,7a,,45.41963,12.376478
Via Ettore Sorger ,"4",,45.419869,12.376207
Via Ettore Sorger ,3a,,45.419939,12.376125
Via Ettore Sorger ,"3",,45.419952,12.376049
Via Ettore Sorger ,"1",,45.42001,12.375729
Via Ettore Sorger ,2a,,45.419961,12.375767
Via Ettore Sorger ,"7",,45.419726,12.376406
Via Ettore Sorger ,1a,,45.419981,12.375903
Via Ettore Sorger ,"2",,45.419922,12.375971
Via Ettore Sorger ,7b,,45.419594,12.376505
Via Ettore Sorger ,4a,,45.419765,12.3763
Via Ettore Sorger ,"9",,45.419508,12.376573
Via Ettore Sorger ,"6",,45.419646,12.376393
Fondamenta Squero Vechio ,"16",,45.371477,12.339522
Fondamenta Squero Vechio ,"17",,45.37141,12.339611
Fondamenta Squero Vechio ,"14",,45.37136,12.339366
Fondamenta Squero Vechio ,"1",,45.371047,12.337224
Fondamenta Squero Vechio ,"11",,45.371315,12.339209
Fondamenta Squero Vechio ,"12",,45.37133,12.339259
Fondamenta Squero Vechio ,"15",,45.371376,12.339426
Fondamenta Squero Vechio ,"6",,45.371044,12.338192
Fondamenta Squero Vechio ,"13",,45.371341,12.3393
Fondamenta Squero Vechio ,"2",,45.371013,12.337578
Fondamenta Squero Vechio ,15a,,45.371395,12.33949
Fondamenta Squero Vechio ,"19",,45.371491,12.339749
Fondamenta Squero Vechio ,"10",,45.371271,12.339189
Fondamenta Squero Vechio ,"8",,45.371112,12.3386
Fondamenta Squero Vechio ,"3",,45.370994,12.337821
Fondamenta Squero Vechio ,"18",,45.371443,12.339681
Via Bernardino Stagnino ,"9",,45.38651,12.350953
Via Negroponte ,"11",,45.416882,12.371711
Via Negroponte ,12g,,45.417278,12.372569
Via Negroponte ,2n,,45.416687,12.371586
Via Negroponte ,4a,,45.416814,12.371788
Via Negroponte ,4g,,45.416694,12.371598
Via Negroponte ,"10",,45.417158,12.372389
Via Negroponte ,"13",,45.417189,12.372227
Via Negroponte ,4c,,45.416772,12.371725
Via Negroponte ,7a,,45.416552,12.371172
Via Negroponte ,2d,,45.416436,12.371176
Via Negroponte ,2b,,45.416491,12.371264
Via Negroponte ,4b,,45.416786,12.371749
Via Negroponte ,"6",,45.41711,12.372309
Via Negroponte ,"20",,45.417642,12.37315
Via Negroponte ,4d,,45.416749,12.371689
Via Negroponte ,4e,,45.416732,12.37166
Via Negroponte ,"5",,45.41651,12.371067
Via Negroponte ,7c,,45.416582,12.371222
Via Negroponte ,"25",,45.417777,12.373185
Via Negroponte ,"1",,45.416482,12.371026
Via Negroponte ,10b,,45.417213,12.372479
Via Negroponte ,"18",,45.417592,12.373069
Via Negroponte ,"23",,45.417713,12.373082
Via Negroponte ,"21",,45.41748,12.372704
Via Negroponte ,4f,,45.4167,12.371607
Via Negroponte ,12b,,45.417348,12.372685
Via Negroponte ,"4",,45.41687,12.371872
Via Negroponte ,"15",,45.417264,12.372344
Via Negroponte ,2m,,45.416681,12.371576
Via Negroponte ,2e,,45.416548,12.371353
Via Negroponte ,10c,,45.417275,12.372563
Via Negroponte ,9a,,45.416821,12.371609
Via Nicolo' Tron ,"1",,45.413973,12.367061
Via Nicolo' Tron ,"2",,45.414068,12.366869
Via Nicolo' Tron ,"8",,45.414248,12.366123
Via Nicolo' Tron ,"11",,45.414201,12.366123
Via Nicolo' Tron ,1a,,45.414003,12.366936
Via Nicolo' Tron ,"9",,45.414147,12.366353
Via Nicolo' Tron ,"6",,45.414167,12.366455
Via Nicolo' Tron ,3a,,45.414066,12.366677
Via Nicolo' Tron ,"3",,45.414048,12.366752
Via Nicolo' Tron ,"7",,45.414112,12.366494
Via Nicolo' Tron ,"4",,45.414112,12.366687
Via Nicosia ,10b,,45.4187,12.375859
Via Angelo Emo ,5a,,45.404063,12.363767
Via Angelo Emo ,"10",,45.403514,12.363754
Via Angelo Emo ,"8",,45.403501,12.363743
Via Angelo Emo ,12c,,45.403681,12.363707
Via Angelo Emo ,"5",,45.404096,12.363666
Via Angelo Emo ,12b,,45.403879,12.363954
Via Angelo Emo ,"11",,45.403914,12.364218
Via Angelo Emo ,"12",,45.403543,12.363749
Via Angelo Emo ,12a,,45.403545,12.363744
Via Angelo Emo ,"1",,45.404144,12.36352
Via Angelo Emo ,12e,,45.403786,12.364232
Via Angelo Emo ,"6",,45.403565,12.363594
Via Angelo Emo ,"13",,45.403853,12.364403
Via Angelo Emo ,14a,,45.40376,12.364311
Via Angelo Emo ,12d,,45.403805,12.364176
Via Angelo Emo ,"7",,45.403987,12.363996
Via Angelo Emo ,2a,,45.404074,12.363365
Via Angelo Emo ,"4",,45.404021,12.363528
Via Isola di Cerigo ,2a,,45.417295,12.369055
Via Nicosia ,9a,,45.418656,12.375724
Via Nicosia ,20b,,45.419138,12.376315
Via Nicosia ,"12",,45.418763,12.375923
Via Nicosia ,9b,,45.418737,12.375807
Via Nicosia ,"4",,45.418024,12.375175
Via Nicosia ,5a,,45.418275,12.375333
Via Nicosia ,20a,,45.419086,12.376259
Via Nicosia ,9d,,45.418934,12.376004
Via Nicosia ,8b,,45.418259,12.375422
Via Nicosia ,9c,,45.418809,12.375878
Via Jacopo De' Barbari ,"3",,45.417813,12.374959
Via Nicosia ,8a,,45.418175,12.375328
Via Nicosia ,"16",,45.418913,12.376072
Via Nicosia ,"1",,45.417935,12.374988
Via Nicosia ,"7",,45.418308,12.375366
Via Nicosia ,"2",,45.41796,12.375109
Via Nicosia ,"6",,45.418068,12.375219
Via Nicosia ,"8",,45.418092,12.375243
Via Nicosia ,7a,,45.41838,12.375439
Via Nicosia ,"9",,45.418622,12.37569
Via Nicosia ,16b,,45.418917,12.376075
Via Nicosia ,"14",,45.418826,12.375986
Via Nicosia ,"18",,45.41894,12.376101
Via Nicosia ,11a,,45.419018,12.376088
Via Nicosia ,"10",,45.418352,12.37552
Via Nicosia ,"5",,45.418205,12.375262
Via Nicosia ,"20",,45.419011,12.376181
Via Isola di Cerigo ,1h,,45.417201,12.36919
Via Isola di Cerigo ,"2",,45.417373,12.369009
Via Isola di Cerigo ,3c,,45.41732,12.369145
Via Isola di Cerigo ,1i,,45.417156,12.369206
Via Isola di Cerigo ,1d,,45.417386,12.369138
Via Isola di Cerigo ,"5",,45.417025,12.369264
Via Isola di Cerigo ,3a,,45.417086,12.369232
Via Isola di Cerigo ,"9",,45.416941,12.369346
Via Isola di Cerigo ,"3",,45.417069,12.369239
Calle Merceria ,"3",,45.372441,12.33876
Calle Merceria ,"6",,45.372393,12.338856
Calle Merceria ,"29",,45.37246,12.339514
Calle Merceria ,"7",,45.372423,12.338904
Via Pietro Orseolo Secondo ,2a,,45.419172,12.374079
Via Pietro Orseolo Secondo ,"15",,45.418265,12.375955
Via Pietro Orseolo Secondo ,"8",,45.418826,12.374742
Via Pietro Orseolo Secondo ,"16",,45.418323,12.375739
Via Pietro Orseolo Secondo ,"7",,45.418848,12.374864
Via Carlo Zeno ,"9",,45.417458,12.377753
Via Carlo Zeno ,"7",,45.417395,12.377505
Via Carlo Zeno ,"4",,45.416981,12.376436
Via Carlo Zeno ,9a,,45.417454,12.378041
Via Carlo Zeno ,"3",,45.417325,12.377217
Via Ludovico Manin ,"5",,45.402537,12.362589
Via Ludovico Manin ,"7",,45.402461,12.362879
Via Ludovico Manin ,"6",,45.402493,12.362593
Calle Merceria ,"2",,45.372378,12.338633
Calle Merceria ,"5",,45.372422,12.338857
Calle Merceria ,"23",,45.372447,12.339303
Calle Merceria ,"10",,45.372402,12.339152
Calle Merceria ,"14",,45.372408,12.339269
Calle Merceria ,"1",,45.372415,12.338547
Calle Merceria ,"25",,45.372451,12.339391
Calle Merceria ,"18",,45.372414,12.339402
Calle Merceria ,"4",,45.372391,12.338758
Calle Merceria ,"21",,45.372443,12.339234
Calle Merceria ,"11",,45.372425,12.338974
Calle Merceria ,"9",,45.372423,12.338934
Calle Merceria ,"8",,45.372397,12.338987
Calle Merceria ,"13",,45.372429,12.339044
Calle Merceria ,"19",,45.372439,12.339166
Calle Merceria ,18a,,45.37242,12.339489
Calle Merceria ,"20",,45.372425,12.33955
Calle Merceria ,"27",,45.372453,12.339455
Calle Merceria ,"17",,45.372431,12.339076
Calle Merceria ,3a,,45.372394,12.338807
Via Pietro Orseolo Secondo ,"13",,45.418342,12.375816
Via Pietro Orseolo Secondo ,"4",,45.419074,12.374267
Via Pietro Orseolo Secondo ,"1",,45.419231,12.374074
Via Pietro Orseolo Secondo ,"12",,45.418487,12.375369
Via Pietro Orseolo Secondo ,"10",,45.418567,12.375273
Via Pietro Orseolo Secondo ,"3",,45.41907,12.374391
Via Pietro Orseolo Secondo ,"14",,45.418376,12.375635
Via Pietro Orseolo Secondo ,"17",,45.418214,12.376056
Via Pietro Orseolo Secondo ,"11",,45.41852,12.375468
Via Pietro Orseolo Secondo ,14a,,45.418361,12.375663
Via Pietro Orseolo Secondo ,"18",,45.418283,12.375816
Via Pietro Orseolo Secondo ,"5",,45.419004,12.374522
Via Pietro Orseolo Secondo ,"9",,45.418577,12.37536
Via Pietro Orseolo Secondo ,"2",,45.419138,12.374142
Via Pietro Orseolo Secondo ,"20",,45.418264,12.375853
Via Pietro Orseolo Secondo ,"28",,45.418113,12.376056
Via Pietro Orseolo Secondo ,"19",,45.41818,12.376122
Via Francesco Foscari ,3a,,45.410324,12.3714
Via Francesco Foscari ,"5",,45.410258,12.371537
Via Francesco Foscari ,"3",,45.410443,12.371152
Via Francesco Foscari ,"2",,45.410384,12.371159
Via Francesco Foscari ,"6",,45.410274,12.371384
Gran Viale Santa Maria Elisabetta ,"81",,45.415117,12.37522
Gran Viale Santa Maria Elisabetta ,40a,,45.4152,12.374133
Gran Viale Santa Maria Elisabetta ,"79",,45.415242,12.374759
Gran Viale Santa Maria Elisabetta ,6c,,45.416625,12.369379
Gran Viale Santa Maria Elisabetta ,8d,,45.416587,12.369504
Gran Viale Santa Maria Elisabetta ,2c,,45.41687,12.368473
Gran Viale Santa Maria Elisabetta ,8c,,45.416582,12.369524
Gran Viale Santa Maria Elisabetta ,8b,,45.416582,12.369524
Gran Viale Santa Maria Elisabetta ,"83",,45.414964,12.375741
Gran Viale Santa Maria Elisabetta ,79b,,45.41518,12.37494
Via Carlo Zeno ,"5",,45.417333,12.377248
Via Carlo Zeno ,"2",,45.417066,12.3759
Via Carlo Zeno ,"1",,45.417243,12.376866
Via Lorenzo Marcello ,2d,,45.411108,12.364667
Via Lorenzo Marcello ,26a,,45.408695,12.368746
Via Lorenzo Marcello ,"36",,45.408257,12.370406
Via Lorenzo Marcello ,"11",,45.410168,12.367239
Via Lorenzo Marcello ,"24",,45.409613,12.368035
Via Lorenzo Marcello ,7b,,45.41045,12.366752
Via Lorenzo Marcello ,14b,,45.41002,12.367149
Via Lorenzo Marcello ,"7",,45.410338,12.366946
Via Lorenzo Marcello ,"3",,45.410891,12.365796
Via Lorenzo Marcello ,14f,,45.40986,12.36698
Via Lorenzo Marcello ,14e,,45.40986,12.36698
Via Lorenzo Marcello ,"39",,45.408452,12.370276
Via Lorenzo Marcello ,12c,,45.410209,12.367005
Via Lorenzo Marcello ,"28",,45.409153,12.368842
Via Lorenzo Marcello ,"9",,45.410239,12.367118
Via Lorenzo Marcello ,"4",,45.410868,12.365665
Via Lorenzo Marcello ,"2",,45.41106,12.364869
Via Lorenzo Marcello ,"15",,45.410027,12.367478
Via Lorenzo Marcello ,"14",,45.410169,12.367075
Via Lorenzo Marcello ,14a,,45.410075,12.367207
Via Lorenzo Marcello ,"16",,45.409776,12.366925
Via Lorenzo Marcello ,28c,,45.409125,12.368889
Via Lorenzo Marcello ,8a,,45.410712,12.366112
Via Lorenzo Marcello ,"26",,45.408893,12.368441
Via Lorenzo Marcello ,"35",,45.408713,12.36982
Gran Viale Santa Maria Elisabetta ,12a,,45.416392,12.370158
Gran Viale Santa Maria Elisabetta ,"16",,45.416208,12.370644
Gran Viale Santa Maria Elisabetta ,"13",,45.416958,12.369052
Gran Viale Santa Maria Elisabetta ,47f,,45.416273,12.371446
Gran Viale Santa Maria Elisabetta ,"14",,45.416342,12.370325
Gran Viale Santa Maria Elisabetta ,"26",,45.416079,12.371199
Gran Viale Santa Maria Elisabetta ,"40",,45.415211,12.374094
Gran Viale Santa Maria Elisabetta ,2a,,45.416861,12.368495
Gran Viale Santa Maria Elisabetta ,47e,,45.416293,12.371415
Gran Viale Santa Maria Elisabetta ,61c,,45.415516,12.373973
Gran Viale Santa Maria Elisabetta ,81b,,45.415068,12.375391
Gran Viale Santa Maria Elisabetta ,"28",,45.415966,12.37157
Gran Viale Santa Maria Elisabetta ,8c,,45.416584,12.369518
Gran Viale Santa Maria Elisabetta ,8b,,45.416584,12.369518
Gran Viale Santa Maria Elisabetta ,6b,,45.416642,12.369326
Gran Viale Santa Maria Elisabetta ,6d,,45.416608,12.369434
Gran Viale Santa Maria Elisabetta ,"5",,45.417105,12.368627
Gran Viale Santa Maria Elisabetta ,14b,,45.416324,12.370387
Gran Viale Santa Maria Elisabetta ,2b,,45.416914,12.368381
Gran Viale Santa Maria Elisabetta ,6a,,45.41666,12.36927
Gran Viale Santa Maria Elisabetta ,79c,,45.415272,12.37467
Gran Viale Santa Maria Elisabetta ,2d,,45.416872,12.368467
Gran Viale Santa Maria Elisabetta ,10a,,45.416512,12.369723
Via Jacopo Da Riva ,"16",,45.412836,12.366198
Via Jacopo Da Riva ,"7",,45.412524,12.367701
Via Jacopo Da Riva ,5c,,45.412524,12.367701
Via Jacopo Da Riva ,5b,,45.412524,12.367701
Via Jacopo Da Riva ,5c,,45.412525,12.367706
Via Jacopo Da Riva ,5a,,45.412525,12.367706
Via Jacopo Da Riva ,5b,,45.412525,12.367706
Via Jacopo Da Riva ,"10",,45.412725,12.366697
Via Jacopo Da Riva ,"15",,45.412629,12.366876
Via Jacopo Da Riva ,9a,,45.412522,12.367693
Via Jacopo Da Riva ,7a,,45.412522,12.367693
Via Jacopo Da Riva ,"7",,45.412522,12.367693
Via Jacopo Da Riva ,10b,,45.41274,12.366631
Via Jacopo Da Riva ,18a,,45.412901,12.365915
Via Jacopo Da Riva ,"5",,45.41253,12.367735
Via Jacopo Da Riva ,"17",,45.412657,12.366747
Via Jacopo Da Riva ,1a,,45.412519,12.368056
Via Jacopo Da Riva ,"3",,45.412519,12.368056
Via Jacopo Da Riva ,"23",,45.41282,12.366019
Via Jacopo Da Riva ,21a,,45.412762,12.366279
Via Jacopo Da Riva ,"19",,45.412692,12.366585
Via Jacopo Da Riva ,5a,,45.412525,12.36771
Via Jacopo Da Riva ,5b,,45.412525,12.36771
Via Jacopo Da Riva ,"11",,45.412534,12.367439
Via Jacopo Da Riva ,"6",,45.412567,12.367506
Via Jacopo Da Riva ,6a,,45.412569,12.367605
Via Jacopo Da Riva ,"21",,45.412729,12.366428
Via Jacopo Da Riva ,10a,,45.412709,12.366769
Via Jacopo Da Riva ,"3",,45.412506,12.368059
Via Jacopo Da Riva ,"4",,45.412553,12.367802
Via Jacopo Da Riva ,"12",,45.412771,12.366495
Via Jacopo Da Riva ,"20",,45.412921,12.365812
Via Jacopo Da Riva ,7a,,45.412523,12.367697
Via Jacopo Da Riva ,"7",,45.412523,12.367697
Via Jacopo Da Riva ,5c,,45.412523,12.367697
Via Jacopo Da Riva ,"18",,45.412867,12.366063
Calle del Paradiso ,"2",,45.372362,12.339371
Calle del Paradiso ,"3",,45.372373,12.339349
Via Jacopo Da Riva ,"25",,45.412887,12.365797
Via Jacopo Da Riva ,"14",,45.412814,12.366296
Via Jacopo Da Riva ,12a,,45.412786,12.366426
Via Jacopo Da Riva ,9a,,45.412522,12.367688
Via Jacopo Da Riva ,7a,,45.412522,12.367688
Via Jacopo Da Riva ,2b,,45.412539,12.367922
Rio Terà ,"38",,45.371954,12.33931
Rio Terà ,"44",,45.371966,12.33952
Rio Terà ,"36",,45.371919,12.339149
Rio Terà ,"8",,45.371802,12.337843
Rio Terà ,"15",,45.37203,12.338313
Rio Terà ,"7",,45.372,12.337995
Rio Terà ,"29",,45.372147,12.33906
Rio Terà ,"10",,45.371805,12.337883
Rio Terà ,"11",,45.371991,12.338097
Rio Terà ,"25",,45.372112,12.338901
Rio Terà ,"3",,45.37199,12.337931
Rio Terà ,"5",,45.371993,12.337952
Rio Terà ,"24",,45.371843,12.338354
Rio Terà ,"23",,45.372084,12.338749
Rio Terà ,"17",,45.37205,12.338439
Rio Terà ,"31",,45.372197,12.339272
Rio Terà ,"9",,45.372007,12.33804
Rio Terà ,"37",,45.372259,12.339547
Rio Terà ,"2",,45.371781,12.337624
Rio Terà ,"20",,45.371829,12.338181
Rio Terà ,"1",,45.371966,12.337928
Rio Terà ,"34",,45.371905,12.339032
Rio Terà ,"13",,45.37203,12.338164
Rio Terà ,2a,,45.371795,12.337722
Rio Terà ,"46",,45.371978,12.339576
Rio Terà ,"48",,45.371985,12.339607
Rio Terà ,"35",,45.372235,12.339445
Rio Terà ,"16",,45.371826,12.338142
Rio Terà ,"4",,45.371797,12.337755
Rio Terà ,"30",,45.371883,12.338866
Rio Terà ,"42",,45.371954,12.339467
Rio Terà ,"27",,45.372124,12.338958
Rio Terà ,"14",,45.371821,12.338102
Rio Terà ,"33",,45.372209,12.339332
Rio Terà ,"40",,45.371963,12.339355
Via Enrico Dandolo ,"4",,45.415361,12.367477
Via Enrico Dandolo ,29b,,45.41467,12.371469
Via Enrico Dandolo ,"52",,45.414411,12.372287
Via Enrico Dandolo ,"42",,45.414421,12.372236
Via Enrico Dandolo ,"38",,45.414421,12.372236
Via Enrico Dandolo ,"44",,45.414421,12.372236
Via Enrico Dandolo ,"46",,45.414421,12.372236
Via Enrico Dandolo ,"48",,45.414421,12.372236
Via Enrico Dandolo ,"60",,45.41427,12.372981
Via Enrico Dandolo ,"7",,45.415338,12.368082
Via Enrico Dandolo ,7a,,45.415315,12.368196
Via Enrico Dandolo ,60c,,45.414268,12.372995
Via Enrico Dandolo ,60b,,45.414268,12.372995
Via Enrico Dandolo ,"62",,45.414244,12.373178
Via Enrico Dandolo ,"64",,45.414232,12.373236
Via Enrico Dandolo ,"5",,45.415393,12.367796
Via Enrico Dandolo ,4a,,45.415324,12.367668
Via Enrico Dandolo ,17d,,45.415044,12.369535
Via Enrico Dandolo ,17e,,45.415044,12.369535
Via Enrico Dandolo ,"36",,45.414443,12.372123
Via Enrico Dandolo ,"39",,45.414416,12.372773
Via Enrico Dandolo ,19a,,45.414901,12.370262
Via Enrico Dandolo ,"37",,45.414465,12.37253
Via Enrico Dandolo ,19e,,45.414844,12.370577
Via Rovigno ,"8",,45.41871,12.376615
Via Rovigno ,"11",,45.419307,12.37714
Via Rovigno ,"6",,45.418615,12.376533
Via Rovigno ,"10",,45.419136,12.376991
Via Rovigno ,"4",,45.418575,12.3765
Via Rovigno ,"13",,45.419394,12.377217
Via Rovigno ,"3",,45.418498,12.376434
Via Rovigno ,"2",,45.418417,12.376362
Riva Pasquali ,"1",,45.391532,12.350909
Riva Pasquali ,"11",,45.389953,12.349637
Riva Pasquali ,"4",,45.390832,12.350345
Riva Pasquali ,"7",,45.39042,12.350011
Riva Pasquali ,"26",,45.388467,12.348439
Riva Pasquali ,"13",,45.389389,12.349182
Riva Pasquali ,"6",,45.390474,12.350054
Riva Pasquali ,"12",,45.389493,12.349267
Riva Pasquali ,"9",,45.390188,12.349825
Riva Pasquali ,1a,,45.391403,12.350805
Riva Pasquali ,"8",,45.390269,12.34989
Riva Pasquali ,"22",,45.388614,12.348557
Riva Pasquali ,"10",,45.390052,12.349716
Riva Pasquali ,11a,,45.389835,12.349543
Riva Pasquali ,"3",,45.391018,12.350495
Via Spalato ,"5",,45.414671,12.372171
Via Spalato ,"6",,45.414863,12.372197
Via Spalato ,"8",,45.414739,12.372142
Via Spalato ,"1",,45.415038,12.372351
Via Spalato ,"3",,45.414936,12.372299
Via Spalato ,"4",,45.414907,12.372218
Rio Terà Squero Vechio ,"1",,45.371559,12.338953
Rio Terà Squero Vechio ,"4",,45.371404,12.339017
Rio Terà Squero Vechio ,"2",,45.371507,12.338973
Rio Terà Squero Vechio ,"3",,45.371462,12.338991
Via Enrico Dandolo ,"9",,45.415285,12.368352
Via Enrico Dandolo ,"58",,45.414309,12.372802
Via Enrico Dandolo ,"42",,45.414422,12.372234
Via Enrico Dandolo ,"38",,45.414422,12.372234
Via Enrico Dandolo ,"44",,45.414422,12.372234
Via Enrico Dandolo ,"46",,45.414422,12.372234
Via Enrico Dandolo ,"32",,45.414545,12.371602
Via Enrico Dandolo ,12b,,45.415055,12.369017
Via Enrico Dandolo ,"8",,45.415289,12.367831
Via Enrico Dandolo ,"15",,45.415127,12.369144
Via Enrico Dandolo ,"21",,45.414803,12.370785
Via Enrico Dandolo ,21a,,45.414778,12.370914
Via Enrico Dandolo ,58a,,45.414283,12.37292
Via Enrico Dandolo ,60c,,45.414267,12.373
Via Enrico Dandolo ,60b,,45.414267,12.373
Via Enrico Dandolo ,"10",,45.415272,12.367951
Via Enrico Dandolo ,9a,,45.415255,12.368505
Via Enrico Dandolo ,31c,,45.414667,12.371485
Via Enrico Dandolo ,"44",,45.41442,12.37224
Via Enrico Dandolo ,"46",,45.41442,12.37224
Via Enrico Dandolo ,"48",,45.41442,12.37224
Via Enrico Dandolo ,"50",,45.41442,12.37224
Via Enrico Dandolo ,"18",,45.414994,12.369323
Via Enrico Dandolo ,"29",,45.414688,12.371378
Via Enrico Dandolo ,"56",,45.414326,12.372717
Via Enrico Dandolo ,"31",,45.41464,12.37163
Via Enrico Dandolo ,14a,,45.415077,12.368906
Via Enrico Dandolo ,29c,,45.414669,12.371476
Via Enrico Dandolo ,64a,,45.414215,12.373285
Via Enrico Dandolo ,10b,,45.415239,12.368102
Via Enrico Dandolo ,"26",,45.414664,12.370979
Via Enrico Dandolo ,14b,,45.415071,12.368935
Via Enrico Dandolo ,"17",,45.415077,12.369393
Via Enrico Dandolo ,17a,,45.41505,12.369517
Via Enrico Dandolo ,"43",,45.414329,12.373329
Via Enrico Dandolo ,10a,,45.415258,12.368018
Via Enrico Dandolo ,"46",,45.41442,12.372242
Via Enrico Dandolo ,"48",,45.41442,12.372242
Via Enrico Dandolo ,"50",,45.41442,12.372242
Via Enrico Dandolo ,5a,,45.415368,12.367927
Via Enrico Dandolo ,"12",,45.415197,12.368301
Via Enrico Dandolo ,"54",,45.414381,12.372437
Via Enrico Dandolo ,17d,,45.415046,12.36953
Via Enrico Dandolo ,17e,,45.415046,12.36953
Via Enrico Dandolo ,17c,,45.415046,12.36953
Via Enrico Dandolo ,"20",,45.414916,12.369728
Via Enrico Dandolo ,"42",,45.414422,12.372231
Via Enrico Dandolo ,"38",,45.414422,12.372231
Via Enrico Dandolo ,"44",,45.414422,12.372231
Via Enrico Dandolo ,17d,,45.415048,12.369525
Via Enrico Dandolo ,17c,,45.415048,12.369525
Via Enrico Dandolo ,10c,,45.415221,12.36819
Via Enrico Dandolo ,"16",,45.41503,12.369146
Via Enrico Dandolo ,19b,,45.414893,12.370326
Via Enrico Dandolo ,19d,,45.414863,12.370479
Via Enrico Dandolo ,"19",,45.414929,12.37018
Via Enrico Dandolo ,"25",,45.414743,12.371097
Via Enrico Dandolo ,"6",,45.41531,12.367735
Via Enrico Dandolo ,56b,,45.414327,12.37271
Via Enrico Dandolo ,56a,,45.414327,12.37271
Via Enrico Dandolo ,"41",,45.414384,12.372935
Via Enrico Dandolo ,54a,,45.414351,12.37259
Via Enrico Dandolo ,"1",,45.415441,12.36755
Via Enrico Dandolo ,56b,,45.414328,12.372705
Via Enrico Dandolo ,56a,,45.414328,12.372705
Via Enrico Dandolo ,"33",,45.414597,12.37185
Via Enrico Dandolo ,17b,,45.415052,12.369512
Via Enrico Dandolo ,60a,,45.414269,12.372987
Via Enrico Dandolo ,31b,,45.414666,12.371492
Via Nicola Jenson ,"8",,45.394702,12.354404
Via Nicola Jenson ,"26",,45.393479,12.353425
Via Nicola Jenson ,"23",,45.392632,12.352923
Via Nicola Jenson ,"9",,45.393379,12.35352
Via Nicola Jenson ,"7",,45.3935,12.353618
Via Nicola Jenson ,36a,,45.39244,12.352588
Via Nicola Jenson ,"24",,45.39365,12.353563
Via Nicola Jenson ,"21",,45.392753,12.353017
Via Nicola Jenson ,"40",,45.391866,12.352123
Via Nicola Jenson ,26a,,45.393556,12.353487
Via Nicola Jenson ,26b,,45.393384,12.353348
Via Enrico Dandolo ,24a,,45.414688,12.370851
Via Enrico Dandolo ,"13",,45.415195,12.368804
Via Enrico Dandolo ,"42",,45.414421,12.372238
Via Enrico Dandolo ,"44",,45.414421,12.372238
Via Enrico Dandolo ,"46",,45.414421,12.372238
Via Enrico Dandolo ,"48",,45.414421,12.372238
Via Enrico Dandolo ,"50",,45.414421,12.372238
Via Enrico Dandolo ,"24",,45.414698,12.370804
Via Enrico Dandolo ,"14",,45.415107,12.368752
Via Enrico Dandolo ,"22",,45.414809,12.370261
Via Enrico Dandolo ,"34",,45.414482,12.371926
Via Enrico Dandolo ,12a,,45.415141,12.368584
Via Enrico Dandolo ,8a,,45.41527,12.367926
Via Nicola Jenson ,"6",,45.394822,12.3545
Via Nicola Jenson ,"15",,45.393081,12.353281
Via Nicola Jenson ,19a,,45.392871,12.353113
Via Nicola Jenson ,"30",,45.393002,12.353041
Via Nicola Jenson ,"2",,45.395624,12.355149
Via Nicola Jenson ,"32",,45.392777,12.35286
Via Nicola Jenson ,"18",,45.394228,12.354026
Via Nicola Jenson ,17b,,45.392884,12.353124
Via Nicola Jenson ,7a,,45.393427,12.353559
Via Nicola Jenson ,"4",,45.395034,12.354671
Via Nicola Jenson ,"20",,45.39414,12.353955
Via Nicola Jenson ,"11",,45.393282,12.353442
Via Nicola Jenson ,"34",,45.392642,12.352752
Via Nicola Jenson ,"5",,45.393557,12.353665
Via Nicola Jenson ,"38",,45.392063,12.352282
Via Nicola Jenson ,"16",,45.39429,12.354075
Via Nicola Jenson ,"22",,45.393958,12.353808
Via Nicola Jenson ,"17",,45.392986,12.353204
Via Nicola Jenson ,"28",,45.393364,12.353332
Via Nicola Jenson ,"10",,45.394628,12.354349
Via Nicola Jenson ,11a,,45.393237,12.353406
Via Nicola Jenson ,19b,,45.392852,12.353097
Via Nicola Jenson ,"13",,45.393183,12.353362
Via Nicola Jenson ,4a,,45.394973,12.354622
Via Nicola Jenson ,"12",,45.394577,12.354304
Via Antonio Lamberti ,"5",,45.404502,12.362098
Via Antonio Lamberti ,"3",,45.404437,12.362291
Via Antonio Lamberti ,5a,,45.404555,12.361941
Via Antonio Lamberti ,3a,,45.404458,12.362229
Via Ludovico Manin ,"12",,45.402393,12.362898
Via Ludovico Manin ,"3",,45.40257,12.362498
Via Paolo Manuzio ,2a,,45.421353,12.376665
Via Paolo Manuzio ,"3",,45.421116,12.376813
Via Paolo Manuzio ,"7",,45.420968,12.376908
Via Paolo Manuzio ,"13",,45.420254,12.377366
Via Paolo Manuzio ,"6",,45.421017,12.376877
Via Paolo Manuzio ,"2",,45.421476,12.376586
Via Paolo Manuzio ,"14",,45.420085,12.377465
Via Paolo Manuzio ,"5",,45.421055,12.376852
Via Paolo Manuzio ,2b,,45.421301,12.376697
Via Paolo Manuzio ,"12",,45.42032,12.377322
Via Paolo Manuzio ,"4",,45.421094,12.376827
Via Paolo Manuzio ,2c,,45.42118,12.376772
Via Paolo Manuzio ,"8",,45.420833,12.376996
Via Paolo Manuzio ,"9",,45.420722,12.377067
Via Lorenzo Marcello ,"29",,45.409444,12.368495
Via Lorenzo Marcello ,20a,,45.409973,12.367421
Via Lorenzo Marcello ,12b,,45.410309,12.366832
Via Lorenzo Marcello ,"1",,45.41101,12.365327
Via Lorenzo Marcello ,6a,,45.410819,12.365831
Via Lorenzo Marcello ,"20",,45.410002,12.367178
Via Lorenzo Marcello ,"10",,45.410661,12.366229
Via Lorenzo Marcello ,26b,,45.409078,12.368487
Via Lorenzo Marcello ,"30",,45.409014,12.369083
Via Lorenzo Marcello ,2c,,45.411095,12.364722
Via Lorenzo Marcello ,10a,,45.410621,12.366314
Via Lorenzo Marcello ,"13",,45.410146,12.367275
Via Lorenzo Marcello ,18a,,45.40987,12.367044
Via Lorenzo Marcello ,26d,,45.409233,12.368708
Via Lorenzo Marcello ,26c,,45.409123,12.368537
Via Lorenzo Marcello ,24b,,45.409431,12.368342
Via Lorenzo Marcello ,14c,,45.410005,12.367133
Via Lorenzo Marcello ,"18",,45.40984,12.367013
Via Lorenzo Marcello ,"25",,45.409721,12.368005
Via Lorenzo Marcello ,"8",,45.410751,12.366019
Via Lorenzo Marcello ,22a,,45.409851,12.367631
Via Lorenzo Marcello ,"32",,45.408867,12.369348
Via Lorenzo Marcello ,2b,,45.411081,12.364781
Via Lorenzo Marcello ,"12",,45.410379,12.366711
Via Lorenzo Marcello ,24a,,45.409521,12.36819
Via Lorenzo Marcello ,"23",,45.409775,12.367912
Via Lorenzo Marcello ,14g,,45.409835,12.366953
Via Lorenzo Marcello ,"37",,45.408602,12.370012
Via Lorenzo Marcello ,2a,,45.411,12.36512
Via Lorenzo Marcello ,28b,,45.409085,12.368956
Via Lorenzo Marcello ,14d,,45.40992,12.367044
Via Lorenzo Marcello ,12a,,45.410441,12.366604
Via Lorenzo Marcello ,14f,,45.409863,12.366983
Via Lorenzo Marcello ,14e,,45.409863,12.366983
Via Lorenzo Marcello ,2e,,45.41113,12.364574
Via Lorenzo Marcello ,"22",,45.40976,12.367785
Via Lorenzo Marcello ,"6",,45.410842,12.365756
Via Lorenzo Marcello ,"27",,45.409593,12.368225
Via Giuseppe de Logu ,"5",,45.377931,12.345478
Via Giuseppe de Logu ,"8",,45.377972,12.344939
Via Giuseppe de Logu ,"1",,45.378212,12.345712
Via Giuseppe de Logu ,"7",,45.377888,12.345442
Via Giuseppe de Logu ,"4",,45.378104,12.345496
Via Giuseppe de Logu ,"2",,45.378193,12.34557
Via Giuseppe de Logu ,"3",,45.378087,12.345606
Via Giuseppe de Logu ,"9",,45.377838,12.345401
Via Giuseppe de Logu ,"6",,45.378011,12.345223
Via Francesco Morosini ,"5",,45.405148,12.365435
Via Francesco Morosini ,9b,,45.405429,12.364859
Via Francesco Morosini ,"11",,45.405437,12.364843
Via Francesco Morosini ,"10",,45.405287,12.365329
Via Francesco Morosini ,"3",,45.405017,12.365704
Via Francesco Morosini ,"4",,45.40482,12.366277
Via Francesco Morosini ,4b,,45.404859,12.366196
Via Francesco Morosini ,"17",,45.405659,12.364354
Via Francesco Morosini ,5a,,45.405233,12.36526
Via Francesco Morosini ,4c,,45.404879,12.366156
Via Francesco Morosini ,17a,,45.405593,12.364524
Via Francesco Morosini ,"9",,45.40535,12.365021
Via Francesco Morosini ,"16",,45.405459,12.364987
Via Francesco Morosini ,"7",,45.405301,12.365121
Via Francesco Morosini ,"20",,45.40568,12.364476
Via Francesco Morosini ,4a,,45.404849,12.366217
Via Francesco Morosini ,"8",,45.405032,12.365835
Via Francesco Morosini ,"14",,45.405395,12.365113
Via Francesco Morosini ,"12",,45.40533,12.365243
Via Francesco Morosini ,"18",,45.405558,12.364775
Via Francesco Morosini ,10a,,45.405271,12.365361
Via Francesco Morosini ,"15",,45.405482,12.364751
Via Francesco Morosini ,9a,,45.405397,12.364925
Via Francesco Morosini ,8a,,45.405154,12.365593
Via Francesco Morosini ,"13",,45.405441,12.364835
Isola San Lazzaro degli Armeni ,"1",,45.412265,12.360918
Via Diego Valeri ,"3",,45.381067,12.345825
Via Diego Valeri ,"1",,45.380768,12.346239
Via Luigi Vallaresso ,"4",,45.405982,12.365075
Via Luigi Vallaresso ,"5",,45.405954,12.365262
Via Luigi Vallaresso ,"2",,45.406035,12.364826
Via Luigi Vallaresso ,4b,,45.405946,12.365247
Via Luigi Vallaresso ,4a,,45.406006,12.364963
Via Luigi Vallaresso ,"3",,45.405973,12.36527
Via Luigi Vallaresso ,1a,,45.40603,12.365
Via Luigi Vallaresso ,"1",,45.40606,12.364856
Via Antonio Vivaldi ,10a,,45.400015,12.358557
Via Antonio Vivaldi ,"10",,45.39967,12.358294
Via Antonio Vivaldi ,5a,,45.400064,12.358741
Via Antonio Vivaldi ,"16",,45.399264,12.35797
Via Antonio Vivaldi ,2b,,45.400409,12.358855
Via Antonio Vivaldi ,"12",,45.399549,12.358203
Via Antonio Vivaldi ,2a,,45.400461,12.358911
Via Antonio Vivaldi ,"4",,45.40038,12.358832
Via Antonio Vivaldi ,"14",,45.39948,12.358151
Via Antonio Vivaldi ,3a,,45.40021,12.358854
Via Antonio Vivaldi ,"1",,45.400407,12.359045
Via Antonio Vivaldi ,"7",,45.399997,12.358689
Calle de la Madonna ,"4",,45.372585,12.339334
Calle de la Madonna ,"2",,45.372526,12.339346
Calle de la Madonna ,"8",,45.372684,12.339316
Calle de la Madonna ,"3",,45.372677,12.339283
Calle de la Madonna ,"14",,45.372874,12.339283
Calle de la Madonna ,"12",,45.372774,12.3393
Calle de la Madonna ,"10",,45.372721,12.339309
Calle de la Madonna ,"18",,45.372965,12.339271
Calle de la Madonna ,"16",,45.372928,12.339276
Calle de la Madonna ,"6",,45.372647,12.339323
Calle de la Madonna ,"20",,45.37299,12.339267
Via Antonio Vivaldi ,"2",,45.400515,12.358979
Via Antonio Vivaldi ,"8",,45.400156,12.358663
Via Antonio Vivaldi ,"3",,45.400294,12.358919
Via Antonio Vivaldi ,"5",,45.400151,12.358808
Via Antonio Vivaldi ,"6",,45.400267,12.358747
Via Delle Magnolie ,"2",,45.409634,12.367897
Via Delle Magnolie ,"6",,45.40934,12.36757
Via Delle Magnolie ,"4",,45.409437,12.36768
Via Isola di Chio ,"9",,45.417901,12.372883
Via Isola di Chio ,2a,,45.417647,12.372359
Via Isola di Chio ,"3",,45.417793,12.372699
Via Isola di Chio ,"5",,45.417851,12.372807
Via Isola di Chio ,1a,,45.417702,12.372371
Via Isola di Chio ,"7",,45.417857,12.372818
Via Isola di Chio ,"6",,45.417717,12.372665
Via Isola di Chio ,"4",,45.417657,12.372479
Ramo dei Pescatori ,"1",,45.372617,12.337652
Lungomare Guglielmo Marconi ,"29",,45.4088,12.371135
Lungomare Guglielmo Marconi ,"56",,45.401771,12.364221
Lungomare Guglielmo Marconi ,57b,,45.401237,12.363609
Lungomare Guglielmo Marconi ,32c,,45.404979,12.366892
Lungomare Guglielmo Marconi ,"57",,45.401151,12.363542
Lungomare Guglielmo Marconi ,32g,,45.405093,12.367015
Lungomare Guglielmo Marconi ,57a,,45.401262,12.363628
Lungomare Guglielmo Marconi ,"54",,45.402086,12.364438
Lungomare Guglielmo Marconi ,84g,,45.398576,12.361612
Lungomare Guglielmo Marconi ,"41",,45.403018,12.365161
Lungomare Guglielmo Marconi ,"53",,45.402109,12.36429
Lungomare Guglielmo Marconi ,60b,,45.401096,12.363497
Lungomare Guglielmo Marconi ,"72",,45.400081,12.36285
Lungomare Guglielmo Marconi ,"24",,45.410245,12.372431
Lungomare Guglielmo Marconi ,29a,,45.408708,12.371053
Lungomare Guglielmo Marconi ,"44",,45.402701,12.364747
Lungomare Guglielmo Marconi ,"28",,45.408909,12.371232
Lungomare Guglielmo Marconi ,76b,,45.399665,12.362531
Via Zara ,"21",,45.41726,12.374244
Via Zara ,2a,,45.415809,12.373848
Via Zara ,"6",,45.416748,12.374227
Via Zara ,"10",,45.417013,12.374335
Via Zara ,"2",,45.415668,12.373785
Via Zara ,"5",,45.416009,12.373701
Via Zara ,6a,,45.416698,12.374198
Via Zara ,"23",,45.417268,12.374247
Via Zara ,6b,,45.416784,12.374249
Via Zara ,"12",,45.417173,12.374394
Via Zara ,"7",,45.416141,12.373759
Via Zara ,"4",,45.416636,12.374166
Via Zara ,"11",,45.416547,12.373951
Via Zara ,"15",,45.416856,12.374068
Via Zara ,"17",,45.416992,12.374127
Via Zara ,"9",,45.41625,12.373816
Via Zara ,2b,,45.416118,12.373965
Via Zara ,"3",,45.415734,12.373588
Via Zara ,"13",,45.416741,12.374021
Via Zara ,"19",,45.417107,12.374177
Via dei Remondini ,"10",,45.389,12.349443
Via dei Remondini ,"6",,45.388752,12.350059
Via dei Remondini ,5a,,45.388622,12.35007
Via dei Remondini ,"4",,45.388671,12.350263
Via dei Remondini ,"1",,45.388469,12.350464
Via dei Remondini ,"8",,45.388924,12.349634
Via dei Remondini ,"9",,45.388916,12.349348
Via dei Remondini ,"3",,45.388574,12.350195
Via dei Remondini ,11a,,45.389026,12.349063
Via dei Remondini ,"11",,45.388986,12.349168
Via dei Remondini ,7a,,45.388826,12.349563
Via dei Remondini ,9a,,45.388951,12.34926
Via dei Remondini ,"5",,45.38866,12.349975
Via dei Remondini ,"7",,45.388791,12.349657
Piazza Bartolomeo Gamba ,1a,,45.391759,12.353241
Piazza Bartolomeo Gamba ,"2",,45.391962,12.35305
Piazza Bartolomeo Gamba ,"1",,45.391749,12.353268
Via Pietro Garzoni ,"7",,45.402019,12.36021
Via Pietro Garzoni ,1a,,45.401828,12.360717
Via Pietro Garzoni ,"9",,45.402128,12.35992
Via Pietro Garzoni ,"8",,45.402121,12.360159
Via Pietro Garzoni ,5a,,45.401944,12.36041
Via Pietro Garzoni ,"6",,45.402045,12.360313
Via Pietro Garzoni ,"2",,45.401853,12.36082
Via Pietro Garzoni ,"1",,45.40177,12.360873
Via Pietro Garzoni ,2a,,45.401914,12.360658
Via Pietro Garzoni ,9a,,45.402207,12.359711
Via Pietro Garzoni ,"4",,45.402004,12.360464
Via Pietro Garzoni ,"5",,45.401911,12.360497
Lungomare Guglielmo Marconi ,"46",,45.402819,12.364147
Lungomare Guglielmo Marconi ,"50",,45.40293,12.363868
Lungomare Guglielmo Marconi ,"49",,45.40293,12.363868
Lungomare Guglielmo Marconi ,52a,,45.402366,12.364639
Lungomare Guglielmo Marconi ,"25",,45.409419,12.371689
Lungomare Guglielmo Marconi ,"86",,45.398848,12.361115
Lungomare Guglielmo Marconi ,"52",,45.402422,12.364682
Lungomare Guglielmo Marconi ,"67",,45.400458,12.362561
Lungomare Guglielmo Marconi ,76a,,45.399715,12.362567
Lungomare Guglielmo Marconi ,28b,,45.408829,12.371161
Lungomare Guglielmo Marconi ,84b,,45.39878,12.361839
Lungomare Guglielmo Marconi ,"60",,45.401045,12.363454
Lungomare Guglielmo Marconi ,45e,,45.402816,12.364156
Lungomare Guglielmo Marconi ,74b,,45.399876,12.362685
Lungomare Guglielmo Marconi ,60a,,45.40098,12.363396
Lungomare Guglielmo Marconi ,59a,,45.401132,12.363527
Lungomare Guglielmo Marconi ,"76",,45.399746,12.36259
Lungomare Guglielmo Marconi ,"65",,45.400507,12.362559
Lungomare Guglielmo Marconi ,85l,,45.398471,12.361115
Lungomare Guglielmo Marconi ,28a,,45.408973,12.371289
Lungomare Guglielmo Marconi ,"32",,45.404889,12.366798
Lungomare Guglielmo Marconi ,32e,,45.405046,12.366962
Lungomare Guglielmo Marconi ,74d,,45.399796,12.362626
Lungomare Guglielmo Marconi ,"21",,45.410719,12.372855
Lungomare Guglielmo Marconi ,"61",,45.400968,12.363386
Lungomare Guglielmo Marconi ,84f,,45.398613,12.361639
Lungomare Guglielmo Marconi ,"55",,45.40175,12.364033
Lungomare Guglielmo Marconi ,29b,,45.408515,12.370879
Lungomare Guglielmo Marconi ,"51",,45.402494,12.364589
Lungomare Guglielmo Marconi ,74a,,45.399899,12.362701
Lungomare Guglielmo Marconi ,"85",,45.398526,12.361575
Lungomare Guglielmo Marconi ,"45",,45.402778,12.364283
Lungomare Guglielmo Marconi ,76d,,45.399576,12.362463
Lungomare Guglielmo Marconi ,"22",,45.410387,12.372558
Lungomare Guglielmo Marconi ,84c,,45.398741,12.361808
Lungomare Guglielmo Marconi ,"27",,45.409046,12.371355
Lungomare Guglielmo Marconi ,"74",,45.399916,12.362714
Lungomare Guglielmo Marconi ,84d,,45.39872,12.361791
Lungomare Guglielmo Marconi ,"87",,45.398638,12.360627
Lungomare Guglielmo Marconi ,"69",,45.400537,12.362623
Lungomare Guglielmo Marconi ,"48",,45.402925,12.363903
Lungomare Guglielmo Marconi ,"49",,45.402925,12.363903
Lungomare Guglielmo Marconi ,85a,,45.39849,12.361548
Lungomare Guglielmo Marconi ,"58",,45.40135,12.363923
Lungomare Guglielmo Marconi ,"90",,45.398279,12.361426
Lungomare Guglielmo Marconi ,"88",,45.398569,12.360803
Lungomare Guglielmo Marconi ,"17",,45.413308,12.374957
Lungomare Guglielmo Marconi ,46a,,45.402823,12.364135
Lungomare Guglielmo Marconi ,76c,,45.399607,12.362487
Lungomare Guglielmo Marconi ,"47",,45.402902,12.363895
Lungomare Guglielmo Marconi ,"48",,45.402922,12.363902
Lungomare Guglielmo Marconi ,"49",,45.402922,12.363902
Lungomare Guglielmo Marconi ,74c,,45.399833,12.362653
Via Francesco Algarotti ,"3",,45.409993,12.365529
Via Francesco Algarotti ,"1",,45.40995,12.365751
Via Francesco Algarotti ,"2",,45.410073,12.365402
Via Delle Alghe ,1a,,45.398924,12.361718
Via Delle Alghe ,"7",,45.399159,12.361012
Via Delle Alghe ,"2",,45.398949,12.361842
Via Delle Alghe ,"5",,45.399097,12.361202
Via Delle Alghe ,"1",,45.398943,12.361666
Via dei Remondini ,"2",,45.388602,12.350435
Via dei Remondini ,10a,,45.389088,12.349223
Lungomare Guglielmo Marconi ,84a,,45.398808,12.361862
Lungomare Guglielmo Marconi ,41d,,45.402971,12.365117
Lungomare Guglielmo Marconi ,32d,,45.405012,12.366926
Lungomare Guglielmo Marconi ,"84",,45.398833,12.361882
Lungomare Guglielmo Marconi ,"91",,45.39792,12.361226
Lungomare Guglielmo Marconi ,84e,,45.398657,12.361658
Lungomare Guglielmo Marconi ,32a,,45.40492,12.366831
Lungomare Guglielmo Marconi ,32f,,45.405068,12.366984
Lungomare Guglielmo Marconi ,"68",,45.400435,12.36256
Lungomare Guglielmo Marconi ,"36",,45.404752,12.366656
Lungomare Guglielmo Marconi ,"59",,45.40112,12.363517
Lungomare Guglielmo Marconi ,"81",,45.399142,12.362131
Lungomare Guglielmo Marconi ,55a,,45.401587,12.363919
Lungomare Guglielmo Marconi ,32h,,45.405109,12.367033
Via Delle Alghe ,"6",,45.399104,12.361375
Via Delle Alghe ,2a,,45.398997,12.361703
Via Delle Alghe ,"4",,45.399025,12.361624
Via Delle Alghe ,1b,,45.398915,12.361744
Via Delle Alghe ,"3",,45.399017,12.361464
Via Delle Alghe ,4a,,45.39907,12.361486
Via Delle Alghe ,"8",,45.399167,12.361111
Via Paoluccio Anafesto ,"3",,45.403704,12.361123
Via Paoluccio Anafesto ,"1",,45.403627,12.361321
Via Paoluccio Anafesto ,"2",,45.403665,12.361224
Via Doge Beato ,"11",,45.367601,12.337165
Via Doge Beato ,"13",,45.3674,12.337169
Via Doge Beato ,2a,,45.367989,12.33705
Via Doge Beato ,1c,,45.368773,12.337083
Via Doge Beato ,"6",,45.367569,12.337061
Via Doge Beato ,"8",,45.367399,12.337067
Via Doge Beato ,"20",,45.366259,12.337004
Via Doge Beato ,1b,,45.368968,12.337061
Via Doge Beato ,"10",,45.367167,12.337066
Via Doge Beato ,"14",,45.366603,12.337034
Via Doge Beato ,"4",,45.367797,12.337055
Via Doge Beato ,"2",,45.368241,12.337033
Via Doge Beato ,1a,,45.36924,12.33703
Via Doge Beato ,"3",,45.36856,12.337104
Via Doge Beato ,12b,,45.366653,12.33704
Via Doge Beato ,"9",,45.367959,12.337153
Via Doge Beato ,"12",,45.366871,12.337055
Via Doge Beato ,9a,,45.367894,12.337155
Via Doge Beato ,"27",,45.366398,12.337121
Via Doge Beato ,"18",,45.36636,12.337013
Via Doge Beato ,5a,,45.368159,12.337144
Via Doge Beato ,27a,,45.366386,12.33712
Via Doge Beato ,"29",,45.366146,12.337101
Via Doge Beato ,"5",,45.368314,12.337128
Via Doge Beato ,12a,,45.366776,12.337047
Via Doge Beato ,"19",,45.366634,12.337138
Via Doge Beato ,"16",,45.366475,12.337022
Via Doge Beato ,"17",,45.366836,12.337155
Via Doge Beato ,"25",,45.366568,12.337133
Via Doge Beato ,8a,,45.367322,12.337067
Via Doge Beato ,"15",,45.367159,12.337168
Via Doge Beato ,"1",,45.369319,12.337022
Via Doge Giovanni Galbaio ,1a,,45.368116,12.337555
Via Doge Giovanni Galbaio ,"3",,45.368156,12.337868
Via Doge Giovanni Galbaio ,"2",,45.368064,12.337554
Via Doge Giovanni Galbaio ,"1",,45.36811,12.337462
Via Doge Giovanni Galbaio ,"4",,45.36808,12.337869
Via Famagosta ,"6",,45.415834,12.375008
Via Famagosta ,"11",,45.416028,12.375052
Via Famagosta ,2b,,45.415599,12.374844
Via Famagosta ,"2",,45.415484,12.374761
Via Famagosta ,"10",,45.416132,12.375189
Via Famagosta ,"3",,45.415469,12.374655
Via Famagosta ,"8",,45.416032,12.375146
Via Famagosta ,5a,,45.415766,12.374855
Via Famagosta ,"4",,45.415737,12.37494
Via Famagosta ,"7",,45.415839,12.374925
Via Famagosta ,1b,,45.415416,12.374618
Via Famagosta ,"9",,45.415926,12.374985
Via Famagosta ,"5",,45.415654,12.374791
Via Famagosta ,3a,,45.415527,12.374698
Via Famagosta ,2a,,45.415394,12.374695
Via Famagosta ,1a,,45.415393,12.374603
Via Famagosta ,"12",,45.416157,12.375119
Via Corfu' ,"13",,45.417807,12.369945
Via Corfu' ,"8",,45.417262,12.370237
Via Corfu' ,"1",,45.417022,12.370121
Via Corfu' ,"7",,45.417394,12.370069
Via Corfu' ,8a,,45.417144,12.370274
Via Corfu' ,"5",,45.417316,12.370091
Via Corfu' ,"15",,45.417863,12.369932
Via Corfu' ,"3",,45.417218,12.370062
Via Corfu' ,"4",,45.416758,12.370387
Via Corfu' ,8b,,45.417429,12.370193
Via Corfu' ,9a,,45.417497,12.370027
Via Corfu' ,"9",,45.417575,12.370005
Via Corfu' ,"11",,45.417696,12.369971
Via Corfu' ,"10",,45.41769,12.370108
Via Morea ,"12",,45.42222,12.3778
Via Morea ,5c,,45.422725,12.378233
Via Morea ,"13",,45.422152,12.377869
Via Morea ,"3",,45.42281,12.378286
Via Morea ,5a,,45.422675,12.378203
Via Morea ,"7",,45.422555,12.378132
Via Morea ,"9",,45.422307,12.37797
Via Morea ,4d,,45.423177,12.378362
Via Morea ,"11",,45.42238,12.378018
Via Morea ,5b,,45.422651,12.378188
Via Morea ,"10",,45.422499,12.377973
Via Morea ,"5",,45.4227,12.378217
Via Morea ,"1",,45.423099,12.378487
Via Morea ,2c,,45.423409,12.378379
Via Morea ,1a,,45.422932,12.378368
Via Morea ,14a,,45.422091,12.377716
Via Morea ,"6",,45.423039,12.378305
Via Morea ,"4",,45.42327,12.378378
Via Giambattista Costa ,"9",,45.385952,12.351131
Via Giambattista Costa ,"5",,45.386405,12.35051
Via Giambattista Costa ,2b,,45.386298,12.350229
Via Giambattista Costa ,"1",,45.386609,12.349807
Via Giambattista Costa ,"4",,45.386088,12.350661
Via Giambattista Costa ,"7",,45.386018,12.351004
Via Giambattista Costa ,"11",,45.385877,12.3513
Via Giambattista Costa ,"2",,45.386338,12.350147
Via Giambattista Costa ,6a,,45.385956,12.35092
Via Giambattista Costa ,"3",,45.38669,12.350672
Via Giambattista Costa ,3a,,45.386694,12.350715
Via Giambattista Costa ,1a,,45.386511,12.350467
Via Giambattista Costa ,2a,,45.386318,12.350189
Piazza Fiume ,"14",,45.41021,12.371936
Strada Privata Wolfango Goethe ,"3",,45.34679,12.318595
Strada Privata Wolfango Goethe ,"11",,45.346484,12.319242
Strada Privata Wolfango Goethe ,"13",,45.346459,12.31934
Strada Privata Wolfango Goethe ,1a,,45.346928,12.318479
Strada Privata Wolfango Goethe ,5a,,45.346718,12.318664
Strada Privata Wolfango Goethe ,"8",,45.346495,12.318948
Strada Privata Wolfango Goethe ,"1",,45.347014,12.318406
Strada Privata Wolfango Goethe ,"7",,45.346608,12.31881
Strada Privata Wolfango Goethe ,6a,,45.346494,12.318856
Strada Privata Wolfango Goethe ,"5",,45.346753,12.318625
Strada Privata Wolfango Goethe ,"9",,45.346515,12.319109
Via Andrea Gritti ,9a,,45.407276,12.366026
Via Andrea Gritti ,"5",,45.407271,12.365795
Via Andrea Gritti ,4a,,45.407248,12.365736
Via Andrea Gritti ,"10",,45.407214,12.366128
Via Andrea Gritti ,"3",,45.40729,12.36557
Via Andrea Gritti ,"9",,45.407262,12.366137
Via Andrea Gritti ,"4",,45.407263,12.365563
Via Andrea Gritti ,"7",,45.407259,12.36593
Via Andrea Gritti ,"6",,45.407238,12.365851
Via Andrea Gritti ,"2",,45.407272,12.365473
Via Andrea Gritti ,"8",,45.407227,12.365971
Via Frà Mauro ,"6",,45.418549,12.377566
Via Frà Mauro ,7a,,45.418497,12.377931
Via Frà Mauro ,"2",,45.418706,12.377195
Via Frà Mauro ,2a,,45.418648,12.377324
Via Frà Mauro ,4a,,45.418572,12.377511
Via Frà Mauro ,"8",,45.418442,12.377819
Via Frà Mauro ,"12",,45.418277,12.378188
Via Frà Mauro ,"3",,45.418711,12.377439
Via Frà Mauro ,"1",,45.418832,12.377184
Via Frà Mauro ,6a,,45.418507,12.377666
Via Frà Mauro ,"11",,45.418265,12.378457
Via Buono Da Malamocco ,"9",,45.368691,12.337894
Via Buono Da Malamocco ,3b,,45.369499,12.337486
Via Buono Da Malamocco ,"4",,45.369436,12.337413
Via Buono Da Malamocco ,3a,,45.3695,12.337392
Via Buono Da Malamocco ,"3",,45.369501,12.337335
Via Buono Da Malamocco ,3c,,45.369498,12.337548
Via Buono Da Malamocco ,"8",,45.368734,12.33788
Strada Dell'ospizio Marino ,"16",Strada Dell'Ospizio Marino ,45.421335,12.381188
Strada Dell'ospizio Marino ,"9",Strada Dell'Ospizio Marino ,45.420002,12.379919
Strada Dell'ospizio Marino ,"5",Strada Dell'Ospizio Marino ,45.419669,12.379967
Strada Dell'ospizio Marino ,"15",Strada Dell'Ospizio Marino ,45.421387,12.38109
Strada Dell'ospizio Marino ,"21",Strada Dell'Ospizio Marino ,45.421618,12.381313
Strada Dell'ospizio Marino ,"20",Strada Dell'Ospizio Marino ,45.421563,12.381404
Via Frà Mauro ,"14",,45.418193,12.37839
Via Frà Mauro ,"10",,45.418391,12.377925
Via Frà Mauro ,"4",,45.418633,12.377358
Via Frà Mauro ,"9",,45.41844,12.378062
Via Frà Mauro ,"7",,45.418524,12.377869
Via Buono Da Malamocco ,2a,,45.369436,12.337232
Via Buono Da Malamocco ,"7",,45.368906,12.337778
Via Buono Da Malamocco ,"2",,45.369414,12.337108
Via Buono Da Malamocco ,"6",,45.36911,12.337738
Piazzale Santa Maria Elisabetta ,"9",,45.416657,12.368155
Piazzale Santa Maria Elisabetta ,1a,,45.417759,12.369306
Piazzale Santa Maria Elisabetta ,"4",,45.417565,12.369137
Piazzale Santa Maria Elisabetta ,"2",,45.417709,12.369431
Piazzale Santa Maria Elisabetta ,"1",,45.417812,12.36925
Piazzale Santa Maria Elisabetta ,7b,,45.416882,12.368273
Piazzale Santa Maria Elisabetta ,2a,,45.417741,12.369497
Piazzale Santa Maria Elisabetta ,3a,,45.417609,12.369221
Riviera San Nicolo' ,"3",,45.420304,12.375644
Riviera San Nicolo' ,15b,,45.422795,12.376781
Riviera San Nicolo' ,47a,,45.429587,12.381525
Riviera San Nicolo' ,15c,,45.422746,12.376758
Riviera San Nicolo' ,"42",,45.428943,12.3809
Riviera San Nicolo' ,"72",,45.432239,12.383985
Riviera San Nicolo' ,"71",,45.432095,12.383858
Riviera San Nicolo' ,23b,,45.425477,12.378439
Riviera San Nicolo' ,19b,,45.423617,12.377212
Riviera San Nicolo' ,"70",,45.431949,12.383686
Riviera San Nicolo' ,"13",,45.422582,12.376679
Riviera San Nicolo' ,4b,,45.42043,12.375697
Riviera San Nicolo' ,17a,,45.423344,12.377051
Riviera San Nicolo' ,56a,,45.430898,12.382807
Riviera San Nicolo' ,5a,,45.420607,12.375769
Riviera San Nicolo' ,69f,,45.431863,12.383645
Riviera San Nicolo' ,"16",,45.423068,12.376915
Riviera San Nicolo' ,15a,,45.422829,12.376797
Riviera San Nicolo' ,"59",,45.43107,12.383004
Riviera San Nicolo' ,"19",,45.423495,12.377155
Riviera San Nicolo' ,"27",,45.428042,12.380526
Riviera San Nicolo' ,62d,,45.431411,12.383317
Riviera San Nicolo' ,"46",,45.429578,12.381517
Riviera San Nicolo' ,"31",,45.428334,12.380583
Riviera San Nicolo' ,23a,,45.425312,12.378346
Riviera San Nicolo' ,"33",,45.428539,12.380687
Riviera San Nicolo' ,"21",,45.424133,12.377445
Riviera San Nicolo' ,"25",,45.426599,12.379138
Riviera San Nicolo' ,20b,,45.423725,12.377238
Riviera San Nicolo' ,"47",,45.429675,12.381612
Riviera San Nicolo' ,44a,,45.429567,12.381506
Riviera San Nicolo' ,29a,,45.428162,12.380552
Riviera San Nicolo' ,"4",,45.420506,12.375728
Riviera San Nicolo' ,"15",,45.422853,12.376837
Riviera San Nicolo' ,4a,,45.420553,12.375747
Riviera San Nicolo' ,69b,,45.431734,12.383547
Riviera San Nicolo' ,"57",,45.431019,12.382926
Riviera San Nicolo' ,15e,,45.422692,12.376753
Riviera San Nicolo' ,15d,,45.422714,12.376764
Riviera San Nicolo' ,15g,,45.422617,12.376696
Riviera San Nicolo' ,"66",,45.431601,12.383449
Riviera San Nicolo' ,13a,,45.422571,12.376673
Riviera San Nicolo' ,"44",,45.42938,12.381322
Riviera San Nicolo' ,"41",,45.428823,12.380793
Riviera San Nicolo' ,66a,,45.431549,12.383381
Riviera San Nicolo' ,"2",,45.420097,12.375563
Riviera San Nicolo' ,"30",,45.428265,12.380569
Riviera San Nicolo' ,43a,,45.429065,12.381887
Riviera San Nicolo' ,"18",,45.423402,12.377111
Riviera San Nicolo' ,"20",,45.423823,12.377314
Riviera San Nicolo' ,20a,,45.423996,12.377376
Riviera San Nicolo' ,"43",,45.429158,12.381107
Riviera San Nicolo' ,"55",,45.430725,12.382656
Riviera San Nicolo' ,15f,,45.422656,12.376735
Riviera San Nicolo' ,"23",,45.425074,12.37817
Riviera San Nicolo' ,"49",,45.42993,12.381874
Riviera San Nicolo' ,15h,,45.422599,12.376687
Riviera San Nicolo' ,"48",,45.429793,12.381726
Riviera San Nicolo' ,"61",,45.431151,12.383079
Riviera San Nicolo' ,62e,,45.431267,12.383188
Riviera San Nicolo' ,"5",,45.420666,12.37581
Riviera San Nicolo' ,"54",,45.430353,12.382283
Riviera San Nicolo' ,"17",,45.423219,12.377022
Riviera San Nicolo' ,"12",,45.422489,12.376634
Riviera San Nicolo' ,17b,,45.423286,12.377024
Riviera San Nicolo' ,"26",,45.427856,12.381001
Riviera San Nicolo' ,"40",,45.429175,12.381123
Riviera San Nicolo' ,"29",,45.42814,12.380546
Riviera San Nicolo' ,19a,,45.423532,12.377172
Riviera San Nicolo' ,"28",,45.428063,12.380533
Riviera San Nicolo' ,"50",,45.429987,12.382201
Via dei Kirchmayr ,3c,,45.392745,12.354916
Via dei Kirchmayr ,"8",,45.39231,12.355453
Via dei Kirchmayr ,3a,,45.392651,12.354775
Via dei Kirchmayr ,"9",,45.392488,12.355522
Via dei Kirchmayr ,"1",,45.392707,12.354631
Via dei Kirchmayr ,8a,,45.392249,12.355609
Via dei Kirchmayr ,3d,,45.392769,12.354935
Via dei Kirchmayr ,"10",,45.392139,12.355891
Via Angelo Partecipazio ,"2",,45.414371,12.366846
Via Angelo Partecipazio ,4a,,45.414404,12.366692
Via Angelo Partecipazio ,"3",,45.414359,12.366682
Via Angelo Partecipazio ,"6",,45.414487,12.366331
Via Angelo Partecipazio ,"5",,45.414384,12.366569
Via Angelo Partecipazio ,"1",,45.414303,12.366917
Via Angelo Partecipazio ,"7",,45.414434,12.366345
Via Angelo Partecipazio ,5a,,45.414407,12.366466
Via Angelo Partecipazio ,"4",,45.414428,12.366582
Via dei Kirchmayr ,"4",,45.392469,12.354817
Via dei Kirchmayr ,"2",,45.392607,12.354464
Via dei Kirchmayr ,"7",,45.392618,12.355188
Via Candia ,"18",,45.405955,12.366151
Via Candia ,"16",,45.406213,12.365885
Via Candia ,"15",,45.406262,12.365829
Via Candia ,"17",,45.406022,12.366087
Via Candia ,"11",,45.407016,12.366328
Via Candia ,"28",,45.405271,12.367045
Via Candia ,"20",,45.40563,12.366465
Via Candia ,"22",,45.405481,12.366666
Via Candia ,"5",,45.407805,12.366518
Via Candia ,1b,,45.407839,12.36571
Via Candia ,"14",,45.406506,12.365985
Via Candia ,"27",,45.405316,12.366969
Via Candia ,"13",,45.406731,12.366138
Via Candia ,"24",,45.405446,12.366724
Via Candia ,5a,,45.407682,12.366755
Via Candia ,"10",,45.407086,12.366374
Via Candia ,21a,,45.405542,12.366566
Via Candia ,"9",,45.407297,12.366512
Via Candia ,"19",,45.40568,12.366419
Via Candia ,18a,,45.405795,12.366304
Via Candia ,2a,,45.40783,12.365825
Via Candia ,"2",,45.407829,12.365761
Via Candia ,"25",,45.405418,12.366771
Via Candia ,5b,,45.407612,12.366711
Via Candia ,"23",,45.405464,12.366695
Via Candia ,"4",,45.407814,12.36633
Via Candia ,"12",,45.406824,12.3662
Via Candia ,"21",,45.405581,12.366501
Via Candia ,"3",,45.407827,12.366117
Via Candia ,26a,,45.405361,12.366894
Via Candia ,14a,,45.406418,12.365927
Via Giovanni Caboto ,7a,,45.419033,12.378529
Via Giovanni Caboto ,"4",,45.418791,12.378716
Via Giovanni Caboto ,"3",,45.418652,12.378692
Via Giovanni Caboto ,"5",,45.418859,12.378606
Via Giovanni Caboto ,"1",,45.418368,12.37881
Via Giovanni Caboto ,5a,,45.418956,12.378563
Via Giovanni Caboto ,"7",,45.419099,12.378501
Via Antoniotto Usodimare ,"2",,45.397756,12.359651
Via Antoniotto Usodimare ,10a,,45.397048,12.359118
Via Antoniotto Usodimare ,2a,,45.397669,12.359587
Via Antoniotto Usodimare ,"4",,45.397627,12.359555
Via Antoniotto Usodimare ,"9",,45.397294,12.359388
Via Antoniotto Usodimare ,"8",,45.39718,12.359219
Via Antoniotto Usodimare ,"11",,45.396915,12.359066
Via Antoniotto Usodimare ,"6",,45.397422,12.359401
Via Antoniotto Usodimare ,"12",,45.39702,12.359096
Via Antoniotto Usodimare ,"15",,45.397018,12.359144
Via Antoniotto Usodimare ,"5",,45.397814,12.359744
Via Antoniotto Usodimare ,"10",,45.397144,12.359191
Via Perasto ,"18",,45.417615,12.371478
Via Perasto ,"7",,45.417271,12.371061
Via Perasto ,"20",,45.417939,12.371691
Via Perasto ,1a,,45.416973,12.37088
Via Perasto ,6a,,45.416671,12.370917
Via Perasto ,"11",,45.417922,12.371471
Via Perasto ,"3",,45.4171,12.370958
Via Perasto ,"8",,45.416782,12.370939
Via Perasto ,6c,,45.416625,12.37087
Via Perasto ,"2",,45.416527,12.370809
Via Perasto ,"10",,45.417165,12.371196
Via Perasto ,"5",,45.417195,12.371013
Via Perasto ,"6",,45.416583,12.370844
Via Perasto ,18a,,45.417672,12.371513
Via Perasto ,18b,,45.417712,12.371536
Via Perasto ,"13",,45.417989,12.371512
Via Perasto ,12a,,45.417346,12.371306
Via Perasto ,"12",,45.417358,12.371314
Via Perasto ,"14",,45.417507,12.371413
Via Perasto ,8a,,45.416939,12.371055
Via Perasto ,"15",,45.418075,12.371557
Via Perasto ,16b,,45.417582,12.371449
Riviera Santa Maria Elisabetta ,"7",,45.41872,12.37277
Riviera Santa Maria Elisabetta ,"6",,45.418373,12.37201
Riviera Santa Maria Elisabetta ,"11",,45.419186,12.373753
Riviera Santa Maria Elisabetta ,13b,,45.419657,12.374772
Riviera Santa Maria Elisabetta ,"15",,45.418158,12.369787
Riviera Santa Maria Elisabetta ,8a,,45.418925,12.373178
Riviera Santa Maria Elisabetta ,"8",,45.41889,12.373109
Riviera Santa Maria Elisabetta ,"10",,45.419167,12.373661
Riviera Santa Maria Elisabetta ,"3",,45.418136,12.371151
Riviera Santa Maria Elisabetta ,2a,,45.41805,12.370122
Riviera Santa Maria Elisabetta ,"2",,45.417974,12.369669
Riviera Santa Maria Elisabetta ,"9",,45.419083,12.373494
Via Sebastiano Pigafetta ,"15",,45.39671,12.358812
Via Sebastiano Pigafetta ,"24",,45.396732,12.358682
Via Sebastiano Pigafetta ,"20",,45.396727,12.358664
Via Sebastiano Pigafetta ,"16",,45.396617,12.358402
Via Sebastiano Pigafetta ,"13",,45.395915,12.358051
Via Sebastiano Pigafetta ,"14",,45.396597,12.358396
Via Sebastiano Pigafetta ,"22",,45.396729,12.358673
Via Sebastiano Pigafetta ,"18",,45.396637,12.358409
Via Aquileia ,"12",,45.418452,12.374841
Via Aquileia ,"4",,45.417802,12.374639
Via Aquileia ,"7",,45.418437,12.374715
Via Aquileia ,"3",,45.418086,12.374579
Via Aquileia ,"2",,45.417682,12.374593
Via Aquileia ,"16",,45.419204,12.375189
Via Aquileia ,"13",,45.41949,12.375175
Via Aquileia ,"28",,45.419489,12.375299
Via Aquileia ,"24",,45.419422,12.375271
Via Aquileia ,"14",,45.418624,12.374908
Via Aquileia ,"32",,45.419534,12.375322
Via Aquileia ,"1",,45.417917,12.374514
Via Aquileia ,"6",,45.418214,12.374749
Via Aquileia ,11a,,45.419139,12.375034
Via Aquileia ,"11",,45.419047,12.374993
Via Aquileia ,"9",,45.418997,12.374971
Via Aquileia ,16b,,45.419289,12.375221
Via Aquileia ,"5",,45.418215,12.37463
Via Aquileia ,"8",,45.418309,12.374786
Via Francesco Sansovino ,"4",,45.401545,12.359384
Via Francesco Sansovino ,3a,,45.401399,12.359709
Via Francesco Sansovino ,2a,,45.401304,12.359921
Via Francesco Sansovino ,"3",,45.401329,12.359866
Via Francesco Sansovino ,3b,,45.401479,12.359532
Via Francesco Sansovino ,"2",,45.401237,12.36007
Via Vettor Pisani ,"8",,45.415584,12.369182
Via Vettor Pisani ,"4",,45.415813,12.368065
Via Vettor Pisani ,"6",,45.41571,12.368556
Via Vettor Pisani ,4b,,45.415837,12.368162
Via Vettor Pisani ,"14",,45.413962,12.369802
Via Vettor Pisani ,"10",,45.415325,12.36989
Via Vettor Pisani ,"12",,45.414806,12.369846
Via Vettor Pisani ,"13",,45.414213,12.369816
Via Vettor Pisani ,"7",,45.415641,12.368897
Via Vettor Pisani ,8a,,45.415555,12.369323
Via Vettor Pisani ,"9",,45.415501,12.369595
Via Vettor Pisani ,"5",,45.415762,12.368311
Via Vettor Pisani ,6a,,45.415684,12.368683
Via Vettor Pisani ,12a,,45.41474,12.369844
Via Vettor Pisani ,"3",,45.415836,12.367955
Via Aldo Manuzio ,7a,,45.421233,12.377159
Via Aldo Manuzio ,"1",,45.422004,12.376654
Via Aldo Manuzio ,"5",,45.421436,12.377029
Via Aldo Manuzio ,"10",,45.420925,12.377358
Via Aldo Manuzio ,7b,,45.421249,12.37715
Via Aldo Manuzio ,7e,,45.421217,12.377169
Via Aldo Manuzio ,"2",,45.421834,12.376774
Via Aldo Manuzio ,7d,,45.421228,12.377163
Via Aldo Manuzio ,"4",,45.421677,12.376872
Via Aldo Manuzio ,"12",,45.420631,12.377548
Via Aldo Manuzio ,4a,,45.421561,12.376948
Via Aldo Manuzio ,"6",,45.421374,12.377068
Via Aldo Manuzio ,"9",,45.420977,12.377324
Via Aldo Manuzio ,"11",,45.420788,12.377449
Via Aldo Manuzio ,1b,,45.421889,12.37674
Via Aldo Manuzio ,10b,,45.420836,12.377418
Via Aldo Manuzio ,"8",,45.421133,12.377222
Via Aldo Manuzio ,1a,,45.421942,12.376707
Via Aldo Manuzio ,7c,,45.421238,12.377156
Via Aldo Manuzio ,"14",,45.420494,12.377638
Piazzale Raimondo Ravà ,"3",,45.422916,12.384517
Via Malamocco ,9a,,45.386319,12.3492
Via Malamocco ,"39",,45.383591,12.346963
Via Malamocco ,"49",,45.383462,12.346857
Via Malamocco ,"26",,45.384253,12.347235
Via Malamocco ,"24",,45.384253,12.347235
Via Malamocco ,"28",,45.384253,12.347235
Via Malamocco ,25a,,45.384215,12.347478
Via Malamocco ,"26",,45.384249,12.347232
Via Malamocco ,"30",,45.384249,12.347232
Via Malamocco ,"24",,45.384249,12.347232
Via Malamocco ,"28",,45.384249,12.347232
Via Malamocco ,"62",,45.383265,12.346461
Via Malamocco ,5a,,45.387442,12.350106
Via Malamocco ,33c,,45.384297,12.347546
Via Malamocco ,33b,,45.384297,12.347546
Via Malamocco ,33a,,45.384297,12.347546
Via Malamocco ,"33",,45.384297,12.347546
Via Malamocco ,29a,,45.384306,12.347554
Via Malamocco ,"31",,45.384306,12.347554
Via Malamocco ,31b,,45.384306,12.347554
Via Malamocco ,43a,,45.383859,12.347183
Via Malamocco ,41b,,45.383859,12.347183
Via Malamocco ,41a,,45.383859,12.347183
Via Malamocco ,"45",,45.383843,12.34717
Via Malamocco ,55a,,45.383475,12.346868
Via Malamocco ,"57",,45.383475,12.346868
Via Malamocco ,"55",,45.383475,12.346868
Via Malamocco ,"17",,45.385972,12.348922
Via Malamocco ,12a,,45.387151,12.349676
Via Domenico Selvo ,1a,,45.407816,12.365259
Via Domenico Selvo ,"1",,45.408094,12.364085
Via Pietro Zeno ,"6",,45.417745,12.374392
Via Pietro Zeno ,3a,,45.418288,12.373321
Via Pietro Zeno ,"1",,45.418401,12.373109
Via Malamocco ,"35",,45.383865,12.347188
Via Malamocco ,35a,,45.383865,12.347188
Via Malamocco ,35b,,45.383865,12.347188
Via Malamocco ,41b,,45.383865,12.347188
Via Malamocco ,"4",,45.388339,12.350621
Via Malamocco ,"52",,45.384218,12.347206
Via Malamocco ,"50",,45.384218,12.347206
Via Malamocco ,"60",,45.383271,12.346466
Via Malamocco ,"38",,45.384238,12.347222
Via Malamocco ,"36",,45.384238,12.347222
Via Malamocco ,"40",,45.384238,12.347222
Via Malamocco ,"70",,45.383228,12.346467
Via Malamocco ,33c,,45.384296,12.347545
Via Malamocco ,31a,,45.384296,12.347545
Via Malamocco ,33b,,45.384296,12.347545
Via Malamocco ,"33",,45.384296,12.347545
Via Malamocco ,"53",,45.383481,12.346873
Via Malamocco ,53a,,45.383481,12.346873
Via Malamocco ,"55",,45.383481,12.346873
Via Malamocco ,55a,,45.383472,12.346865
Via Malamocco ,"57",,45.383472,12.346865
Via Malamocco ,29a,,45.384308,12.347556
Via Malamocco ,"31",,45.384308,12.347556
Via Malamocco ,31a,,45.384293,12.347543
Via Malamocco ,29b,,45.384293,12.347543
Via Malamocco ,"33",,45.384293,12.347543
Via Malamocco ,"41",,45.38382,12.347151
Via Malamocco ,33c,,45.384299,12.347548
Via Malamocco ,33b,,45.384299,12.347548
Via Malamocco ,33a,,45.384299,12.347548
Via Malamocco ,"33",,45.384299,12.347548
Via Malamocco ,"44",,45.38423,12.347216
Via Malamocco ,"46",,45.38423,12.347216
Via Malamocco ,"42",,45.38423,12.347216
Via Malamocco ,"19",,45.385819,12.348794
Via Malamocco ,37b,,45.383783,12.347121
Via Malamocco ,"30",,45.384247,12.34723
Via Malamocco ,"32",,45.384247,12.34723
Via Malamocco ,"28",,45.384247,12.34723
Via Malamocco ,"38",,45.384236,12.34722
Via Malamocco ,"40",,45.384236,12.34722
Via Malamocco ,"42",,45.384236,12.34722
Via Malamocco ,"68",,45.383234,12.346473
Via Malamocco ,"53",,45.383484,12.346875
Via Malamocco ,53a,,45.383484,12.346875
Via Malamocco ,51a,,45.383484,12.346875
Via Malamocco ,"58",,45.383278,12.346472
Via Malamocco ,"10",,45.387785,12.350187
Via Malamocco ,"2",,45.388586,12.350817
Via Malamocco ,49b,,45.383363,12.346776
Via Malamocco ,7c,,45.387096,12.349827
Via Malamocco ,"6",,45.388159,12.350477
Via Malamocco ,"54",,45.38329,12.346482
Via Malamocco ,"26",,45.384252,12.347234
Via Malamocco ,"24",,45.384252,12.347234
Via Malamocco ,"28",,45.384252,12.347234
Via Malamocco ,"36",,45.384242,12.347226
Via Malamocco ,"32",,45.384242,12.347226
Via Malamocco ,"34",,45.384242,12.347226
Via Malamocco ,"44",,45.384233,12.347218
Via Malamocco ,"40",,45.384233,12.347218
Via Malamocco ,"42",,45.384233,12.347218
Via Malamocco ,"18",,45.385608,12.348421
Via Malamocco ,49c,,45.383315,12.346737
Via Malamocco ,49g,,45.383195,12.346637
Via Malamocco ,55a,,45.383478,12.34687
Via Malamocco ,53a,,45.383478,12.34687
Via Malamocco ,"55",,45.383478,12.34687
Via Malamocco ,14a,,45.386356,12.349005
Via Malamocco ,7d,,45.386977,12.349732
Via Malamocco ,43a,,45.383856,12.347181
Via Malamocco ,"43",,45.383856,12.347181
Via Malamocco ,41a,,45.383856,12.347181
Via Malamocco ,33c,,45.384301,12.347549
Via Malamocco ,33b,,45.384301,12.347549
Via Malamocco ,31b,,45.384301,12.347549
Via Malamocco ,33a,,45.384301,12.347549
Via Malamocco ,"22",,45.384296,12.347271
Via Malamocco ,"37",,45.383796,12.347132
Via Malamocco ,"30",,45.384244,12.347228
Via Malamocco ,"32",,45.384244,12.347228
Via Malamocco ,"34",,45.384244,12.347228
Via Malamocco ,"66",,45.383241,12.346478
Via Malamocco ,49f,,45.383234,12.346669
Via Malamocco ,"51",,45.383488,12.346879
Via Malamocco ,51a,,45.383488,12.346879
Via Malamocco ,59a,,45.383126,12.34658
Via Malamocco ,"12",,45.387223,12.349735
Via Malamocco ,7b,,45.387213,12.349921
Via Malamocco ,49d,,45.383305,12.346729
Via Malamocco ,"5",,45.38752,12.350168
Via Malamocco ,"52",,45.384221,12.347208
Via Malamocco ,"50",,45.384221,12.347208
Via Malamocco ,"48",,45.384221,12.347208
Via Malamocco ,"7",,45.38735,12.350032
Via Malamocco ,"14",,45.386677,12.349291
Via Malamocco ,37c,,45.383746,12.34709
Via Giacomo Hertz ,19a,,45.391592,12.354965
Via Giacomo Hertz ,"1",,45.393171,12.355702
Via Giacomo Hertz ,19e,,45.391791,12.354463
Via Giacomo Hertz ,"9",,45.394077,12.356402
Via Giacomo Hertz ,"4",,45.393362,12.356058
Via Giacomo Hertz ,"11",,45.394408,12.356655
Via Giacomo Hertz ,"17",,45.391526,12.355138
Via Giacomo Hertz ,"23",,45.392022,12.354563
Via Giacomo Hertz ,"24",,45.39223,12.354896
Via Giacomo Hertz ,"14",,45.391552,12.355316
Via dei Kirchmayr ,"16",,45.392157,12.356107
Via Giacomo Hertz ,"22",,45.392136,12.354821
Via Giacomo Hertz ,19d,,45.391763,12.354534
Via Giacomo Hertz ,"5",,45.393625,12.356053
Via Giacomo Hertz ,"25",,45.392142,12.354699
Via Giacomo Hertz ,"26",,45.392379,12.355014
Via Giacomo Hertz ,"7",,45.393906,12.355984
Via Giacomo Hertz ,"16",,45.391663,12.355034
Via Giacomo Hertz ,"3",,45.39352,12.355971
Via Giacomo Hertz ,19b,,45.391706,12.354679
Via Giacomo Hertz ,"18",,45.391747,12.354813
Via Giacomo Hertz ,21b,,45.391858,12.354434
Via Giacomo Hertz ,5a,,45.393679,12.356095
Via Domenico Selvo ,"3",,45.408144,12.363808
Via Domenico Selvo ,"5",,45.408178,12.363626
Via Malamocco ,43a,,45.383853,12.347178
Via Malamocco ,"43",,45.383853,12.347178
Via Malamocco ,"35",,45.383866,12.347189
Via Malamocco ,35a,,45.383866,12.347189
Via Malamocco ,35b,,45.383866,12.347189
Via Malamocco ,49e,,45.38327,12.3467
Via Malamocco ,"59",,45.383134,12.346586
Via Malamocco ,57a,,45.383134,12.346586
Via Malamocco ,"59",,45.38313,12.346583
Via Malamocco ,57a,,45.38313,12.346583
Via Malamocco ,"46",,45.384224,12.347211
Via Malamocco ,"50",,45.384224,12.347211
Via Malamocco ,"48",,45.384224,12.347211
Via Malamocco ,"16",,45.385869,12.348639
Via Malamocco ,"38",,45.38424,12.347224
Via Malamocco ,"36",,45.38424,12.347224
Via Malamocco ,"34",,45.38424,12.347224
Via Malamocco ,"44",,45.384226,12.347213
Via Malamocco ,"46",,45.384226,12.347213
Via Malamocco ,"48",,45.384226,12.347213
Via Malamocco ,7a,,45.387289,12.349983
Via Malamocco ,45b,,45.383522,12.346906
Via Malamocco ,45a,,45.383522,12.346906
Via Malamocco ,49a,,45.383405,12.346811
Via Malamocco ,"51",,45.383486,12.346877
Via Malamocco ,"53",,45.383486,12.346877
Via Malamocco ,51a,,45.383486,12.346877
Via Malamocco ,"35",,45.383863,12.347187
Via Malamocco ,35a,,45.383863,12.347187
Via Malamocco ,35b,,45.383863,12.347187
Via Malamocco ,41b,,45.383863,12.347187
Via Malamocco ,"31",,45.384303,12.347551
Via Malamocco ,31b,,45.384303,12.347551
Via Malamocco ,33a,,45.384303,12.347551
Via Malamocco ,31a,,45.38429,12.34754
Via Malamocco ,"29",,45.38429,12.34754
Via Malamocco ,29b,,45.38429,12.34754
Via Malamocco ,4a,,45.388278,12.350572
Via Malamocco ,"11",,45.38623,12.349117
Via Malamocco ,"74",,45.383214,12.346456
Via Malamocco ,"64",,45.383246,12.346483
Via Malamocco ,"56",,45.383283,12.346477
Via Malamocco ,11a,,45.386183,12.349079
Via Malamocco ,"35",,45.383861,12.347185
Via Malamocco ,35a,,45.383861,12.347185
Via Malamocco ,41b,,45.383861,12.347185
Via Malamocco ,41a,,45.383861,12.347185
Via Malamocco ,43b,,45.383848,12.347175
Via Malamocco ,45b,,45.383519,12.346904
Via Malamocco ,45a,,45.383519,12.346904
Via Malamocco ,"47",,45.383513,12.346899
Via Malamocco ,"72",,45.38322,12.346461
Via Malamocco ,"29",,45.384286,12.347537
Via Malamocco ,29b,,45.384286,12.347537
Via Malamocco ,"27",,45.383899,12.347216
Via Malamocco ,"25",,45.38427,12.347524
Via Malamocco ,37f,,45.383666,12.347025
Via Giacomo Hertz ,"20",,45.391961,12.354683
Via Giacomo Hertz ,"19",,45.391681,12.354742
Via Giacomo Hertz ,"6",,45.393759,12.356365
Via Giacomo Hertz ,"21",,45.391804,12.354429
Via Giacomo Hertz ,"12",,45.391822,12.355727
Via Giacomo Hertz ,"27",,45.392277,12.354803
Via Giacomo Hertz ,5b,,45.39386,12.355943
Via Doge Teodato ,31a,,45.370686,12.339713
Via Doge Teodato ,"25",,45.370429,12.338573
Via Doge Teodato ,29a,,45.370666,12.339349
Via Doge Teodato ,"33",,45.370723,12.339865
Via Doge Teodato ,23a,,45.370384,12.338357
Via Doge Teodato ,"2",,45.370096,12.337243
Via Doge Teodato ,"27",,45.370455,12.338704
Via Doge Teodato ,11a,,45.370625,12.337916
Via Doge Teodato ,"23",,45.370358,12.338231
Via Doge Teodato ,27b,,45.370488,12.33887
Via Doge Teodato ,"29",,45.370587,12.3392
Via Doge Teodato ,"7",,45.370258,12.337315
Via Doge Teodato ,"11",,45.370515,12.337861
Via Doge Teodato ,11b,,45.370675,12.337899
Via Doge Teodato ,23b,,45.3704,12.338433
Via Doge Teodato ,27a,,45.370469,12.338776
Via Doge Teodato ,"15",,45.370603,12.338108
Via Doge Teodato ,"19",,45.3708,12.338109
Via Doge Teodato ,"5",,45.370352,12.337306
Via Doge Teodato ,"4",,45.370087,12.337221
Via Doge Teodato ,"1",,45.370128,12.337145
Via Doge Teodato ,"17",,45.370808,12.338091
Via Doge Teodato ,"13",,45.37071,12.337943
Via Doge Teodato ,"21",,45.37072,12.338143
Via Doge Teodato ,"9",,45.370487,12.337794
Calle San Giovanni ,"5",,45.372693,12.339048
Calle San Giovanni ,"9",,45.372759,12.339086
Calle San Giovanni ,"3",,45.372624,12.339061
Calle San Giovanni ,"7",,45.372762,12.339045
Calle San Giovanni ,"8",,45.37275,12.339212
Calle San Giovanni ,"6",,45.372739,12.339087
Calle San Giovanni ,"11",,45.372773,12.339225
Calle San Giovanni ,"4",,45.372613,12.339085
Calle San Giovanni ,"1",,45.372559,12.339069
Via Jacopo Diedo ,"6",,45.401323,12.359229
Via Jacopo Diedo ,6a,,45.401378,12.359106
Via Jacopo Diedo ,"3",,45.401053,12.359834
Via Jacopo Diedo ,1a,,45.400934,12.360097
Via Jacopo Diedo ,"2",,45.400983,12.359989
Via Jacopo Diedo ,"4",,45.401118,12.35969
Via Jacopo Diedo ,"5",,45.401227,12.359446
Via Jacopo Diedo ,1d,,45.400871,12.360236
Via Jacopo Diedo ,1c,,45.40089,12.360193
Via Jacopo Diedo ,1b,,45.400918,12.360133
Via Jacopo Diedo ,4a,,45.401195,12.359517
Via Doge Obelerio ,"7",,45.36935,12.338818
Via Doge Obelerio ,"9",,45.369326,12.338689
Via Doge Obelerio ,"3",,45.369406,12.338821
Strada Zaffi Da Barca ,"6",,45.345666,12.314881
Strada Zaffi Da Barca ,"2",,45.345636,12.315033
Strada Zaffi Da Barca ,"14",,45.344584,12.314169
Strada Zaffi Da Barca ,2m,,45.345805,12.314801
Strada Zaffi Da Barca ,"10",,45.344884,12.314689
Strada Zaffi Da Barca ,"4",,45.345846,12.314647
Via Lazzaro Mocenigo ,"18",,45.412929,12.372036
Via Lazzaro Mocenigo ,"11",,45.414304,12.370705
Via Lazzaro Mocenigo ,"21",,45.413222,12.371408
Via Lazzaro Mocenigo ,"12",,45.413342,12.371096
Via Lazzaro Mocenigo ,"19",,45.41334,12.371261
Via Lazzaro Mocenigo ,8a,,45.413731,12.37081
Via Lazzaro Mocenigo ,"15",,45.41378,12.370914
Via Lazzaro Mocenigo ,"10",,45.413537,12.370927
Via Lazzaro Mocenigo ,"4",,45.41414,12.370659
Via Lazzaro Mocenigo ,21a,,45.413147,12.371546
Via Lazzaro Mocenigo ,"2",,45.414268,12.370464
Via Lazzaro Mocenigo ,"7",,45.414317,12.37064
Via Lazzaro Mocenigo ,15a,,45.413628,12.371011
Via Lazzaro Mocenigo ,14a,,45.413016,12.371586
Via Lazzaro Mocenigo ,"6",,45.413999,12.370699
Via Lazzaro Mocenigo ,"13",,45.414169,12.370782
Via Lazzaro Mocenigo ,"1",,45.414313,12.370231
Via Lazzaro Mocenigo ,"3",,45.414368,12.370416
Via Lazzaro Mocenigo ,"17",,45.413504,12.371102
Via Lazzaro Mocenigo ,"9",,45.41431,12.370673
Via Lazzaro Mocenigo ,"14",,45.413232,12.371225
Via Lazzaro Mocenigo ,"8",,45.413891,12.370734
Via Lazzaro Mocenigo ,5a,,45.414326,12.370591
Via Lazzaro Mocenigo ,"16",,45.412969,12.371819
Via Paolo Erizzo ,"16",,45.416652,12.37298
Via Paolo Erizzo ,"7",,45.416913,12.372534
Via Paolo Erizzo ,"8",,45.417336,12.371922
Via Paolo Erizzo ,16c,,45.416722,12.372809
Via Paolo Erizzo ,13a,,45.416545,12.373571
Via Paolo Erizzo ,"17",,45.416335,12.374435
Via Paolo Erizzo ,12a,,45.416932,12.372186
Via Paolo Erizzo ,5a,,45.417692,12.37196
Via Paolo Erizzo ,9a,,45.416812,12.372826
Via Paolo Erizzo ,"3",,45.417842,12.371922
Via Paolo Erizzo ,"4",,45.41762,12.371858
Via Paolo Erizzo ,"9",,45.416855,12.372703
Via Paolo Erizzo ,16b,,45.416697,12.372878
Via Paolo Erizzo ,7b,,45.416958,12.372403
Via Paolo Erizzo ,"20",,45.416229,12.374262
Via Paolo Erizzo ,"21",,45.416361,12.374833
Via Paolo Erizzo ,"28",,45.416269,12.374775
Via Paolo Erizzo ,5c,,45.417326,12.372058
Via Paolo Erizzo ,"12",,45.41695,12.372136
Via Paolo Erizzo ,20a,,45.416234,12.374374
Via Paolo Erizzo ,"6",,45.417541,12.371875
Via Paolo Erizzo ,13b,,45.416512,12.373667
Via Paolo Erizzo ,"2",,45.4178,12.37181
Via Paolo Erizzo ,"11",,45.416766,12.372941
Via Paolo Erizzo ,14a,,45.416805,12.372545
Via Paolo Erizzo ,"22",,45.416246,12.374477
Via Paolo Erizzo ,1b,,45.418025,12.371886
Via Paolo Erizzo ,1a,,45.418045,12.371883
Via Paolo Erizzo ,5d,,45.417439,12.372028
Via Paolo Erizzo ,"18",,45.416234,12.374189
Via Paolo Erizzo ,5b,,45.417544,12.372
Via Paolo Erizzo ,17a,,45.416347,12.37457
Via Paolo Erizzo ,1c,,45.417854,12.371919
Via Paolo Erizzo ,"26",,45.416261,12.374651
Via Paolo Erizzo ,"15",,45.416331,12.374195
Via Paolo Erizzo ,14b,,45.416751,12.372695
Via Paolo Erizzo ,"19",,45.416355,12.374712
Via Paolo Erizzo ,"5",,45.417781,12.371939
Via Paolo Erizzo ,"14",,45.416877,12.372344
Via Paolo Erizzo ,"13",,45.416597,12.373427
Via Paolo Erizzo ,"24",,45.416256,12.374587
Via Tiro ,3a,,45.41905,12.375574
Via Tiro ,20a,,45.419604,12.377235
Via Tiro ,19b,,45.419657,12.377122
Via Tiro ,"13",,45.419534,12.376785
Via Tiro ,13a,,45.419486,12.376682
Via Tiro ,"10",,45.4191,12.37592
Via Tiro ,8c,,45.419058,12.375807
Via Tiro ,3d,,45.419101,12.37566
Via Tiro ,1d,,45.419015,12.375433
Via Tiro ,1c,,45.419006,12.37541
Via Tiro ,16d,,45.419441,12.376857
Via Tiro ,"21",,45.419742,12.37734
Via Tiro ,"6",,45.418986,12.375627
Via Tiro ,16f,,45.419473,12.376939
Via Tiro ,"12",,45.419176,12.37612
Via Tiro ,"4",,45.418886,12.375361
Via Tiro ,1b,,45.418981,12.375334
Via Tiro ,16a,,45.419398,12.376746
Via Tiro ,16c,,45.419428,12.376823
Via Tiro ,14b,,45.419311,12.376511
Via Tiro ,9b,,45.419387,12.376392
Via Tiro ,8b,,45.419046,12.375774
Via Tiro ,16g,,45.419484,12.376968
Via Tiro ,9c,,45.419408,12.376459
Via Tiro ,14c,,45.419321,12.376539
Via Tiro ,"5",,45.419163,12.375824
Via Tiro ,"2",,45.418813,12.375178
Via Tiro ,"16",,45.419379,12.376687
Via Tiro ,16e,,45.419459,12.376904
Via Tiro ,13b,,45.419518,12.376741
Via Tiro ,19c,,45.419675,12.377168
Via Tiro ,14a,,45.419299,12.376481
Via Tiro ,"17",,45.419602,12.376974
Via Tiro ,14d,,45.419331,12.376564
Via Tiro ,"9",,45.41935,12.376296
Via Tiro ,5a,,45.419195,12.375911
Via Tiro ,19a,,45.41964,12.377074
Via Tiro ,9a,,45.419367,12.376341
Via Tiro ,19d,,45.419687,12.3772
Via Tiro ,"20",,45.419561,12.377153
Via Tiro ,"1",,45.418929,12.375215
Via Tiro ,"15",,45.41957,12.376884
Via Tiro ,"3",,45.419038,12.375494
Via dei Giolito ,"2",,45.390138,12.351772
Via dei Giolito ,"6",,45.390304,12.351338
Via dei Giolito ,"1",,45.390142,12.35148
Via Leonardo Loredan ,6c,,45.401154,12.362005
Via Leonardo Loredan ,"5",,45.40127,12.361925
Via Leonardo Loredan ,"6",,45.401165,12.361982
Via Leonardo Loredan ,3a,,45.401478,12.361477
Via Leonardo Loredan ,4e,,45.4014,12.361483
Via Leonardo Loredan ,3b,,45.401329,12.361799
Via Leonardo Loredan ,"16",,45.400712,12.36294
Via Leonardo Loredan ,"3",,45.401502,12.361426
Via Leonardo Loredan ,4c,,45.401441,12.361397
Via Leonardo Loredan ,8a,,45.400964,12.362409
Via Leonardo Loredan ,4d,,45.401423,12.361435
Via Leonardo Loredan ,"7",,45.401173,12.362135
Via Leonardo Loredan ,"9",,45.401028,12.362449
Via Leonardo Loredan ,"1",,45.401539,12.361343
Via Leonardo Loredan ,8b,,45.400953,12.362433
Via Leonardo Loredan ,4f,,45.401371,12.361544
Via Leonardo Loredan ,6a,,45.40116,12.361994
Via Leonardo Loredan ,4b,,45.401453,12.361371
Via Leonardo Loredan ,6e,,45.401141,12.362033
Via Leonardo Loredan ,6d,,45.40115,12.362014
Via Leonardo Loredan ,6b,,45.401157,12.361999
Via Leonardo Loredan ,"14",,45.400797,12.362762
Via Leonardo Loredan ,4a,,45.401464,12.361348
Via Leonardo Loredan ,1a,,45.401517,12.361392
Via Leonardo Loredan ,"8",,45.401058,12.362209
Via Leonardo Loredan ,"12",,45.400924,12.362495
Via Leonardo Loredan ,"10",,45.400938,12.362465
Via Esperanto ,"4",,45.381256,12.346406
Via Esperanto ,"18",,45.38168,12.346752
Via Esperanto ,"10",,45.381374,12.346501
Via Esperanto ,"8",,45.38133,12.346467
Via Esperanto ,"2",,45.381245,12.346397
Via Esperanto ,"16",,45.381523,12.346625
Via Esperanto ,"12",,45.381421,12.346541
Via Esperanto ,"14",,45.381479,12.346588
Via Esperanto ,"6",,45.381283,12.346428
Via Vitale Falier ,4a,,45.406776,12.363067
Via Vitale Falier ,"4",,45.406675,12.363228
Via Vitale Falier ,"2",,45.406839,12.362974
Via Vitale Falier ,"5",,45.406507,12.363498
Via Tiro ,8a,,45.419031,12.375733
Via Tiro ,10a,,45.419132,12.376003
Via Tiro ,3c,,45.419075,12.375639
Via Tiro ,"8",,45.419011,12.375693
Via dei Giolito ,1b,,45.390053,12.351656
Via dei Giolito ,"7",,45.390545,12.350471
Via dei Giolito ,1c,,45.390031,12.351725
Via dei Giolito ,1a,,45.390116,12.351547
Via dei Giolito ,"10",,45.390551,12.350719
Via dei Giolito ,"4",,45.390178,12.351655
Via dei Giolito ,"3",,45.390236,12.35124
Via dei Giolito ,4b,,45.390258,12.351454
Via dei Giolito ,4a,,45.3902,12.351601
Via dei Pinelli ,"5",,45.388279,12.349737
Via dei Pinelli ,"9",,45.38855,12.349057
Via dei Pinelli ,"1",,45.388105,12.350173
Via dei Pinelli ,"10",,45.388675,12.348911
Via dei Pinelli ,"4",,45.388253,12.349967
Via dei Pinelli ,"7",,45.38847,12.349256
Via dei Pinelli ,"3",,45.388214,12.3499
Via dei Pinelli ,"8",,45.388544,12.34924
Via dei Pinelli ,"6",,45.388351,12.349718
Via dei Pinelli ,"11",,45.388657,12.348789
Via dei Sessa ,4a,,45.392415,12.351915
Via dei Sessa ,4b,,45.392455,12.351813
Via dei Sessa ,"2",,45.39228,12.352256
Via dei Sessa ,"4",,45.392358,12.352058
Via dei Sessa ,"3",,45.392325,12.351826
Corte de l'arco ,"5",Corte de l'Arco ,45.428234,12.380803
Corte de l'arco ,"2",Corte de l'Arco ,45.428302,12.38089
Corte de l'arco ,"4",Corte de l'Arco ,45.428238,12.380903
Via Francesco Marcolini ,"5",,45.383083,12.34741
Via Francesco Marcolini ,"7",,45.383144,12.34746
Via Francesco Marcolini ,"13",,45.383441,12.347708
Via Francesco Marcolini ,"15",,45.383553,12.347798
Via Francesco Marcolini ,"3",,45.383037,12.347259
Via Francesco Marcolini ,"11",,45.383377,12.347657
Via Francesco Marcolini ,"9",,45.383267,12.347566
Via Francesco Marcolini ,"1",,45.382956,12.347311
Via Istria ,"5",,45.411377,12.372148
Via Istria ,"6",,45.411019,12.372069
Via Istria ,"7",,45.411277,12.372094
Via Istria ,"12",,45.410493,12.371905
Via Istria ,"17",,45.410335,12.371791
Via Istria ,"11",,45.411003,12.37197
Via Istria ,"10",,45.410711,12.371951
Via Istria ,"13",,45.410811,12.371891
Via Istria ,"9",,45.411091,12.37201
Via Istria ,17a,,45.410464,12.37181
Via Istria ,"3",,45.4115,12.37224
Via Istria ,"15",,45.410614,12.371837
Via Istria ,7a,,45.411166,12.372044
Via Delle Quattro Fontane ,5a,,45.407788,12.36782
Via Delle Quattro Fontane ,"16",,45.407652,12.368165
Via Delle Quattro Fontane ,"4",,45.408147,12.366896
Via Delle Quattro Fontane ,"3",,45.408194,12.366197
Via Delle Quattro Fontane ,"18",,45.407385,12.369066
Via Delle Quattro Fontane ,3a,,45.408179,12.366424
Via Delle Quattro Fontane ,3b,,45.40817,12.366556
Via Pietro Lando ,"4",,45.382123,12.3465
Via Pietro Lando ,"2",,45.382335,12.346668
Via Pietro Lando ,"13",,45.381792,12.346276
Via Pietro Lando ,"6",,45.381797,12.346244
Via Pietro Lando ,"3",,45.382586,12.347013
Via Pietro Lando ,7b,,45.382373,12.346754
Via Pietro Lando ,"7",,45.382426,12.346795
Via Pietro Lando ,5b,,45.382492,12.346848
Via Pietro Lando ,"5",,45.382549,12.346893
Via Pietro Lando ,"15",,45.381714,12.346213
Via Pietro Lando ,"11",,45.381958,12.346416
Via Pietro Lando ,"1",,45.382653,12.346981
Via Pietro Lando ,"19",,45.381661,12.346189
Via Pietro Lando ,"9",,45.381968,12.346423
Via Pietro Lando ,7a,,45.382398,12.346774
Via Pietro Lando ,"17",,45.381668,12.346194
Via Santa Rosa ,"2",,45.402475,12.363679
Via Santa Rosa ,"4",,45.402194,12.36358
Via Santa Rosa ,"1",,45.402238,12.363781
Via Santa Rosa ,"10",,45.401963,12.363504
Via Santa Rosa ,"12",,45.401703,12.363377
Via Santa Rosa ,"5",,45.401757,12.363636
Via Marcantonio Sabellico ,"5",,45.402346,12.360739
Via Marcantonio Sabellico ,"1",,45.402222,12.361115
Via Marcantonio Sabellico ,"7",,45.402334,12.360596
Via Marcantonio Sabellico ,"2",,45.402218,12.361283
Via Marcantonio Sabellico ,"8",,45.40245,12.360672
Via Marcantonio Sabellico ,"10",,45.402442,12.360617
Via Marcantonio Sabellico ,"3",,45.402274,12.360958
Via Marcantonio Sabellico ,"4",,45.402265,12.361159
Via Marcantonio Sabellico ,"6",,45.402367,12.360891
Via Marcantonio Sabellico ,4a,,45.402329,12.360992
Via Marcantonio Sabellico ,"12",,45.402433,12.360484
Via Antonio Visintin ,"1",,45.385593,12.351191
Via Antonio Visintin ,"8",,45.385777,12.350194
Via Antonio Visintin ,"6",,45.385286,12.350653
Via Antonio Visintin ,"13",,45.385895,12.350157
Via Antonio Visintin ,"19",,45.386084,12.350323
Via Antonio Visintin ,13a,,45.38579,12.350065
Via Antonio Visintin ,"15",,45.385979,12.350231
Via Antonio Visintin ,"11",,45.385662,12.349952
Via Antonio Visintin ,"2",,45.385366,12.350981
Via Antonio Visintin ,"3",,45.385238,12.351077
Via Antonio Visintin ,"9",,45.385538,12.349851
Via Antonio Visintin ,"17",,45.386039,12.350283
Via Antonio Visintin ,"4",,45.385241,12.350757
Via dei Salici ,"3",,45.409677,12.367218
Via dei Salici ,"1",,45.40992,12.367459
Via Navarino ,"6",,45.41058,12.365267
Via Navarino ,5a,,45.409626,12.364965
Via Navarino ,"3",,45.410629,12.365401
Via Pescaria ,"5",,45.372142,12.338177
Via Pescaria ,"1",,45.372061,12.338191
Via Pescaria ,"7",,45.372192,12.338162
Via Pietro Buratti ,5a,,45.404573,12.361342
Via Pietro Buratti ,"5",,45.404471,12.361405
Via Pietro Buratti ,8a,,45.404258,12.361674
Via Pietro Buratti ,"1",,45.404128,12.361613
Via Pietro Buratti ,"3",,45.404278,12.36152
Via Pietro Buratti ,"10",,45.40436,12.361613
Via Navarino ,"8",,45.410425,12.3652
Via Navarino ,"1",,45.410806,12.365473
Via Navarino ,"20",,45.409164,12.364656
Via Navarino ,"7",,45.409545,12.364931
Via Navarino ,"10",,45.41031,12.36515
Via Navarino ,7a,,45.409477,12.364902
Via Navarino ,"2",,45.410832,12.365377
Via Navarino ,"5",,45.409875,12.365072
Via Navarino ,"4",,45.410683,12.36531
Via Navarino ,"14",,45.410041,12.365032
Via Pescaria ,5a,,45.372166,12.33817
Via Pescaria ,"4",,45.372184,12.338209
Via Pescaria ,"2",,45.372056,12.338252
Via Pescaria ,"3",,45.372103,12.338186
Via Pietro Buratti ,"8",,45.404198,12.36171
Strada Casa Rossa ,20b,,45.348526,12.319694
Strada Casa Rossa ,"5",,45.349168,12.319295
Strada Casa Rossa ,"7",,45.349109,12.319362
Strada Casa Rossa ,20e,,45.348389,12.319833
Strada Casa Rossa ,"16",,45.34866,12.319563
Strada Casa Rossa ,3a,,45.349223,12.319241
Strada Casa Rossa ,6b,,45.349028,12.319129
Strada Casa Rossa ,"20",,45.348574,12.319647
Strada Casa Rossa ,"3",,45.349282,12.319249
Strada Casa Rossa ,"18",,45.348639,12.319583
Strada Casa Rossa ,"6",,45.34906,12.319097
Strada Casa Rossa ,"8",,45.348995,12.319161
Strada Casa Rossa ,"12",,45.348873,12.319344
Strada Casa Rossa ,20c,,45.348508,12.319711
Strada Casa Rossa ,"11",,45.349052,12.319421
Strada Casa Rossa ,"1",,45.34938,12.31913
Strada Casa Rossa ,"14",,45.348835,12.319384
Strada Casa Rossa ,20d,,45.348484,12.319735
Strada Casa Rossa ,"4",,45.349162,12.318997
Strada Casa Rossa ,"10",,45.348906,12.319311
Calle Pistoria ,"1",,45.372313,12.33894
Calle Pistoria ,"2",,45.372342,12.338965
Strada Casa Rossa ,"22",,45.348263,12.319964
Strada Casa Rossa ,"15",,45.349013,12.319454
Strada Casa Rossa ,"9",,45.349085,12.319393
Strada Casa Rossa ,4a,,45.349119,12.319039
Strada Casa Rossa ,"21",,45.348607,12.319851
Strada Casa Rossa ,1a,,45.349339,12.319143
Strada Casa Rossa ,"23",,45.348412,12.320046
Strada Casa Rossa ,20a,,45.348549,12.319671
Strada degli Orti ,"1",,45.347926,12.319348
Strada degli Orti ,"7",,45.348204,12.319078
Strada degli Orti ,"4",,45.348052,12.319314
Strada degli Orti ,"6",,45.348111,12.319267
Strada degli Orti ,6a,,45.348171,12.319267
Via Smirne ,"3",,45.418265,12.373998
Via Smirne ,"18",,45.418571,12.374713
Via Smirne ,"7",,45.418448,12.374296
Via Smirne ,"16",,45.418525,12.374627
Via Smirne ,"10",,45.418335,12.374302
Via Smirne ,"5",,45.418363,12.374156
Via Smirne ,"2",,45.418075,12.373876
Via Smirne ,"9",,45.418485,12.374358
Via Smirne ,9a,,45.418575,12.374504
Via Smirne ,"17",,45.418745,12.374783
Via Smirne ,"8",,45.418288,12.374225
Via Smirne ,7a,,45.418399,12.374214
Via Smirne ,"12",,45.418424,12.374459
Via Smirne ,"1",,45.418163,12.373821
Via Smirne ,5a,,45.418333,12.374107
Via Smirne ,4a,,45.418144,12.373992
Via Smirne ,"4",,45.418167,12.374031
Via Smirne ,"14",,45.418476,12.374528
Via Smirne ,9b,,45.418609,12.37456
Via Smirne ,2a,,45.418117,12.373947
Via Smirne ,"11",,45.418681,12.374673
Via Smirne ,"6",,45.418197,12.374082
Piazza Pola ,"1",,45.41801,12.37866
Strada degli Orti ,"11",,45.348602,12.318874
Strada degli Orti ,"10",,45.348519,12.318941
Strada degli Orti ,"8",,45.348301,12.319074
Strada degli Orti ,"2",,45.347963,12.319405
Via Cipro ,27a,,45.416695,12.375204
Via Cipro ,32a,,45.4194,12.37765
Via Cipro ,"53",,45.42225,12.379085
Via Cipro ,"65",,45.42364,12.378342
Via Cipro ,24a,,45.418416,12.376792
Via Cipro ,28a,,45.418995,12.377293
Via Cipro ,"13",,45.416521,12.375062
Via Cipro ,"25",,45.416628,12.375153
Via Cipro ,"27",,45.416628,12.375153
Via Cipro ,16d,,45.417836,12.376281
Via Cipro ,"39",,45.420706,12.378273
Via Cipro ,"47",,45.421307,12.378854
Via Cipro ,16c,,45.417737,12.376193
Via Cipro ,7a,,45.416208,12.374883
Via Cipro ,"15",,45.416618,12.375146
Via Cipro ,"17",,45.416618,12.375146
Via Cipro ,"19",,45.416618,12.375146
Via Cipro ,"11",,45.416457,12.375009
Via Cipro ,6b,,45.416013,12.374703
Via Cipro ,"18",,45.418174,12.376582
Via Cipro ,"45",,45.421125,12.378677
Via Cipro ,"2",,45.415837,12.374241
Via Cipro ,3a,,45.415996,12.374588
Via Cipro ,4a,,45.415899,12.374443
Via Cipro ,18a,,45.41826,12.376653
Via Cipro ,"3",,45.415896,12.37431
Via Cipro ,27b,,45.41673,12.375233
Via Cipro ,16f,,45.418113,12.376532
Via Cipro ,16e,,45.417915,12.376353
Via Cipro ,"25",,45.416623,12.37515
Via Cipro ,"21",,45.416623,12.37515
Via Cipro ,"19",,45.416623,12.37515
Via Cipro ,16b,,45.417684,12.376148
Via Cipro ,"34",,45.419567,12.377801
Via Cipro ,"35",,45.420526,12.378093
Via Cipro ,6a,,45.415937,12.374562
Via Cipro ,"57",,45.422523,12.3791
Via Cipro ,16a,,45.417634,12.376105
Via Cipro ,10a,,45.416324,12.375036
Via Cipro ,"7",,45.416176,12.374846
Via Cipro ,"15",,45.416614,12.375144
Via Cipro ,"17",,45.416614,12.375144
Via Cipro ,"41",,45.420978,12.378531
Via Cipro ,"38",,45.420155,12.378067
Via Cipro ,8a,,45.41609,12.374831
Via Cipro ,"20",,45.418312,12.376698
Via Bassanello ,"17",,45.374052,12.340193
Via Bassanello ,"33",,45.37348,12.341217
Via Bassanello ,"21",,45.373996,12.340347
Via Bassanello ,"18",,45.373979,12.340256
Via Bassanello ,"35",,45.373419,12.341302
Via Bassanello ,"15",,45.374077,12.340128
Via Bassanello ,"20",,45.373953,12.340325
Via Bassanello ,"22",,45.373925,12.340402
Via Bassanello ,"30",,45.373352,12.341252
Via Bassanello ,"37",,45.373376,12.341362
Via Bassanello ,"19",,45.37402,12.34028
Via Bassanello ,"16",,45.374004,12.34019
Via Bassanello ,"23",,45.373972,12.340415
Via Cipro ,38b,,45.420216,12.378091
Via Cipro ,"31",,45.420452,12.378024
Via Cipro ,"25",,45.416625,12.375152
Via Cipro ,"21",,45.416625,12.375152
Via Cipro ,"27",,45.416625,12.375152
Via Cipro ,"6",,45.415947,12.374582
Via Cipro ,41a,,45.4209,12.378455
Via Cipro ,"32",,45.419278,12.377544
Via Cipro ,"24",,45.418469,12.376837
Via Cipro ,"37",,45.420575,12.378151
Via Cipro ,14a,,45.417503,12.375979
Via Cipro ,"43",,45.421029,12.378619
Via Cipro ,"10",,45.416273,12.375002
Via Cipro ,"29",,45.416789,12.375284
Via Cipro ,"59",,45.4227,12.37904
Via Cipro ,"36",,45.419933,12.377992
Via Cipro ,45a,,45.421165,12.378716
Via Cipro ,"30",,45.419165,12.377445
Via Cipro ,"8",,45.416007,12.374868
Via Cipro ,"14",,45.41745,12.375946
Via Cipro ,"9",,45.4164,12.374958
Via Cipro ,"21",,45.41662,12.375148
Via Cipro ,"17",,45.41662,12.375148
Via Cipro ,"19",,45.41662,12.375148
Via Cipro ,"16",,45.417566,12.376044
Via Cipro ,"33",,45.420476,12.378038
Via Cipro ,"70",,45.422375,12.379205
Via Cipro ,"4",,45.415878,12.374376
Via Cipro ,"72",,45.423803,12.378432
Via Cipro ,"5",,45.416033,12.374654
Strada Vecchia ,"1",,45.345005,12.316221
Via Rodi ,"5",,45.407273,12.363118
Via Rodi ,"2",,45.407796,12.364057
Via Rodi ,"4",,45.407565,12.363437
Via Rodi ,2a,,45.407838,12.364193
Via Rodi ,"1",,45.407814,12.364572
Via Rodi ,"3",,45.407547,12.363693
Via Rodi ,3a,,45.407445,12.363457
Via Pietro Bembo ,"3",,45.408954,12.365292
Via Pietro Bembo ,"5",,45.408995,12.365109
Via Pietro Bembo ,4a,,45.409057,12.365252
Via Pietro Bembo ,"6",,45.409113,12.364991
Via Pietro Bembo ,6a,,45.409135,12.364891
Via Pietro Bembo ,"7",,45.409039,12.364915
Via Pietro Bembo ,"4",,45.409033,12.365361
Via Pietro Bembo ,"2",,45.408992,12.365546
Via San Giovanni D'acri ,"2",,45.408645,12.36766
Via San Giovanni D'acri ,"3",,45.408868,12.367856
Via San Giovanni D'acri ,"10",,45.410083,12.368923
Via San Giovanni D'acri ,"12",,45.410356,12.368896
Via San Giovanni D'acri ,"4",,45.409004,12.368006
Via San Giovanni D'acri ,"7",,45.409731,12.368849
Via San Giovanni D'acri ,"19",,45.411298,12.368167
Via San Giovanni D'acri ,"1",,45.408188,12.36725
Via San Giovanni D'acri ,11a,,45.410285,12.368934
Via San Giovanni D'acri ,"13",,45.410588,12.368709
Via San Giovanni D'acri ,8a,,45.409857,12.36889
Via San Giovanni D'acri ,"11",,45.41022,12.368936
Via San Giovanni D'acri ,"8",,45.409802,12.368879
Via San Giovanni D'acri ,"20",,45.411406,12.368087
Via San Giovanni D'acri ,"9",,45.409959,12.368905
Via San Giovanni D'acri ,"5",,45.40913,12.368154
Via San Giovanni D'acri ,6a,,45.409616,12.368742
Via San Giovanni D'acri ,"17",,45.410973,12.368412
Via San Giovanni D'acri ,3a,,45.408782,12.36778
Via San Giovanni D'acri ,"18",,45.411006,12.368388
Via San Giovanni D'acri ,"14",,45.410685,12.368629
Via San Giovanni D'acri ,12a,,45.410423,12.368843
Via San Giovanni D'acri ,"16",,45.410881,12.36848
Via San Giovanni D'acri ,"15",,45.410763,12.368568
Via San Giovanni D'acri ,7a,,45.409681,12.368814
Via San Giovanni D'acri ,"6",,45.409234,12.368278
Via Marco Foscarini ,"17",,45.419023,12.376782
Via Marco Foscarini ,2d,,45.419505,12.375723
Via Marco Foscarini ,"3",,45.419594,12.375734
Via Marco Foscarini ,"7",,45.419421,12.376054
Via Marco Foscarini ,2b,,45.41966,12.375446
Via Marco Foscarini ,"6",,45.41909,12.376488
Via Marco Foscarini ,"2",,45.41957,12.375607
Via Marco Foscarini ,1a,,45.419671,12.375605
Via Jacopo De' Barbari ,"1",,45.417935,12.374711
Via Jacopo De' Barbari ,"5",,45.417682,12.375183
Via Jacopo De' Barbari ,"8",,45.417442,12.375537
Via Jacopo De' Barbari ,"7",,45.417551,12.375331
Via Jacopo De' Barbari ,"4",,45.417749,12.374952
Via Jacopo De' Barbari ,"2",,45.417819,12.374818
Via Jacopo De' Barbari ,4a,,45.417718,12.375009
Via Jacopo De' Barbari ,5a,,45.417627,12.375292
Via Jacopo De' Barbari ,"6",,45.417571,12.375295
Via Marco Foscarini ,6a,,45.419129,12.376417
Via Marco Foscarini ,"15",,45.419085,12.376661
Via Marco Foscarini ,"8",,45.419012,12.376629
Via Marco Foscarini ,6b,,45.419152,12.376374
Via Marco Foscarini ,11a,,45.419157,12.376527
Via Marco Foscarini ,"5",,45.419514,12.375882
Via Marco Foscarini ,"13",,45.419139,12.376558
Via Marco Foscarini ,"9",,45.419383,12.376122
Via Marco Foscarini ,"4",,45.419384,12.375946
Via Marco Foscarini ,2c,,45.419597,12.375558
Via Marco Foscarini ,"11",,45.419239,12.37645
Via dei Coralli ,"1",,45.398147,12.361019
Via dei Coralli ,1d,,45.398229,12.360768
Via dei Coralli ,"8",,45.398428,12.360288
Via dei Coralli ,"5",,45.398327,12.360425
Via dei Coralli ,"6",,45.398383,12.360457
Via dei Coralli ,"4",,45.398333,12.360655
Via dei Coralli ,1e,,45.398247,12.360711
Via dei Coralli ,1c,,45.398202,12.360849
Strada Comunale dei Murazzi ,"2",Località Santa Maria del Mare (pellestrina) ,45.332337,12.319775
Strada Comunale dei Murazzi ,"1",Località Santa Maria del Mare (pellestrina) ,45.3324,12.322414
Via Teresa Gattei ,"9",,45.390967,12.351057
Via Teresa Gattei ,"4",,45.390784,12.351711
Via Teresa Gattei ,2a,,45.390657,12.351917
Via Teresa Gattei ,"3",,45.390652,12.351845
Via Teresa Gattei ,"6",,45.391089,12.350832
Via Teresa Gattei ,2b,,45.390716,12.351766
Strada Comunale dei Murazzi ,"7",Località Santa Maria del Mare (pellestrina) ,45.332895,12.317616
Strada Comunale dei Murazzi ,1b,Località Santa Maria del Mare (pellestrina) ,45.332373,12.32101
Piazzale Casino' ,3c,,45.406092,12.367533
Strada Comunale dei Murazzi ,1a,Località Santa Maria del Mare (pellestrina) ,45.33243,12.322398
Strada Comunale dei Murazzi ,"3",Località Santa Maria del Mare (pellestrina) ,45.332718,12.318262
Via Sebastiano Caboto ,"3",,45.417959,12.376658
Via Sebastiano Caboto ,"15",,45.417878,12.37796
Via Sebastiano Caboto ,"12",,45.417827,12.378005
Via Sebastiano Caboto ,"9",,45.417836,12.377541
Via Sebastiano Caboto ,"13",,45.417856,12.377748
Via Sebastiano Caboto ,3a,,45.417894,12.376835
Via Sebastiano Caboto ,5a,,45.417817,12.377339
Via Sebastiano Caboto ,"5",,45.417805,12.37722
Via Sebastiano Caboto ,"2",,45.417864,12.3767
Via Sebastiano Caboto ,3d,,45.417879,12.376875
Via Sebastiano Caboto ,"4",,45.417843,12.376756
Via Sebastiano Caboto ,2a,,45.417843,12.376756
Via Sebastiano Caboto ,8a,,45.417788,12.377605
Via Sebastiano Caboto ,"10",,45.417798,12.377711
Via Sebastiano Caboto ,"14",,45.417854,12.378262
Via Sebastiano Caboto ,"4",,45.417845,12.376751
Via Sebastiano Caboto ,2a,,45.417845,12.376751
Via Sebastiano Caboto ,9a,,45.417843,12.377618
Via Sebastiano Caboto ,"1",,45.418009,12.376523
Via Sebastiano Caboto ,2b,,45.417933,12.376521
Via Sebastiano Caboto ,6a,,45.417764,12.377345
Via Sebastiano Caboto ,"17",,45.41792,12.37838
Via Sebastiano Caboto ,"6",,45.417756,12.377238
Via Sebastiano Caboto ,"8",,45.417779,12.377507
Via Sandro Gallo ,129a,,45.404783,12.363627
Via Sandro Gallo ,109a,,45.406751,12.365062
Via Sandro Gallo ,"67",,45.409973,12.366331
Via Sandro Gallo ,"53",,45.411405,12.366921
Via Sandro Gallo ,"164",,45.391024,12.352756
Via Sandro Gallo ,"205",,45.393128,12.354939
Via Sandro Gallo ,176a,,45.389808,12.351789
Via Sandro Gallo ,"166",,45.390841,12.352613
Via Sandro Gallo ,159c,,45.401427,12.361049
Via Sandro Gallo ,183o,,45.394763,12.357073
Via Sandro Gallo ,157f,,45.401725,12.361264
Via Sandro Gallo ,128c,,45.399856,12.359546
Via Sandro Gallo ,135a,,45.403993,12.362979
Via Sandro Gallo ,135i,,45.403766,12.362807
Via Sandro Gallo ,133c,,45.404109,12.363066
Via Sandro Gallo ,108a,,45.401649,12.360995
Via Sandro Gallo ,"107",,45.406942,12.365167
Via Sandro Gallo ,161b,,45.401115,12.360811
Via Sandro Gallo ,173g,,45.397782,12.358244
Via Sandro Gallo ,"30",,45.413805,12.36733
Via Sandro Gallo ,"211",,45.392928,12.354781
Via Sandro Gallo ,80c,,45.406485,12.364729
Via Sandro Gallo ,"12",,45.415871,12.367285
Via Sandro Gallo ,"110",,45.401596,12.360955
Via Sandro Gallo ,"121",,45.406052,12.364548
Via Sandro Gallo ,"122",,45.400617,12.360134
Via Sandro Gallo ,"55",,45.411184,12.366849
Via Sandro Gallo ,172b,,45.390194,12.352095
Via Sandro Gallo ,5b,,45.416134,12.367715
Via Sandro Gallo ,28b,,45.413861,12.367292
Via Sandro Gallo ,193a,,45.394002,12.355737
Via Sandro Gallo ,189a,,45.39463,12.355795
Via Sandro Gallo ,"116",,45.401147,12.360619
Via Sandro Gallo ,159d,,45.401401,12.36103
Via Sandro Gallo ,"19",,45.414245,12.367202
Via Sandro Gallo ,174a,,45.38992,12.351882
Via Sandro Gallo ,173q,,45.397509,12.358033
Via Sandro Gallo ,145c,,45.402941,12.362182
Via Sandro Gallo ,"7",,45.415886,12.367452
Via Sandro Gallo ,173s,,45.39741,12.357955
Via Sandro Gallo ,161a,,45.401145,12.360834
Via Sandro Gallo ,"45",,45.41237,12.36726
Via Sandro Gallo ,3c,,45.416231,12.367814
Via Sandro Gallo ,"146",,45.393032,12.354344
Via Sandro Gallo ,183a,,45.394624,12.356926
Via Sandro Gallo ,"213",,45.392848,12.354717
Via Sandro Gallo ,"215",,45.39275,12.35464
Via Doge Galla ,21b,,45.365859,12.337565
Via Doge Galla ,"13",,45.366137,12.336668
Via Doge Galla ,"17",,45.366105,12.336773
Via Doge Galla ,"7",,45.3662,12.336465
Via Doge Galla ,"21",,45.365846,12.337606
Via Doge Galla ,"9",,45.36618,12.336528
Via Doge Galla ,"23",,45.365816,12.337676
Via Doge Galla ,"15",,45.366108,12.336765
Via Doge Galla ,"5",,45.366225,12.336387
Via Doge Galla ,"11",,45.366158,12.336599
Via Doge Domenico Michiel ,"16",,45.415957,12.3694
Via Doge Domenico Michiel ,"30",,45.415587,12.370892
Via Doge Domenico Michiel ,2b,,45.416229,12.368084
Via Doge Domenico Michiel ,7a,,45.415869,12.370005
Piazza Trau' ,"3",,45.402957,12.360659
Piazza Trau' ,"6",,45.402538,12.36033
Piazza Trau' ,"2",,45.402908,12.360781
Piazza Trau' ,"5",,45.402773,12.360636
Via Pirano ,8a,,45.411455,12.366211
Via Pirano ,"10",,45.411137,12.366087
Via Pirano ,"4",,45.411766,12.366328
Via Pirano ,"8",,45.411355,12.366171
Via Pirano ,6b,,45.411642,12.36628
Via Pirano ,"12",,45.411007,12.366038
Via Pirano ,"2",,45.41202,12.366426
Via Pirano ,10a,,45.41123,12.366123
Via Pirano ,"3",,45.411718,12.366396
Via Pirano ,"1",,45.411899,12.366466
Via Pirano ,"6",,45.411545,12.366245
Via Pirano ,6a,,45.411618,12.366272
Via Marco Polo ,"8",,45.421877,12.377461
Via Marco Polo ,"1",,45.422194,12.376761
Via Marco Polo ,"10",,45.421799,12.377708
Via Marco Polo ,"6",,45.421976,12.377145
Via Marco Polo ,"9",,45.421879,12.377785
Via Marco Polo ,"3",,45.422111,12.377033
Via Marco Polo ,"18",,45.421551,12.378499
Via Marco Polo ,"4",,45.422014,12.377022
Via Marco Polo ,7a,,45.421959,12.377545
Via Marco Polo ,"12",,45.421726,12.377941
Via Marco Polo ,"17",,45.421658,12.37849
Via Marco Polo ,"19",,45.42158,12.378736
Via Marco Polo ,"14",,45.421643,12.378211
Via Marco Polo ,1b,,45.422124,12.376989
Via Marco Polo ,"5",,45.421999,12.377409
Via Marco Polo ,6a,,45.42193,12.377294
Via Marco Polo ,"21",,45.420996,12.37985
Via Marco Polo ,"16",,45.42159,12.378369
Via Marco Polo ,"7",,45.421991,12.377439
Via Marco Polo ,"15",,45.421751,12.378193
Via Marco Polo ,"11",,45.421787,12.378076
Via Marco Polo ,3c,,45.422044,12.37724
Via Marco Polo ,2a,,45.422074,12.376825
Via Giovanni Battista Grimani ,"11",,45.413574,12.371955
Via Giovanni Battista Grimani ,"5",,45.414192,12.371272
Via Giovanni Battista Grimani ,"7",,45.414158,12.371465
Via Giovanni Battista Grimani ,"3",,45.414231,12.371065
Via Giovanni Battista Grimani ,"1",,45.414265,12.370927
Via Giovanni Battista Grimani ,"10",,45.413465,12.371813
Via Giovanni Battista Grimani ,"12",,45.413384,12.371766
Via Giovanni Battista Grimani ,"9",,45.41374,12.371835
Via Giovanni Battista Grimani ,6c,,45.413607,12.371836
Via Giovanni Battista Grimani ,6a,,45.413672,12.371782
Via Giovanni Battista Grimani ,"13",,45.413283,12.371795
Via Giovanni Battista Grimani ,"6",,45.41377,12.371708
Via Giovanni Battista Grimani ,"8",,45.41358,12.371859
Via Giovanni Battista Grimani ,3a,,45.414213,12.371156
Via Sandro Gallo ,161d,,45.401018,12.360737
Via Sandro Gallo ,135l,,45.403711,12.362766
Via Sandro Gallo ,"265",,45.389273,12.351567
Via Sandro Gallo ,133b,,45.404126,12.363079
Via Sandro Gallo ,99a,,45.407057,12.365214
Via Sandro Gallo ,99b,,45.407057,12.365214
Via Sandro Gallo ,106b,,45.401909,12.361192
Via Sandro Gallo ,173r,,45.397466,12.357999
Via Sandro Gallo ,157g,,45.401718,12.361259
Via Sandro Gallo ,"27",,45.413139,12.367498
Via Sandro Gallo ,"201",,45.393188,12.354987
Via Sandro Gallo ,159f,,45.401216,12.360888
Via Sandro Gallo ,"77",,45.408717,12.365845
Via Sandro Gallo ,"6",,45.41638,12.367771
Via Sandro Gallo ,"129",,45.404699,12.363564
Via Sandro Gallo ,183d,,45.395616,12.357179
Via Sandro Gallo ,"71",,45.409602,12.366187
Via Sandro Gallo ,55a,,45.411152,12.366833
Via Sandro Gallo ,170a,,45.390367,12.352231
Via Sandro Gallo ,155a,,45.402135,12.361573
Via Sandro Gallo ,183c,,45.394761,12.356656
Via Sandro Gallo ,"139",,45.403603,12.362756
Via Sandro Gallo ,"138",,45.396611,12.355669
Via Sandro Gallo ,135g,,45.403817,12.362846
Via Sandro Gallo ,157a,,45.401937,12.361424
Via Sandro Gallo ,119e,,45.406191,12.36466
Via Sandro Gallo ,135h,,45.40379,12.362825
Via Sandro Gallo ,161e,,45.400967,12.360698
Via Sandro Gallo ,"255",,45.390109,12.352224
Via Sandro Gallo ,"20",,45.415238,12.366818
Via Sandro Gallo ,149b,,45.402575,12.3619
Via Sandro Gallo ,171e,,45.398704,12.358989
Via Sandro Gallo ,84e,,45.405978,12.364378
Via Sandro Gallo ,"75",,45.408876,12.365907
Via Sandro Gallo ,"61",,45.410722,12.366673
Via Sandro Gallo ,"76",,45.40704,12.365067
Via Sandro Gallo ,"106",,45.401835,12.361135
Via Sandro Gallo ,153b,,45.402389,12.361759
Via Sandro Gallo ,106a,,45.401879,12.361169
Via Sandro Gallo ,161l,,45.400553,12.360453
Via Sandro Gallo ,173t,,45.397344,12.357904
Via Sandro Gallo ,"161",,45.401177,12.360858
Via Sandro Gallo ,73a,,45.409198,12.366032
Via Sandro Gallo ,"104",,45.402056,12.361303
Via Sandro Gallo ,155c,,45.402103,12.361549
Via Sandro Gallo ,47b,,45.41191,12.367118
Via Sandro Gallo ,99a,,45.407059,12.365215
Via Sandro Gallo ,99b,,45.407059,12.365215
Via Sandro Gallo ,"118",,45.400812,12.360282
Via Sandro Gallo ,145g,,45.4028,12.362073
Via Sandro Gallo ,"128",,45.399947,12.359632
Via Sandro Gallo ,149c,,45.402543,12.361876
Via Sandro Gallo ,"124",,45.400399,12.359966
Via degli Alberi ,"2",,45.348606,12.321583
Via degli Alberi ,"3",,45.348557,12.321718
Via degli Albrizzi ,"7",,45.390973,12.351681
Via degli Albrizzi ,"12",,45.390202,12.350885
Via degli Albrizzi ,"13",,45.39022,12.35108
Via degli Albrizzi ,"26",,45.38919,12.350067
Via degli Albrizzi ,"29",,45.388106,12.349373
Via degli Albrizzi ,23a,,45.389706,12.350665
Via degli Albrizzi ,"3",,45.391249,12.3519
Via degli Albrizzi ,"24",,45.389498,12.35032
Via degli Albrizzi ,"20",,45.389755,12.350526
Via degli Albrizzi ,"17",,45.39005,12.350942
Via degli Albrizzi ,"23",,45.389789,12.350731
Via degli Albrizzi ,"15",,45.390105,12.350986
Via degli Albrizzi ,"9",,45.39072,12.351479
Via degli Albrizzi ,19a,,45.38997,12.350877
Via degli Albrizzi ,"27",,45.388881,12.349999
Via degli Albrizzi ,"25",,45.389596,12.350577
Via degli Albrizzi ,"19",,45.389914,12.350832
Via degli Albrizzi ,"4",,45.391066,12.351581
Via degli Albrizzi ,"18",,45.389864,12.350613
Via degli Albrizzi ,"6",,45.390722,12.351302
Via degli Albrizzi ,"2",,45.391322,12.351786
Via degli Albrizzi ,"10",,45.390285,12.350951
Via degli Albrizzi ,12a,,45.390143,12.350837
Via degli Albrizzi ,"22",,45.389651,12.350442
Via degli Albrizzi ,"8",,45.390506,12.351127
Via degli Albrizzi ,"5",,45.391121,12.351797
Via degli Albrizzi ,"16",,45.390007,12.350727
Via degli Albrizzi ,9a,,45.390648,12.351421
Via degli Albrizzi ,"14",,45.390104,12.350806
Via Doge Domenico Michiel ,"4",,45.416251,12.368205
Via Doge Domenico Michiel ,1d,,45.41612,12.368961
Via Doge Domenico Michiel ,2d,,45.416254,12.36819
Via Doge Domenico Michiel ,"58",,45.414917,12.373722
Via Doge Domenico Michiel ,5b,,45.415964,12.369591
Via Doge Domenico Michiel ,"8",,45.416133,12.368685
Via Doge Domenico Michiel ,3c,,45.416018,12.369367
Via Doge Domenico Michiel ,"14",,45.415992,12.369251
Via Doge Domenico Michiel ,"44",,45.415407,12.371635
Via Doge Domenico Michiel ,"7",,45.415883,12.369942
Via Doge Domenico Michiel ,2a,,45.416247,12.368008
Via Doge Domenico Michiel ,1b,,45.416172,12.368746
Via Doge Domenico Michiel ,"18",,45.415857,12.369819
Via Doge Domenico Michiel ,3b,,45.416032,12.369314
Via Doge Domenico Michiel ,"15",,45.415707,12.370638
Via Doge Domenico Michiel ,54a,,45.415033,12.373199
Via Doge Domenico Michiel ,"46",,45.415335,12.371945
Via Doge Domenico Michiel ,"2",,45.416268,12.367919
Via Doge Domenico Michiel ,"10",,45.416083,12.368884
Via Doge Domenico Michiel ,"41",,45.415138,12.372974
Via Doge Domenico Michiel ,16a,,45.415928,12.369521
Via Doge Domenico Michiel ,56a,,45.414951,12.373537
Via Doge Domenico Michiel ,3a,,45.416046,12.369262
Via Doge Domenico Michiel ,"32",,45.415555,12.371019
Via Doge Domenico Michiel ,"6",,45.416209,12.368377
Via Doge Domenico Michiel ,"5",,45.416001,12.369432
Via Doge Domenico Michiel ,20a,,45.415823,12.369951
Via Doge Domenico Michiel ,1f,,45.416078,12.369133
Via Doge Domenico Michiel ,21b,,45.415324,12.37221
Via Doge Domenico Michiel ,"36",,45.41548,12.371328
Via Doge Domenico Michiel ,"13",,45.415726,12.370555
Via Doge Domenico Michiel ,"17",,45.415476,12.371578
Via Doge Domenico Michiel ,6a,,45.416158,12.368585
Via Doge Domenico Michiel ,"56",,45.414974,12.373438
Via Doge Domenico Michiel ,44a,,45.415371,12.371788
Via Doge Domenico Michiel ,"20",,45.415795,12.370054
Via Doge Domenico Michiel ,"34",,45.415531,12.371117
Via Doge Domenico Michiel ,"52",,45.415114,12.372864
Via Doge Domenico Michiel ,"28",,45.415707,12.370437
Via Doge Domenico Michiel ,5d,,45.415948,12.36966
Via Doge Domenico Michiel ,2c,,45.416252,12.368198
Via Doge Domenico Michiel ,"48",,45.415272,12.372226
Via Doge Domenico Michiel ,1e,,45.416092,12.369078
Via Doge Domenico Michiel ,7b,,45.415838,12.37012
Via Doge Domenico Michiel ,"3",,45.41607,12.369169
Via Doge Domenico Michiel ,"11",,45.415767,12.370434
Via Marco Polo ,15a,,45.421733,12.378248
Via Marco Polo ,11b,,45.42176,12.378164
Via Marco Polo ,9a,,45.421838,12.377913
Via Marco Polo ,11a,,45.421811,12.378001
Via Sandro Gallo ,72c,,45.407301,12.365163
Via Sandro Gallo ,38b,,45.412733,12.36714
Via Sandro Gallo ,"165",,45.399933,12.359932
Via Sandro Gallo ,"14",,45.415672,12.367126
Via Sandro Gallo ,20d,,45.415382,12.366826
Via Sandro Gallo ,"8",,45.416136,12.367479
Via Sandro Gallo ,"207",,45.393088,12.354908
Via Sandro Gallo ,"149",,45.402645,12.361954
Via Sandro Gallo ,"114",,45.401312,12.360743
Via Sandro Gallo ,119a,,45.40634,12.364764
Via Sandro Gallo ,133a,,45.404157,12.363103
Via Sandro Gallo ,66a,,45.409174,12.36586
Via Sandro Gallo ,"5",,45.416205,12.367787
Via Sandro Gallo ,"199",,45.393553,12.354955
Via Sandro Gallo ,"69",,45.409834,12.366277
Via Sandro Gallo ,183e,,45.39555,12.357237
Via Sandro Gallo ,133d,,45.404085,12.363048
Via Sandro Gallo ,32a,,45.41328,12.367343
Via Sandro Gallo ,"11",,45.415175,12.366918
Via Sandro Gallo ,"183",,45.395247,12.356766
Via Sandro Gallo ,"47",,45.412105,12.367159
Via Sandro Gallo ,84d,,45.406047,12.364405
Via Sandro Gallo ,119c,,45.406246,12.364698
Via Sandro Gallo ,160a,,45.392198,12.353685
Via Sandro Gallo ,"100",,45.402663,12.361754
Via Sandro Gallo ,169a,,45.399305,12.359504
Via Sandro Gallo ,112b,,45.401494,12.360877
Via Sandro Gallo ,"49",,45.411774,12.367067
Via Sandro Gallo ,"94",,45.403632,12.362407
Via Sandro Gallo ,"155",,45.402183,12.361609
Via Sandro Gallo ,"126",,45.400237,12.359838
Via Sandro Gallo ,135f,,45.403844,12.362866
Via Sandro Gallo ,173m,,45.397057,12.358401
Via Sandro Gallo ,"172",,45.390113,12.352031
Via Sandro Gallo ,43a,,45.412508,12.367293
Via Sandro Gallo ,20b,,45.415365,12.366816
Via Sandro Gallo ,145e,,45.402892,12.362144
Via Sandro Gallo ,"223",,45.39228,12.353952
Via Sandro Gallo ,142e,,45.393257,12.354486
Via Sandro Gallo ,45b,,45.412429,12.367276
Via Sandro Gallo ,"253",,45.390361,12.352422
Via Sandro Gallo ,207a,,45.39305,12.354877
Via Sandro Gallo ,"152",,45.392725,12.354101
Via Sandro Gallo ,"225",,45.39208,12.353795
Via Sandro Gallo ,183g,,45.395533,12.357416
Via Sandro Gallo ,57a,,45.411034,12.366789
Via Sandro Gallo ,"157",,45.40179,12.361313
Via Sandro Gallo ,142c,,45.393326,12.35454
Via Sandro Gallo ,"137",,45.403618,12.362765
Via Sandro Gallo ,"203",,45.393155,12.354961
Via Sandro Gallo ,"32",,45.413485,12.367422
Via Sandro Gallo ,157b,,45.401932,12.36142
Via Sandro Gallo ,84c,,45.40608,12.36443
Via Francesco Duodo ,"13",,45.420376,12.376745
Via Francesco Duodo ,"7",,45.420507,12.376493
Via Francesco Duodo ,"25",,45.420112,12.377229
Via Francesco Duodo ,"35",,45.419255,12.378833
Via Francesco Duodo ,12a,,45.420003,12.377214
Via Francesco Duodo ,"5",,45.420541,12.376432
Via Francesco Duodo ,15a,,45.420341,12.376801
Via Francesco Duodo ,1a,,45.420649,12.376232
Via Francesco Duodo ,"23",,45.420148,12.377159
Via Francesco Duodo ,"33",,45.41937,12.378619
Via Francesco Duodo ,"19",,45.42022,12.377019
Via Francesco Duodo ,"8",,45.42023,12.376797
Via Francesco Duodo ,"27",,45.420024,12.377394
Via Francesco Duodo ,"4",,45.420537,12.37622
Via Francesco Duodo ,"21",,45.420191,12.377075
Via Francesco Duodo ,"14",,45.419533,12.378104
Via Francesco Duodo ,31t,,45.419398,12.378565
Via Francesco Duodo ,"10",,45.420134,12.37697
Via Francesco Duodo ,"9",,45.420465,12.376572
Via Francesco Duodo ,"39",,45.419042,12.379239
Via Francesco Duodo ,"12",,45.420055,12.377111
Via Francesco Duodo ,37a,,45.419105,12.379121
Via Francesco Duodo ,"3",,45.420601,12.37632
Via Francesco Duodo ,"41",,45.418972,12.379371
Via Francesco Duodo ,"17",,45.420241,12.376981
Via Francesco Duodo ,"37",,45.419165,12.379002
Via Francesco Duodo ,"11",,45.420405,12.376688
Via Francesco Duodo ,"6",,45.420375,12.37653
Via Francesco Duodo ,"15",,45.420292,12.376889
Via Francesco Duodo ,"16",,45.419439,12.378267
Via Francesco Duodo ,33b,,45.41932,12.378712
Via Francesco Duodo ,"31",,45.41972,12.377981
Via Francesco Duodo ,"43",,45.418933,12.379445
Piazza Delle Erbe ,"3",,45.3725,12.340047
Piazza Delle Erbe ,"5",,45.372533,12.340365
Piazza Delle Erbe ,3a,,45.372504,12.340114
Piazza Delle Erbe ,"1",,45.372464,12.339651
Piazza Delle Erbe ,"7",,45.372566,12.340605
Piazza Delle Erbe ,"4",,45.372512,12.34021
Via Lepanto ,12a,,45.414599,12.370094
Via Lepanto ,29a,,45.412207,12.36891
Via Lepanto ,"29",,45.412231,12.368961
Via Lepanto ,"11",,45.415158,12.370113
Via Lepanto ,"6",,45.415888,12.370406
Via Lepanto ,21c,,45.413424,12.370021
Via Lepanto ,24c,,45.413185,12.36995
Via Lepanto ,27a,,45.412274,12.36906
Via Lepanto ,1d,,45.416097,12.370326
Via Lepanto ,7a,,45.415818,12.370366
Via Lepanto ,"4",,45.415955,12.370445
Via Lepanto ,"3",,45.415989,12.370465
Via Lepanto ,"18",,45.413855,12.370052
Via Lepanto ,"28",,45.412237,12.368975
Via Lepanto ,19f,,45.413616,12.370035
Via Lepanto ,11a,,45.415134,12.37011
Via Lepanto ,31c,,45.412113,12.368703
Via Lepanto ,31b,,45.412125,12.368731
Via Lepanto ,"23",,45.413299,12.369999
Via Lepanto ,17a,,45.413983,12.370056
Via Lepanto ,"37",,45.410459,12.369125
Via Lepanto ,11b,,45.415103,12.370106
Via Lepanto ,8e,,45.415484,12.370206
Via Lepanto ,8i,,45.415393,12.370168
Via Lepanto ,"7",,45.415839,12.370378
Via Lepanto ,25f,,45.412647,12.369638
Via Lepanto ,25a,,45.412867,12.369759
Via Lepanto ,33b,,45.411572,12.368337
Via Lepanto ,"5",,45.415925,12.370428
Via Lepanto ,39a,,45.409806,12.369159
Via Lepanto ,"39",,45.41004,12.369187
Via Sandro Gallo ,157h,,45.401667,12.36122
Via Sandro Gallo ,"74",,45.407261,12.365148
Via Sandro Gallo ,96a,,45.402974,12.361991
Via Sandro Gallo ,156a,,45.392477,12.353904
Via Sandro Gallo ,"160",,45.392304,12.353768
Via Sandro Gallo ,"16",,45.415524,12.367
Via Sandro Gallo ,"99",,45.407124,12.365239
Via Sandro Gallo ,"134",,45.398918,12.35886
Via Sandro Gallo ,168a,,45.390603,12.352424
Via Sandro Gallo ,84a,,45.406136,12.364473
Via Sandro Gallo ,134b,,45.398691,12.358701
Via Sandro Gallo ,"97",,45.407192,12.365264
Via Sandro Gallo ,171b,,45.398827,12.359085
Via Sandro Gallo ,135c,,45.40395,12.362946
Via Sandro Gallo ,"64",,45.409308,12.365914
Via Sandro Gallo ,"92",,45.403813,12.362545
Via Sandro Gallo ,"86",,45.405119,12.363519
Via Sandro Gallo ,"23",,45.41377,12.367507
Via Sandro Gallo ,"113",,45.406585,12.364947
Via Sandro Gallo ,22a,,45.414876,12.366713
Via Sandro Gallo ,72a,,45.407578,12.365266
Via Sandro Gallo ,173b,,45.398236,12.358595
Via Sandro Gallo ,125a,,45.405414,12.36411
Via Sandro Gallo ,"135",,45.40401,12.362992
Via Sandro Gallo ,"33",,45.412677,12.367328
Via Sandro Gallo ,166b,,45.390789,12.352572
Via Sandro Gallo ,"96",,45.403017,12.362025
Via Sandro Gallo ,"29",,45.412921,12.367414
Via Sandro Gallo ,"112",,45.401524,12.3609
Via Sandro Gallo ,"26",,45.41467,12.366831
Via Sandro Gallo ,112a,,45.401463,12.360852
Via Sandro Gallo ,173d,,45.397921,12.358352
Via Sandro Gallo ,"184",,45.38938,12.351452
Via Sandro Gallo ,28a,,45.41417,12.367088
Via Sandro Gallo ,"181",,45.395478,12.356451
Via Sandro Gallo ,145f,,45.40288,12.362135
Via Sandro Gallo ,161g,,45.400822,12.360738
Via Sandro Gallo ,171f,,45.398658,12.358954
Via Sandro Gallo ,171c,,45.398784,12.359052
Via Sandro Gallo ,154a,,45.392597,12.353999
Via Sandro Gallo ,153d,,45.402352,12.36173
Via Sandro Gallo ,128d,,45.399821,12.35952
Via Sandro Gallo ,"174",,45.38996,12.351915
Via Sandro Gallo ,157e,,45.401736,12.361272
Via Sandro Gallo ,191a,,45.394369,12.355591
Via Sandro Gallo ,"109",,45.406849,12.365117
Via Sandro Gallo ,173o,,45.397627,12.358124
Via Sandro Gallo ,"168",,45.390691,12.352495
Via Sandro Gallo ,172a,,45.39015,12.352061
Via Sandro Gallo ,155d,,45.402057,12.361514
Via Sandro Gallo ,"68",,45.408569,12.365635
Via Sandro Gallo ,"18",,45.415419,12.366929
Via Alvisopoli ,"12",,45.382105,12.348534
Via Alvisopoli ,"10",,45.382098,12.348438
Via Alvisopoli ,"9",,45.38247,12.348349
Via Alvisopoli ,"14",,45.382291,12.348683
Via Alvisopoli ,"16",,45.381881,12.348608
Via Alvisopoli ,"8",,45.382365,12.348248
Via Lepanto ,17b,,45.413959,12.370055
Via Lepanto ,25d,,45.412728,12.36968
Via Lepanto ,25b,,45.41281,12.369723
Via Lepanto ,"31",,45.412151,12.368786
Via Lepanto ,8d,,45.415498,12.370212
Via Lepanto ,2a,,45.416029,12.370488
Via Lepanto ,25c,,45.412771,12.369703
Via Lepanto ,"35",,45.411141,12.368598
Via Lepanto ,10c,,45.415291,12.37014
Via Lepanto ,31d,,45.412099,12.368674
Via Lepanto ,1e,,45.41604,12.370292
Via Lepanto ,"40",,45.409337,12.369023
Via Lepanto ,"19",,45.413789,12.370049
Via Lepanto ,17c,,45.413919,12.370054
Via Lepanto ,"34",,45.411547,12.368332
Via Lepanto ,"24",,45.413151,12.369932
Via Lepanto ,39b,,45.409699,12.369147
Via Lepanto ,24a,,45.413138,12.369809
Via Lepanto ,"25",,45.412877,12.369767
Via Lepanto ,36a,,45.410834,12.368831
Via Lepanto ,"22",,45.413395,12.370017
Via Lepanto ,1f,,45.416021,12.37028
Via Lepanto ,"45",,45.409172,12.369062
Via Lepanto ,"2",,45.416057,12.370505
Via Lepanto ,19c,,45.413711,12.370043
Via Lepanto ,17d,,45.413882,12.370053
Via Lepanto ,"15",,45.414171,12.37007
Via Lepanto ,"26",,45.412497,12.369506
Via Lepanto ,10d,,45.41526,12.370132
Via Lepanto ,1g,,45.416002,12.370269
Via Lepanto ,30a,,45.412165,12.368817
Via Lepanto ,"8",,45.415711,12.370358
Via Lepanto ,2c,,45.416011,12.370478
Via Lepanto ,18a,,45.413819,12.370051
Via Lepanto ,"36",,45.410922,12.368766
Via Lepanto ,37c,,45.41022,12.36921
Via Lepanto ,"20",,45.413453,12.370025
Via Lepanto ,19d,,45.413679,12.37004
Via Lepanto ,"27",,45.412356,12.369245
Via Lepanto ,"1",,45.416111,12.370536
Via Lepanto ,19e,,45.413656,12.370038
Via Lepanto ,1a,,45.416294,12.370446
Via Lepanto ,1c,,45.41618,12.370377
Via Lepanto ,31a,,45.412137,12.368755
Via Lepanto ,33a,,45.411718,12.368372
Via Lepanto ,37b,,45.410239,12.369747
Via Lepanto ,10a,,45.415316,12.370147
Via Lepanto ,22a,,45.413358,12.37001
Via Lepanto ,36c,,45.410637,12.368982
Via Lepanto ,"30",,45.412179,12.368849
Via Lepanto ,11c,,45.415064,12.370101
Via Lepanto ,25e,,45.412692,12.369662
Via Lepanto ,34b,,45.411241,12.368522
Via Sandro Gallo ,126a,,45.400232,12.359834
Via Sandro Gallo ,"189",,45.394763,12.355902
Via Sandro Gallo ,178a,,45.389748,12.351739
Via Sandro Gallo ,164c,,45.390877,12.352641
Via Sandro Gallo ,"127",,45.405044,12.36382
Via Sandro Gallo ,135e,,45.403884,12.362896
Via Sandro Gallo ,"52",,45.410782,12.366487
Via Sandro Gallo ,"46",,45.411678,12.36683
Via Sandro Gallo ,"89",,45.407701,12.365465
Via Sandro Gallo ,186c,,45.389305,12.351386
Via Sandro Gallo ,186a,,45.389305,12.351386
Via Sandro Gallo ,"197",,45.393805,12.355157
Via Sandro Gallo ,"102",,45.402505,12.361634
Via Sandro Gallo ,145d,,45.402914,12.362161
Via Sandro Gallo ,241b,,45.391581,12.353425
Via Sandro Gallo ,"171",,45.398888,12.359133
Via Sandro Gallo ,77a,,45.408804,12.365879
Via Sandro Gallo ,72b,,45.407412,12.365203
Via Sandro Gallo ,173p,,45.39757,12.35808
Via Sandro Gallo ,183b,,45.394656,12.356853
Via Sandro Gallo ,"148",,45.392881,12.354224
Via Sandro Gallo ,121a,,45.406024,12.364527
Via Sandro Gallo ,"66",,45.409058,12.365816
Via Sandro Gallo ,155b,,45.402113,12.361557
Via Sandro Gallo ,"62",,45.409515,12.365995
Via Sandro Gallo ,"191",,45.39447,12.355669
Via Sandro Gallo ,153a,,45.402433,12.361792
Via Sandro Gallo ,54b,,45.410219,12.366272
Via Sandro Gallo ,"13",,45.415105,12.366877
Via Sandro Gallo ,134a,,45.398712,12.358717
Via Sandro Gallo ,"50",,45.411065,12.366596
Via Sandro Gallo ,"115",,45.406477,12.364865
Via Sandro Gallo ,161h,,45.400802,12.360791
Via Sandro Gallo ,183l,,45.395287,12.357437
Via Sandro Gallo ,173n,,45.39705,12.358416
Via Sandro Gallo ,"133",,45.404145,12.363093
Via Sandro Gallo ,"159",,45.401309,12.360959
Via Sandro Gallo ,"167",,45.399469,12.35963
Via Sandro Gallo ,20c,,45.415374,12.366822
Via Sandro Gallo ,"176",,45.38987,12.351841
Via Sandro Gallo ,"243",,45.391536,12.353389
Via Sandro Gallo ,48a,,45.411141,12.366626
Via Sandro Gallo ,149a,,45.402609,12.361926
Via Sandro Gallo ,"141",,45.403577,12.362737
Via Sandro Gallo ,"98",,45.402793,12.361852
Via Sandro Gallo ,57e,,45.410741,12.366679
Via Sandro Gallo ,51a,,45.411569,12.366986
Via Sandro Gallo ,53b,,45.411372,12.366908
Via Sandro Gallo ,124a,,45.400292,12.359881
Via Sandro Gallo ,119d,,45.406236,12.364691
Via Sandro Gallo ,126c,,45.400061,12.359699
Via Ascalona ,"6",,45.415781,12.371143
Via Ascalona ,"2",,45.415955,12.37125
Via Ascalona ,"4",,45.415836,12.371177
Via Andrea Morosini ,"2",,45.401516,12.36049
Via Andrea Morosini ,"3",,45.401596,12.360166
Via Andrea Morosini ,"5",,45.401714,12.359879
Via Andrea Morosini ,"10",,45.40191,12.359537
Via Andrea Morosini ,3a,,45.401628,12.360087
Via Andrea Morosini ,"1",,45.401476,12.360457
Via Andrea Morosini ,"7",,45.401806,12.359656
Via Andrea Morosini ,"6",,45.401738,12.359951
Via Andrea Morosini ,4a,,45.401624,12.360229
Via Andrea Morosini ,"4",,45.401562,12.360377
Via Andrea Morosini ,"8",,45.401835,12.359718
Via Andrea Morosini ,"9",,45.40188,12.359476
Via Francesco Cavalli ,"5",,45.400528,12.359398
Via Francesco Cavalli ,"7",,45.400609,12.359044
Via Francesco Cavalli ,"13",,45.400863,12.358788
Via Francesco Cavalli ,"19",,45.401075,12.358636
Via Francesco Cavalli ,"15",,45.400921,12.358744
Via Francesco Cavalli ,"16",,45.401073,12.358778
Via Francesco Cavalli ,"8",,45.400802,12.359037
Via Francesco Cavalli ,"9",,45.400734,12.358916
Via Francesco Cavalli ,"12",,45.400958,12.358856
Via Francesco Cavalli ,7a,,45.400628,12.35903
Via Francesco Cavalli ,"6",,45.400622,12.359306
Via Francesco Cavalli ,"14",,45.401016,12.358811
Via Francesco Cavalli ,"10",,45.400858,12.358976
Via Francesco Cavalli ,"17",,45.400989,12.358695
Via Francesco Cavalli ,"2",,45.400588,12.359832
Via Lepanto ,24b,,45.413247,12.369984
Via Lepanto ,12b,,45.414535,12.37009
Via Lepanto ,8h,,45.415426,12.370178
Via Lepanto ,"43",,45.409602,12.369135
Via Lepanto ,24d,,45.413114,12.369912
Via Lepanto ,1b,,45.416265,12.370428
Via Lepanto ,"13",,45.414477,12.370086
Via Lepanto ,37a,,45.410277,12.369745
Via Lepanto ,19b,,45.413748,12.370045
Via Lepanto ,11d,,45.415031,12.370103
Via Lepanto ,36b,,45.410782,12.368869
Via Lepanto ,25g,,45.412599,12.369608
Via Lepanto ,"21",,45.413479,12.370027
Via Lepanto ,"16",,45.414018,12.370058
Via Lepanto ,"10",,45.415223,12.370122
Via Lepanto ,"17",,45.414006,12.370057
Via Lepanto ,"33",,45.41181,12.368393
Via Lepanto ,10b,,45.415338,12.370153
Via Lepanto ,19a,,45.413773,12.370047
Via Lepanto ,"14",,45.414456,12.370084
Via Lepanto ,29b,,45.412191,12.368874
Via Lepanto ,"32",,45.412069,12.368607
Via Sandro Gallo ,5a,,45.416174,12.367755
Via Sandro Gallo ,"195",,45.394012,12.355319
Via Sandro Gallo ,"108",,45.401664,12.361007
Via Sandro Gallo ,"105",,45.406982,12.365185
Via Sandro Gallo ,121b,,45.405992,12.364503
Via Sandro Gallo ,173f,,45.39783,12.358281
Via Sandro Gallo ,183n,,45.394904,12.357177
Via Sandro Gallo ,"227",,45.391953,12.353695
Via Sandro Gallo ,145b,,45.403001,12.362228
Via Sandro Gallo ,"91",,45.407639,12.365441
Via Sandro Gallo ,47a,,45.411961,12.367125
Via Sandro Gallo ,"143",,45.403389,12.362591
Via Sandro Gallo ,142a,,45.393344,12.354554
Via Sandro Gallo ,"179",,45.395715,12.356635
Via Sandro Gallo ,"84",,45.406116,12.364457
Via Sandro Gallo ,"73",,45.409349,12.36609
Via Sandro Gallo ,"131",,45.404544,12.363449
Via Sandro Gallo ,110a,,45.401555,12.360925
Via Sandro Gallo ,136b,,45.396743,12.357153
Via Sandro Gallo ,"193",,45.394309,12.355545
Via Sandro Gallo ,97b,,45.40727,12.365293
Via Sandro Gallo ,173i,,45.397677,12.358163
Via Sandro Gallo ,119b,,45.406298,12.364735
Via Sandro Gallo ,142d,,45.393283,12.354506
Via Sandro Gallo ,183i,,45.395481,12.357509
Via Sandro Gallo ,"22",,45.415022,12.366688
Via Sandro Gallo ,186a,,45.389309,12.351391
Via Sandro Gallo ,"4",,45.416444,12.367827
Via Sandro Gallo ,"182",,45.389505,12.351551
Via Sandro Gallo ,"180",,45.389585,12.351613
Via Sandro Gallo ,"163",,45.400263,12.360263
Via Sandro Gallo ,61a,,45.410704,12.36665
Via Sandro Gallo ,55c,,45.411219,12.366863
Via Sandro Gallo ,51d,,45.41145,12.366939
Via Sandro Gallo ,"48",,45.411284,12.366681
Via Sandro Gallo ,171g,,45.398605,12.358912
Via Sandro Gallo ,"209",,45.392987,12.354828
Via Sandro Gallo ,173h,,45.397726,12.358201
Via Sandro Gallo ,183j,,45.39541,12.357605
Via Sandro Gallo ,173e,,45.397873,12.358314
Via Sandro Gallo ,38a,,45.412787,12.367155
Via Sandro Gallo ,"132",,45.399301,12.359132
Via Sandro Gallo ,77b,,45.408814,12.365883
Via Sandro Gallo ,171h,,45.398566,12.358881
Via Sandro Gallo ,148a,,45.392936,12.354268
Via Sandro Gallo ,157c,,45.40188,12.36138
Via Sandro Gallo ,"156",,45.392535,12.35395
Via Sandro Gallo ,159g,,45.401203,12.360879
Via Sandro Gallo ,"219",,45.392449,12.354086
Via Sandro Gallo ,"31",,45.412828,12.367379
Via Sandro Gallo ,"186",,45.389328,12.35141
Via Sandro Gallo ,"83",,45.407814,12.365494
Via Sandro Gallo ,135b,,45.403973,12.362964
Via Jacopo Nani ,29a,,45.411244,12.370993
Via Jacopo Nani ,5b,,45.411733,12.369166
Via Jacopo Nani ,1c,,45.41186,12.368723
Via Jacopo Nani ,"3",,45.411844,12.368775
Via Jacopo Nani ,1b,,45.411878,12.368662
Via Jacopo Nani ,"7",,45.411703,12.36929
Via Jacopo Nani ,"24",,45.411278,12.370639
Via Jacopo Nani ,9b,,45.411677,12.369386
Via Jacopo Nani ,"14",,45.411579,12.369519
Via Jacopo Nani ,"23",,45.411499,12.370045
Via Jacopo Nani ,"28",,45.411031,12.371548
Via Jacopo Nani ,"11",,45.411634,12.369542
Via Jacopo Nani ,"12",,45.411623,12.369357
Via Jacopo Nani ,"10",,45.411659,12.369222
Via Jacopo Nani ,5a,,45.411762,12.36906
Via Jacopo Nani ,1a,,45.411894,12.368609
Via Jacopo Nani ,"22",,45.411304,12.370545
Via Jacopo Nani ,"16",,45.411479,12.369901
Via Jacopo Nani ,"18",,45.4114,12.370197
Via Jacopo Nani ,"20",,45.411386,12.370248
Via Jacopo Nani ,"27",,45.411361,12.370556
Via Jacopo Nani ,"1",,45.411915,12.36854
Via Jacopo Nani ,"8",,45.411705,12.369049
Via Jacopo Nani ,3b,,45.411824,12.368842
Via Jacopo Nani ,"26",,45.411172,12.371038
Via Jacopo Nani ,"15",,45.411573,12.36977
Via Jacopo Nani ,"21",,45.411532,12.369926
Via Jacopo Nani ,"4",,45.41182,12.368612
Via Jacopo Nani ,"5",,45.411778,12.369002
Via Jacopo Nani ,9a,,45.411693,12.369327
Via Jacopo Nani ,9d,,45.411651,12.369481
Via Jacopo Nani ,3a,,45.411832,12.368814
Via Jacopo Nani ,9c,,45.411663,12.369436
Via Jacopo Nani ,"13",,45.411623,12.369586
Via Jacopo Nani ,25a,,45.411457,12.3702
Via Jacopo Nani ,"6",,45.411735,12.368936
Via Jacopo Nani ,14a,,45.41154,12.369658
Via Jacopo Nani ,"25",,45.411488,12.370087
Via Jacopo Nani ,"35",,45.411016,12.371691
Via Antonio Lotti ,"1",,45.399515,12.359098
Via Antonio Lotti ,"3",,45.399581,12.358929
Via Antonio Lotti ,4a,,45.399799,12.358648
Via Antonio Lotti ,"13",,45.39997,12.357928
Via Antonio Lotti ,"6",,45.39997,12.35821
Via Antonio Lotti ,"9",,45.399847,12.358248
Via Antonio Lotti ,"11",,45.399912,12.358078
Via Antonio Lotti ,"4",,45.399778,12.358704
Via Antonio Lotti ,"8",,45.400013,12.358095
Via Antonio Lotti ,"2",,45.399717,12.358865
Via Sandro Gallo ,"158",,45.392369,12.353819
Via Sandro Gallo ,159b,,45.401456,12.361072
Via Sandro Gallo ,171d,,45.39875,12.359025
Via Sandro Gallo ,"65",,45.410168,12.366407
Via Sandro Gallo ,"119",,45.406221,12.364682
Via Sandro Gallo ,"81",,45.408281,12.365659
Via Sandro Gallo ,20e,,45.415129,12.366659
Via Sandro Gallo ,161c,,45.401069,12.360776
Via Sandro Gallo ,153c,,45.402375,12.361748
Via Sandro Gallo ,155e,,45.402031,12.361494
Via Sandro Gallo ,55b,,45.411077,12.366805
Via Sandro Gallo ,161f,,45.400834,12.360704
Via Sandro Gallo ,"144",,45.393097,12.354396
Via Sandro Gallo ,173l,,45.397064,12.358384
Via Sandro Gallo ,54a,,45.410363,12.366329
Via Sandro Gallo ,183v,,45.395037,12.356601
Via Sandro Gallo ,73b,,45.408936,12.365931
Via Sandro Gallo ,84b,,45.406165,12.364495
Via Sandro Gallo ,159e,,45.401263,12.360924
Via Sandro Gallo ,"178",,45.389704,12.351704
Via Sandro Gallo ,172c,,45.390231,12.352124
Via Sandro Gallo ,"54",,45.410387,12.366338
Via Sandro Gallo ,82d,,45.406262,12.364566
Via Sandro Gallo ,161i,,45.400745,12.360817
Via Sandro Gallo ,53c,,45.411306,12.366882
Via Sandro Gallo ,"185",,45.395245,12.356272
Via Sandro Gallo ,"154",,45.392654,12.354044
Via Sandro Gallo ,"95",,45.407446,12.365356
Via Sandro Gallo ,14a,,45.415735,12.367176
Via Sandro Gallo ,159a,,45.401482,12.361092
Via Sandro Gallo ,94a,,45.403502,12.362309
Via Sandro Gallo ,145a,,45.403015,12.362238
Via Sandro Gallo ,"60",,45.409791,12.366104
Via Sandro Gallo ,"241",,45.391818,12.353611
Via Sandro Gallo ,20a,,45.415339,12.366834
Via Sandro Gallo ,74a,,45.407211,12.36513
Via Sandro Gallo ,"142",,45.393352,12.35456
Via Sandro Gallo ,183r,,45.394731,12.3568
Via Sandro Gallo ,"145",,45.402966,12.362201
Via Sandro Gallo ,135d,,45.40391,12.362916
Via Sandro Gallo ,"80",,45.406716,12.364903
Via Sandro Gallo ,"221",,45.392357,12.354042
Via Sandro Gallo ,183m,,45.395115,12.357318
Via Sandro Gallo ,49a,,45.411662,12.367025
Via Sandro Gallo ,"120",,45.400755,12.360238
Via Sandro Gallo ,97a,,45.407232,12.365278
Via Sandro Gallo ,153e,,45.4023,12.361691
Via Sandro Gallo ,157d,,45.401847,12.361356
Via Sandro Gallo ,183h,,45.395512,12.357454
Via Sandro Gallo ,62a,,45.409627,12.366039
Strada Nuova ,"13",,45.346423,12.315028
Strada Nuova ,"4",,45.346477,12.315371
Strada Nuova ,"9",,45.346303,12.315229
Strada Nuova ,"2",,45.346624,12.315499
Strada Nuova ,"3",,45.346481,12.315445
Strada Nuova ,"15",,45.346431,12.315008
Strada Nuova ,"23",,45.346224,12.314355
Strada Nuova ,"11",,45.34634,12.315237
Strada Nuova ,"7",,45.346321,12.315324
Strada Nuova ,15a,,45.34649,12.314861
Via Simone Occhi ,"10",,45.384122,12.349923
Via Simone Occhi ,"5",,45.384237,12.349417
Via Simone Occhi ,3a,,45.384055,12.348771
Via Simone Occhi ,"8",,45.384103,12.349381
Via Simone Occhi ,"3",,45.384089,12.348644
Via Simone Occhi ,"12",,45.383863,12.350387
Strada del Forte Alberoni ,"11",,45.345593,12.315504
Strada del Forte Alberoni ,"10",,45.345673,12.315545
Strada del Forte Alberoni ,"1",,45.346552,12.315917
Strada del Forte Alberoni ,"2",,45.346349,12.315835
Strada del Forte Alberoni ,"6",,45.345951,12.315663
Strada del Forte Alberoni ,"9",,45.345749,12.315578
Strada del Forte Alberoni ,"5",,45.346035,12.315698
Strada del Forte Alberoni ,"4",,45.346133,12.315741
Strada del Forte Alberoni ,"3",,45.346195,12.315768
Via Sandro Gallo ,173c,,45.397044,12.35843
Via Sandro Gallo ,183y,,45.394998,12.357237
Via Sandro Gallo ,"44",,45.411917,12.366923
Via Sandro Gallo ,241a,,45.391704,12.353496
Via Sandro Gallo ,165a,,45.399739,12.359831
Via Sandro Gallo ,"28",,45.414571,12.366872
Via Sandro Gallo ,"187",,45.394867,12.355981
Via Sandro Gallo ,"150",,45.392817,12.354173
Via Sandro Gallo ,107a,,45.406897,12.365148
Via Sandro Gallo ,53a,,45.41138,12.366911
Via Sandro Gallo ,"56",,45.410096,12.366223
Via Sandro Gallo ,"177",,45.395896,12.356775
Via Sandro Gallo ,"101",,45.407043,12.365209
Via Sandro Gallo ,"25",,45.4132,12.367522
Via Sandro Gallo ,"103",,45.407028,12.365204
Via Sandro Gallo ,163a,,45.400099,12.360139
Via Sandro Gallo ,"111",,45.40668,12.365016
Via Sandro Gallo ,"9",,45.415331,12.367036
Via Sandro Gallo ,"130",,45.399667,12.359405
Via Sandro Gallo ,"79",,45.408402,12.365713
Via Sandro Gallo ,"170",,45.390432,12.352282
Via Sandro Gallo ,"153",,45.402465,12.361816
Via Sandro Gallo ,"173",,45.398005,12.358416
Via Sandro Gallo ,144a,,45.393167,12.354451
Via Sandro Gallo ,"82",,45.406318,12.364607
Via Sebastiano Coletti ,"6",,45.38791,12.34962
Via Sebastiano Coletti ,"9",,45.388241,12.348796
Via Sebastiano Coletti ,"7",,45.388166,12.348985
Via Sebastiano Coletti ,"8",,45.388205,12.348886
Via Sebastiano Coletti ,"4",,45.387853,12.34976
Via Andrea Contarini ,"8",,45.41163,12.367938
Via Andrea Contarini ,1e,,45.411823,12.367277
Via Andrea Contarini ,"6",,45.411666,12.367763
Via Andrea Contarini ,1b,,45.411842,12.367194
Via Andrea Contarini ,"9",,45.411709,12.367831
Via Andrea Contarini ,1g,,45.411798,12.36741
Via Andrea Contarini ,1c,,45.411807,12.367364
Via Andrea Contarini ,"1",,45.411855,12.367122
Via Andrea Contarini ,"2",,45.41177,12.367249
Via Andrea Contarini ,2a,,45.411794,12.367149
Via Andrea Contarini ,"5",,45.411729,12.367733
Via Andrea Contarini ,"11",,45.411693,12.367909
Via Andrea Contarini ,1f,,45.411832,12.367244
Via Andrea Contarini ,"4",,45.411737,12.367414
Via Andrea Calmo ,"13",,45.402959,12.36267
Via Andrea Calmo ,"18",,45.402764,12.363411
Via Andrea Calmo ,"15",,45.402982,12.362611
Via Salvore ,4b,,45.406835,12.363875
Via Salvore ,"2",,45.407296,12.36391
Via Salvore ,"3",,45.407138,12.364021
Via Salvore ,"4",,45.406974,12.363879
Via Salvore ,"5",,45.406907,12.364007
Via Salvore ,6b,,45.406665,12.363883
Via Salvore ,6a,,45.40635,12.363879
Via Salvore ,4c,,45.406753,12.363877
Via Salvore ,"1",,45.407452,12.364074
Via Salvore ,4a,,45.407103,12.363886
Via Salvore ,"6",,45.406585,12.363894
Via dei Sanmicheli ,"5",,45.429892,12.383167
Via dei Sanmicheli ,"9",,45.431127,12.383947
Via dei Sanmicheli ,"12",,45.430897,12.384096
Via dei Sanmicheli ,"1",,45.430116,12.382575
Via dei Sanmicheli ,"11",,45.431199,12.383801
Via dei Sanmicheli ,"8",,45.430166,12.383432
Via dei Sanmicheli ,"14",,45.431089,12.384108
Via dei Sanmicheli ,"15",,45.431277,12.383643
Via dei Sanmicheli ,"19",,45.431387,12.383414
Lungomare Gabriele D'annunzio ,"16",,45.415157,12.376714
Via Andrea Calmo ,"23",,45.403046,12.362445
Via Andrea Calmo ,"16",,45.402695,12.363598
Via Andrea Calmo ,"11",,45.40294,12.362718
Via Andrea Calmo ,7a,,45.402749,12.363206
Via Andrea Calmo ,"9",,45.402889,12.362849
Via Andrea Calmo ,"17",,45.403002,12.36256
Via Andrea Calmo ,"27",,45.403071,12.362379
Via Andrea Calmo ,"22",,45.402963,12.362918
Via Andrea Calmo ,"2",,45.402443,12.36426
Via Andrea Calmo ,"7",,45.402706,12.363316
Via Andrea Calmo ,"25",,45.403057,12.362415
Via Andrea Calmo ,"20",,45.402835,12.363224
Via Andrea Calmo ,"4",,45.402564,12.363953
Via Andrea Calmo ,"21",,45.403031,12.362483
Via Andrea Calmo ,7b,,45.402796,12.363086
Via Andrea Calmo ,"19",,45.403019,12.362515
Via Scutari ,9a,,45.416318,12.372932
Via Scutari ,"16",,45.417114,12.37341
Via Scutari ,12c,,45.416837,12.373269
Via Scutari ,"23",,45.417377,12.373476
Via Scutari ,"24",,45.417495,12.37359
Via Scutari ,9b,,45.416331,12.372937
Via Scutari ,"25",,45.417628,12.373602
Via Scutari ,"3",,45.416006,12.372781
Via Scutari ,"26",,45.417598,12.373641
Via Scutari ,"11",,45.416543,12.373051
Via Scutari ,"21",,45.417183,12.373374
Via Scutari ,"20",,45.417302,12.373502
Via Scutari ,"9",,45.4163,12.372924
Via Scutari ,"17",,45.416911,12.373235
Via Scutari ,"15",,45.416868,12.373213
Via Scutari ,"18",,45.417217,12.373458
Via Scutari ,"13",,45.416808,12.373184
Via Scutari ,"7",,45.416222,12.372882
Via Scutari ,"19",,45.41697,12.373265
Via Scutari ,"12",,45.416703,12.373203
Lungomare Gabriele D'annunzio ,"4",,45.418545,12.37964
Lungomare Gabriele D'annunzio ,12a,,45.416151,12.377575
Lungomare Gabriele D'annunzio ,"14",,45.415384,12.376918
Lungomare Gabriele D'annunzio ,"12",,45.416378,12.377773
Lungomare Gabriele D'annunzio ,12r,,45.415633,12.377142
Lungomare Gabriele D'annunzio ,"1",,45.419472,12.380653
Lungomare Gabriele D'annunzio ,14a,,45.415427,12.376957
Lungomare Gabriele D'annunzio ,"8",,45.416914,12.378243
Lungomare Gabriele D'annunzio ,"10",,45.416625,12.377989
Lungomare Gabriele D'annunzio ,"2",,45.41924,12.380265
Via Dalmazia ,4b,,45.409383,12.370727
Via Dalmazia ,2b,,45.409175,12.370386
Via Dalmazia ,"8",,45.409606,12.371094
Via Dalmazia ,"13",,45.409865,12.371383
Via Dalmazia ,5a,,45.409395,12.37061
Via Dalmazia ,"2",,45.409046,12.370175
Via Dalmazia ,"11",,45.409682,12.371082
Via Dalmazia ,"9",,45.409546,12.370859
Via Dalmazia ,8a,,45.40968,12.371215
Via Dalmazia ,6a,,45.409577,12.371048
Via Dalmazia ,"15",,45.409995,12.371588
Via Dalmazia ,"1",,45.409118,12.370157
Via Dalmazia ,8c,,45.409718,12.371278
Via Dalmazia ,"10",,45.409843,12.371482
Via Dalmazia ,4a,,45.409311,12.370608
Via Scutari ,"14",,45.416966,12.373334
Via Scutari ,19a,,45.41702,12.37329
Via Scutari ,"1",,45.415966,12.372759
Via Scutari ,"5",,45.416128,12.372834
Via Scutari ,"22",,45.417408,12.37355
Via Dalmazia ,"4",,45.409208,12.37044
Via Dalmazia ,11b,,45.409761,12.371212
Via Dalmazia ,"6",,45.409461,12.370856
Via Dalmazia ,4c,,45.409431,12.370806
Via Dalmazia ,"3",,45.409281,12.370424
Via Dalmazia ,11a,,45.409606,12.370956
Via Dalmazia ,"5",,45.409381,12.370588
Via Parenzo ,"2",,45.417543,12.376854
Via Parenzo ,"4",,45.4177,12.377054
Via Parenzo ,"14",,45.418681,12.377931
Via Parenzo ,"19",,45.418799,12.377935
Via Parenzo ,"7",,45.417749,12.376985
Via Parenzo ,"12",,45.41826,12.377584
Via Parenzo ,"5",,45.417459,12.376632
Via Parenzo ,"15",,45.41816,12.377393
Via Parenzo ,5b,,45.417652,12.376891
Via Parenzo ,23a,,45.419267,12.378299
Via Parenzo ,"23",,45.41915,12.37821
Via Parenzo ,"18",,45.419139,12.378288
Via Parenzo ,"13",,45.418143,12.377377
Via Parenzo ,"1",,45.417292,12.376382
Via Parenzo ,"9",,45.417855,12.377106
Via Parenzo ,"17",,45.418763,12.377906
Via Parenzo ,1a,,45.417295,12.37639
Via Parenzo ,"16",,45.419023,12.378193
Via Parenzo ,2b,,45.417395,12.376678
Via Parenzo ,"10",,45.418107,12.37744
Via Parenzo ,"11",,45.418032,12.377273
Via Parenzo ,"21",,45.418912,12.378025
Via Parenzo ,15a,,45.418281,12.377502
Via Parenzo ,2c,,45.417495,12.376794
Via Parenzo ,"3",,45.417358,12.376484
Via Parenzo ,14a,,45.418792,12.378016
Via Parenzo ,"25",,45.419303,12.378323
Via Parenzo ,5a,,45.417587,12.376806
Via Parenzo ,"8",,45.418056,12.377393
Via Gallipoli ,"9",,45.410707,12.367736
Via Gallipoli ,"20",,45.410279,12.367942
Via Gallipoli ,"24",,45.410075,12.367921
Via Gallipoli ,"6",,45.411306,12.367391
Via Gallipoli ,"4",,45.411424,12.36744
Via Gallipoli ,"5",,45.410967,12.367546
Via Gallipoli ,"18",,45.410443,12.36784
Via Gallipoli ,"26",,45.409965,12.367819
Via Gallipoli ,"11",,45.410626,12.367795
Via Gallipoli ,26a,,45.409905,12.36775
Via Gallipoli ,"14",,45.41067,12.367673
Via Gallipoli ,"16",,45.410578,12.367741
Via Gallipoli ,12a,,45.410696,12.367653
Via Gallipoli ,"17",,45.410215,12.368036
Via Gallipoli ,"12",,45.410797,12.367579
Via Gallipoli ,11a,,45.410531,12.367865
Via Gallipoli ,"7",,45.410798,12.367669
Via Gallipoli ,"15",,45.410317,12.368005
Via Gallipoli ,"19",,45.410055,12.367991
Via Gallipoli ,"13",,45.410437,12.36793
Via Gallipoli ,16a,,45.41048,12.367813
Via Gallipoli ,"22",,45.410098,12.367935
Via Gallipoli ,"2",,45.411619,12.367514
Via Gallipoli ,6a,,45.41126,12.367369
Via Gallipoli ,"1",,45.411313,12.367476
Via Gallipoli ,"3",,45.411189,12.367446
Via Gallipoli ,"8",,45.411065,12.367399
Via Ferruccio Parri ,"5",,45.378833,12.344553
Via Ferruccio Parri ,"8",,45.37874,12.34455
Via Ferruccio Parri ,"33",,45.375789,12.342972
Via Ferruccio Parri ,"14",,45.37851,12.345103
Via Ferruccio Parri ,"13",,45.378553,12.345233
Via Ferruccio Parri ,"31",,45.375956,12.343104
Via Ferruccio Parri ,"20",,45.378359,12.345467
Via Ferruccio Parri ,"7",,45.378818,12.34459
Via Ferruccio Parri ,"22",,45.378179,12.345914
Via Ferruccio Parri ,"17",,45.378432,12.345531
Via Ferruccio Parri ,"21",,45.378372,12.345811
Via Ferruccio Parri ,"23",,45.378311,12.345825
Via Ferruccio Parri ,"12",,45.378554,12.344996
Via Ferruccio Parri ,"11",,45.378634,12.345036
Via Ferruccio Parri ,"9",,45.378753,12.344745
Via Ferruccio Parri ,"16",,45.378489,12.345157
Via Ferruccio Parri ,"10",,45.378581,12.344931
Via Ferruccio Parri ,"19",,45.378419,12.345705
Via Ferruccio Parri ,"18",,45.378439,12.345278
Via Ferruccio Parri ,"24",,45.37813,12.346044
Via Ferruccio Parri ,"15",,45.378456,12.34547
Via Orso Partecipazio ,12a,,45.414619,12.368488
Via Orso Partecipazio ,"13",,45.414713,12.368291
Via Orso Partecipazio ,8b,,45.414683,12.368118
Via Orso Partecipazio ,"22",,45.414463,12.369415
Via Orso Partecipazio ,"15",,45.414669,12.368552
Via Orso Partecipazio ,"11",,45.414778,12.36791
Via Orso Partecipazio ,17a,,45.414624,12.368801
Via Orso Partecipazio ,"8",,45.414652,12.368304
Via Orso Partecipazio ,"17",,45.41464,12.368711
Via Orso Partecipazio ,21a,,45.414525,12.369373
Via Orso Partecipazio ,"21",,45.414542,12.369275
Via Orso Partecipazio ,10b,,45.414626,12.368455
Via Orso Partecipazio ,16m,,45.414519,12.369113
Via Orso Partecipazio ,"14",,45.414593,12.368639
Via Orso Partecipazio ,8c,,45.414732,12.367851
Via Orso Partecipazio ,"12",,45.414622,12.368471
Via Orso Partecipazio ,"23",,45.414481,12.369638
Via Orso Partecipazio ,"10",,45.41463,12.368439
Via Orso Partecipazio ,"1",,45.41495,12.366912
Via Orso Partecipazio ,"19",,45.414581,12.36905
Via Orso Partecipazio ,"18",,45.414504,12.369196
Via Orso Partecipazio ,"7",,45.414865,12.367405
Via Orso Partecipazio ,13c,,45.414685,12.368455
Via Orso Partecipazio ,8a,,45.414711,12.367965
Via Orso Partecipazio ,"5",,45.414897,12.367221
Via Orso Partecipazio ,"16",,45.414552,12.368895
Via Orso Partecipazio ,"4",,45.414826,12.367288
Riva di Corinto ,"19",,45.402098,12.359278
Riva di Corinto ,"20",,45.401789,12.359052
Piazzetta Trau' ,1a,,45.40291,12.361163
Piazzetta Trau' ,"1",,45.402873,12.361135
Via Orso Partecipazio ,"20",,45.414482,12.369316
Via Orso Partecipazio ,23a,,45.41451,12.369464
Via Orso Partecipazio ,10a,,45.414634,12.368419
Via Orso Partecipazio ,"24",,45.414429,12.369602
Via Orso Partecipazio ,"3",,45.41491,12.367143
Via Orso Partecipazio ,"9",,45.414826,12.367626
Via Paolo Renier ,"3",,45.402049,12.362187
Via Paolo Renier ,"4",,45.401935,12.362279
Via Paolo Renier ,7a,,45.401776,12.362785
Via Paolo Renier ,1b,,45.402242,12.36178
Via Paolo Renier ,2c,,45.402097,12.361915
Via Paolo Renier ,"1",,45.402195,12.36188
Via Paolo Renier ,1a,,45.402219,12.361829
Via Paolo Renier ,7a,,45.401756,12.362771
Via Paolo Renier ,"7",,45.401756,12.362771
Via Paolo Renier ,2b,,45.402166,12.361758
Via Paolo Renier ,"6",,45.401782,12.362618
Via Paolo Renier ,4a,,45.401872,12.362417
Via Paolo Renier ,"8",,45.401742,12.36276
Via Paolo Renier ,"5",,45.401918,12.362483
Via Paolo Renier ,"2",,45.402131,12.361837
Via Paolo Renier ,2a,,45.402177,12.361732
Ramo Bassanello ,"4",,45.374391,12.338995
Ramo Bassanello ,"22",,45.374002,12.339707
Ramo Bassanello ,"28",,45.373941,12.339943
Ramo Bassanello ,"18",,45.374076,12.339571
Ramo Bassanello ,"16",,45.374115,12.339501
Ramo Bassanello ,"6",,45.374346,12.339077
Ramo Bassanello ,"8",,45.374325,12.339116
Ramo Bassanello ,"12",,45.374212,12.339323
Ramo Bassanello ,"20",,45.374041,12.339635
Ramo Bassanello ,"10",,45.374249,12.339255
Ramo Bassanello ,"26",,45.373898,12.339854
Ramo Bassanello ,"14",,45.37416,12.339418
Ramo Bassanello ,"30",,45.373989,12.340012
Ramo Bassanello ,"24",,45.373911,12.339795
Via Orsmida Rosada ,"26",,45.381913,12.347391
Via Orsmida Rosada ,"66",,45.381321,12.348183
Via Orsmida Rosada ,"50",,45.381306,12.348035
Via Orsmida Rosada ,"24",,45.381862,12.347349
Via Orsmida Rosada ,"44",,45.381504,12.348197
Via Orsmida Rosada ,"20",,45.38177,12.347274
Via Orsmida Rosada ,"38",,45.381659,12.348323
Via Orsmida Rosada ,"64",,45.38124,12.348117
Via Orsmida Rosada ,"42",,45.38154,12.348228
Via Orsmida Rosada ,"52",,45.381273,12.348009
Via Orsmida Rosada ,"2",,45.382186,12.347479
Via Orsmida Rosada ,"36",,45.38215,12.347584
Via Orsmida Rosada ,"18",,45.381817,12.34718
Via Orsmida Rosada ,"62",,45.381207,12.34809
Via Orsmida Rosada ,"70",,45.381442,12.348282
Via Orsmida Rosada ,"4",,45.382148,12.347452
Via Orsmida Rosada ,"40",,45.38163,12.3483
Via Orsmida Rosada ,"68",,45.381339,12.348198
Via Orsmida Rosada ,"14",,45.381904,12.347252
Via Orsmida Rosada ,"22",,45.381821,12.347316
Via Orsmida Rosada ,"30",,45.382006,12.347467
Via Orsmida Rosada ,"12",,45.38195,12.347289
Via Orsmida Rosada ,"28",,45.381961,12.34743
Via Orsmida Rosada ,"48",,45.381389,12.348103
Via Orsmida Rosada ,"6",,45.382096,12.347408
Via Orsmida Rosada ,"8",,45.382044,12.347367
Via Orsmida Rosada ,"56",,45.381124,12.347814
Via Orsmida Rosada ,"10",,45.381995,12.347326
Via Orsmida Rosada ,"58",,45.381088,12.347993
Via Orsmida Rosada ,"32",,45.382067,12.347516
Via Orsmida Rosada ,"54",,45.381195,12.347943
Via Orsmida Rosada ,"46",,45.381411,12.34812
Via Orsmida Rosada ,"34",,45.382105,12.347547
Via Orsmida Rosada ,"72",,45.38146,12.348297
Via Orsmida Rosada ,"74",,45.381551,12.348372
Via Orsmida Rosada ,"16",,45.381859,12.347214
Via Orsmida Rosada ,"60",,45.381121,12.348019
Via Ferdinando Ongania ,"2",,45.396184,12.355218
Via Ferdinando Ongania ,2a,,45.396253,12.354975
Via Orsera ,"4",,45.420055,12.376452
Via Orsera ,"6",,45.42018,12.376592
Via Orsera ,4a,,45.420121,12.376525
Via Orsera ,"5",,45.42016,12.376496
Via Orsera ,"1",,45.419958,12.376276
Via Orsera ,"3",,45.420076,12.376405
Campo della Chiesa ,1a,,45.372616,12.337795
Campo della Chiesa ,"8",,45.372352,12.337955
Campo della Chiesa ,"3",,45.372616,12.337927
Campo della Chiesa ,"1",,45.37246,12.337755
Campo della Chiesa ,"5",,45.372537,12.338115
Campo della Chiesa ,"6",,45.372333,12.338031
Campo della Chiesa ,"10",,45.372341,12.337769
Campo della Chiesa ,"9",,45.372345,12.337848
Campo della Chiesa ,"2",,45.372614,12.337854
Campo della Chiesa ,"4",,45.372566,12.3381
Piazzetta Sant'antonio ,"1",,45.403112,12.361862
Fondamenta de la Madonna ,"5",,45.372986,12.339415
Fondamenta de la Madonna ,"1",,45.373077,12.338096
Fondamenta de la Madonna ,"8",,45.372987,12.339967
Fondamenta de la Madonna ,"7",,45.372992,12.339684
Fondamenta de la Madonna ,5a,,45.373032,12.339554
Fondamenta de la Madonna ,"4",,45.373049,12.339072
Fondamenta de la Madonna ,"6",,45.373033,12.339604
Riva di Corinto ,"9",,45.403365,12.360207
Riva di Corinto ,"7",,45.403578,12.360364
Riva di Corinto ,"8",,45.403449,12.360269
Riva di Corinto ,"14",,45.402794,12.359788
Riva di Corinto ,"16",,45.402654,12.359688
Riva di Corinto ,19a,,45.40195,12.359171
Riva di Corinto ,"15",,45.402711,12.35973
Riva di Corinto ,"13",,45.402856,12.359834
Riva di Corinto ,"18",,45.402208,12.359359
Riva di Corinto ,"17",,45.402464,12.359548
Riva di Corinto ,"11",,45.403171,12.360066
Riva di Corinto ,"10",,45.40321,12.360095
Riva di Corinto ,"5",,45.40442,12.361015
Riva di Corinto ,"12",,45.403051,12.359975
Via Alessandro Paganino ,"93",,45.383453,12.34947
Via Alessandro Paganino ,"41",,45.383467,12.348604
Via Alessandro Paganino ,"61",,45.38354,12.349078
Via Alessandro Paganino ,"1",,45.383628,12.347855
Via Alessandro Paganino ,"83",,45.383192,12.349251
Via Alessandro Paganino ,"13",,45.38387,12.348224
Via Alessandro Paganino ,"21",,45.383828,12.34849
Via Alessandro Paganino ,"39",,45.383411,12.348559
Via Alessandro Paganino ,"35",,45.383506,12.348153
Via Alessandro Paganino ,"47",,45.383622,12.348731
Via Alessandro Paganino ,"55",,45.383627,12.348817
Via Alessandro Paganino ,"5",,45.38386,12.348049
Via Alessandro Paganino ,"65",,45.383526,12.349163
Via Alessandro Paganino ,"9",,45.384108,12.348151
Via Alessandro Paganino ,"75",,45.383307,12.348865
Via Alessandro Paganino ,"25",,45.383792,12.348385
Via Alessandro Paganino ,"15",,45.383837,12.348302
Via Alessandro Paganino ,"45",,45.383567,12.348686
Via Alessandro Paganino ,"23",,45.383803,12.34851
Via Alessandro Paganino ,"31",,45.383635,12.348257
Via Alessandro Paganino ,"71",,45.383406,12.348946
Via Alessandro Paganino ,"73",,45.383367,12.348914
Via Alessandro Paganino ,"81",,45.38314,12.349208
Via Alessandro Paganino ,"85",,45.38324,12.349292
Via Alessandro Paganino ,"49",,45.383707,12.348686
Via Alessandro Paganino ,"7",,45.383976,12.348028
Via Alessandro Paganino ,"33",,45.383574,12.348209
Via Alessandro Paganino ,"59",,45.383552,12.348999
Via Alessandro Paganino ,"69",,45.38346,12.348991
Via Alessandro Paganino ,"51",,45.383733,12.348722
Via Alessandro Paganino ,"37",,45.383358,12.348519
Via Alessandro Paganino ,"19",,45.383825,12.348387
Via Alessandro Paganino ,"17",,45.383897,12.348154
Piazzale Malamocco ,"6",,45.372183,12.337453
Piazzale Malamocco ,"4",,45.372281,12.337616
Piazzale Malamocco ,"9",,45.371548,12.33724
Piazzale Malamocco ,"5",,45.372276,12.337577
Piazzale Malamocco ,"3",,45.372315,12.337647
Piazzale Malamocco ,"11",,45.371294,12.337061
Piazzale Malamocco ,"7",,45.372156,12.337446
Piazzale Malamocco ,5a,,45.372258,12.337494
Piazzale Malamocco ,"1",,45.372889,12.33746
Piazzale Malamocco ,"2",,45.372697,12.337435
Piazzale Malamocco ,9c,,45.371532,12.337239
Piazzale Malamocco ,"10",,45.371505,12.337238
Piazzale Malamocco ,"8",,45.372022,12.337454
Via Malamocco ,74a,,45.382308,12.34571
Via Malamocco ,"92",,45.376167,12.340294
Via Malamocco ,"94",,45.37566,12.339716
Via Malamocco ,97n,,45.376231,12.342642
Via Malamocco ,97a,,45.374756,12.340562
Via Malamocco ,97e,,45.37494,12.341608
Via Malamocco ,"96",,45.37546,12.339582
Via Malamocco ,"61",,45.381511,12.34525
Via Malamocco ,97c,,45.374975,12.341006
Via Malamocco ,"81",,45.378892,12.343092
Via Malamocco ,97f,,45.374945,12.341602
Via Malamocco ,"97",,45.374669,12.34041
Via Malamocco ,"90",,45.37644,12.340569
Via Malamocco ,97b,,45.374844,12.340721
Via Malamocco ,"103",,45.374116,12.338447
Via Malamocco ,"88",,45.376801,12.340923
Via Malamocco ,"86",,45.37745,12.341475
Via Malamocco ,97d,,45.375066,12.341115
Via Malamocco ,"99",,45.374332,12.338664
Via Malamocco ,101a,,45.37425,12.338582
Via Malamocco ,97g,,45.375424,12.341495
Via Malamocco ,"76",,45.381462,12.345019
Via Malamocco ,74c,,45.38168,12.3452
Via Malamocco ,"95",,45.376368,12.34069
Via Malamocco ,95a,,45.374559,12.340208
Via Malamocco ,"84",,45.378288,12.34226
Via Malamocco ,84a,,45.377907,12.341921
Via Malamocco ,"85",,45.377044,12.34136
Via Malamocco ,97m,,45.376278,12.342242
Calle Braura ,"4",,45.371412,12.338518
Via Alessandro Paganino ,"11",,45.383945,12.348093
Via Alessandro Paganino ,"87",,45.383294,12.349337
Via Alessandro Paganino ,"91",,45.383406,12.34943
Via Alessandro Paganino ,"67",,45.383512,12.349033
Via Alessandro Paganino ,"53",,45.383677,12.34875
Via Alessandro Paganino ,"79",,45.383102,12.349178
Via Alessandro Paganino ,"43",,45.383515,12.348644
Via Alessandro Paganino ,"3",,45.383756,12.347962
Via Alessandro Paganino ,"57",,45.383595,12.348893
Via Alessandro Paganino ,"29",,45.383689,12.348301
Via Alessandro Paganino ,"89",,45.383349,12.349383
Via Alessandro Paganino ,"63",,45.383563,12.349142
Via Alessandro Paganino ,"27",,45.383737,12.348341
Via Alessandro Paganino ,"77",,45.383246,12.348868
Via Malamocco ,97l,,45.376004,12.341994
Via Malamocco ,"83",,45.377715,12.34203
Via Malamocco ,"101",,45.374283,12.338615
Via Malamocco ,97h,,45.375361,12.341459
Calle Braura ,"3",,45.37154,12.338497
Calle Braura ,"1",,45.371579,12.338488
Calle Braura ,"5",,45.371506,12.338504
Calle Braura ,"7",,45.371471,12.338511
Corte Bravara ,"4",,45.371368,12.338109
Corte Bravara ,"2",,45.371357,12.338166
Corte Bravara ,4c,,45.371397,12.338104
Corte Bravara ,"5",,45.371463,12.338092
Corte Bravara ,"6",,45.371471,12.338163
Piazzale Bucintoro ,"1",,45.414674,12.376516
Via Delle Sirene ,"11",,45.400217,12.36201
Via Delle Sirene ,"9",,45.400217,12.36201
Via Delle Sirene ,"7",,45.400212,12.362021
Via Delle Sirene ,"11",,45.400223,12.362005
Via Delle Sirene ,"13",,45.400223,12.362005
Via Delle Sirene ,"1",,45.400095,12.362384
Via Delle Sirene ,"15",,45.400236,12.362016
Via Delle Sirene ,"4",,45.40023,12.362114
Via Delle Sirene ,"11",,45.400219,12.362006
Via Delle Sirene ,"9",,45.400219,12.362006
Via Delle Sirene ,"13",,45.400219,12.362006
Via Delle Sirene ,"5",,45.400101,12.362373
Via Delle Sirene ,"3",,45.400101,12.362373
Via Delle Sirene ,"2",,45.400149,12.362337
Via Delle Sirene ,"5",,45.400103,12.362369
Via Delle Sirene ,"3",,45.400103,12.362369
Via Doge Maurizio Galbaio ,7c,,45.367031,12.336694
Via Doge Maurizio Galbaio ,"8",,45.366986,12.336828
Via Doge Maurizio Galbaio ,"6",,45.366983,12.336654
Via Doge Domenico Monegario ,"7",,45.367751,12.337761
Via Mario Tiso ,"3",,45.37911,12.342334
Via Mario Tiso ,"7",,45.379208,12.342105
Via Mario Tiso ,"1",,45.379048,12.342483
Via Mario Tiso ,"11",,45.379317,12.341841
Via Mario Tiso ,"9",,45.379235,12.342037
Via Mario Tiso ,"5",,45.379163,12.34221
Calle del Forno ,"2",,45.372238,12.339119
Calle del Forno ,"1",,45.372368,12.339132
"Calle del Forno, ","3",,45.372283,12.339179
Via Cristoforo Colombo ,5a,,45.397878,12.36003
Via Cristoforo Colombo ,"6",,45.397986,12.359953
Via Cristoforo Colombo ,1b,,45.39775,12.360354
Via Cristoforo Colombo ,22b,,45.398759,12.358028
Via Cristoforo Colombo ,"1",,45.39771,12.360456
Via Cristoforo Colombo ,20b,,45.398667,12.358241
Via Cristoforo Colombo ,"37",,45.39822,12.359139
Via Cristoforo Colombo ,20g,,45.39859,12.358476
Via Cristoforo Colombo ,20a,,45.398698,12.358201
Via Cristoforo Colombo ,1a,,45.397761,12.360326
Via Cristoforo Colombo ,8b,,45.39804,12.359813
Via Cristoforo Colombo ,"4",,45.397783,12.360478
Via Cristoforo Colombo ,1e,,45.397567,12.360825
Via Cristoforo Colombo ,"20",,45.398645,12.358336
Via Cristoforo Colombo ,"41",,45.398738,12.357718
Via Cristoforo Colombo ,8a,,45.398052,12.359782
Via Cristoforo Colombo ,1d,,45.397595,12.360751
Via Cristoforo Colombo ,22a,,45.398741,12.358078
Via Cristoforo Colombo ,"3",,45.397775,12.360291
Via Cristoforo Colombo ,"5",,45.397842,12.360122
Via Cristoforo Colombo ,4a,,45.397926,12.360108
Via Cristoforo Colombo ,"8",,45.398091,12.359683
Via Cristoforo Colombo ,1c,,45.397645,12.360621
Via Doge Domenico Monegario ,"9",,45.367621,12.337789
Via Doge Domenico Monegario ,"1",,45.368435,12.337625
Via Doge Domenico Monegario ,"2",,45.368464,12.337697
Strada della Droma ,"130",,45.340038,12.310062
Strada della Droma ,"95",,45.346019,12.313113
Strada della Droma ,"53",,45.346986,12.317943
Strada della Droma ,44a,,45.348057,12.319777
Strada della Droma ,"83",,45.346827,12.315191
Strada della Droma ,"128",,45.339836,12.31035
Strada della Droma ,61a,,45.346779,12.317396
Strada della Droma ,61b,,45.346779,12.317396
Strada della Droma ,61c,,45.346779,12.317396
Strada della Droma ,85a,,45.346905,12.314505
Strada della Droma ,"51",,45.346992,12.317958
Strada della Droma ,"109",,45.344343,12.310169
Via Antonio Canal ,"3",,45.412309,12.366446
Via Antonio Canal ,"2",,45.412238,12.366775
Via Antonio Canal ,"1",,45.412224,12.366842
Via Antonio Canal ,"4",,45.412408,12.366035
Via Antonio Canal ,"5",,45.41244,12.365895
Strada della Droma ,61m,,45.346761,12.317356
Strada della Droma ,"81",,45.346715,12.315497
Strada della Droma ,"82",,45.346828,12.315311
Strada della Droma ,"9",,45.350127,12.325565
Strada della Droma ,"102",,45.341037,12.30938
Strada della Droma ,"106",,45.34054,12.309491
Strada della Droma ,"122",,45.33944,12.310657
Strada della Droma ,76a,,45.346686,12.31569
Strada della Droma ,"76",,45.346686,12.31569
Strada della Droma ,"80",,45.346692,12.31567
Strada della Droma ,"47",,45.347371,12.318781
Strada della Droma ,"110",,45.339916,12.309946
Strada della Droma ,"44",,45.348065,12.319792
Strada della Droma ,78a,,45.346688,12.315684
Strada della Droma ,"78",,45.346688,12.315684
Strada della Droma ,"85",,45.346892,12.315026
Strada della Droma ,"7",,45.350147,12.325575
Strada della Droma ,"49",,45.347353,12.318751
Strada della Droma ,"10",,45.350134,12.325568
Strada della Droma ,61f,,45.346767,12.317369
Strada della Droma ,"103",,45.344754,12.3105
Strada della Droma ,61b,,45.346777,12.317392
Strada della Droma ,61c,,45.346777,12.317392
Strada della Droma ,"90",,45.347665,12.315524
Strada della Droma ,"37",,45.349047,12.321932
Strada della Droma ,"118",,45.339432,12.310649
Strada della Droma ,"112",,45.339432,12.310649
Strada della Droma ,"96",,45.346289,12.31346
Strada della Droma ,"91",,45.346255,12.313527
Strada della Droma ,59a,,45.346851,12.31758
Strada della Droma ,"121",,45.34309,12.309476
Strada della Droma ,"35",,45.34911,12.322094
Strada della Droma ,"104",,45.34077,12.309449
Strada della Droma ,"61",,45.346803,12.317454
Strada della Droma ,61d,,45.34686,12.317625
Strada della Droma ,"13",,45.349965,12.325042
Strada della Droma ,"74",,45.34671,12.316215
Strada della Droma ,"113",,45.344163,12.310047
Strada della Droma ,"39",,45.348928,12.321584
Strada della Droma ,"21",,45.34972,12.323961
Strada della Droma ,"94",,45.346401,12.313664
Strada della Droma ,"55",,45.346979,12.317924
Strada della Droma ,"87",,45.346857,12.314384
Strada della Droma ,"111",,45.344326,12.310157
Strada della Droma ,"15",,45.34994,12.324935
Strada della Droma ,61a,,45.346781,12.3174
Strada della Droma ,61b,,45.346781,12.3174
Strada della Droma ,"105",,45.344678,12.310445
Strada della Droma ,"99",,45.345067,12.310744
Strada della Droma ,"57",,45.346975,12.317914
Strada della Droma ,83a,,45.346855,12.31512
Strada della Droma ,"56",,45.347158,12.318136
Strada della Droma ,"114",,45.339428,12.310644
Strada della Droma ,"116",,45.339428,12.310644
Strada della Droma ,"52",,45.347402,12.318632
Strada della Droma ,"118",,45.339435,12.310652
Strada della Droma ,"112",,45.339435,12.310652
Strada della Droma ,88a,,45.347644,12.315484
Strada della Droma ,"40",,45.348891,12.321381
Strada della Droma ,"114",,45.339425,12.310641
Strada della Droma ,"116",,45.339425,12.310641
Via Delle Ville ,"4",,45.348394,12.322008
Via Delle Ville ,"5",,45.348478,12.322316
Via Delle Ville ,"2",,45.348707,12.32267
Via Delle Ville ,1n,,45.348617,12.322599
Via Delle Ville ,1e,,45.348642,12.322632
Via Delle Ville ,"3",,45.34857,12.322521
Via Delle Ville ,1f,,45.348637,12.322624
Via Delle Ville ,1r,,45.348611,12.322595
Via dei Villini ,"15",,45.348692,12.318306
Via dei Villini ,"9",,45.348618,12.318675
Via dei Villini ,"6",,45.348733,12.318335
Via dei Villini ,"4",,45.348673,12.318631
Via Delle Meduse ,"4",,45.399432,12.361872
Via Delle Meduse ,"10",,45.399587,12.361376
Via Delle Meduse ,4a,,45.399462,12.361773
Via Delle Meduse ,"7",,45.399564,12.361359
Via Delle Meduse ,3b,,45.399448,12.361656
Via Delle Meduse ,2a,,45.399368,12.362066
Via Delle Meduse ,1c,,45.39933,12.362026
Via Delle Meduse ,2b,,45.399395,12.361981
Via Delle Meduse ,"5",,45.399515,12.361441
Via Delle Meduse ,1e,,45.399364,12.361912
Via Delle Meduse ,"8",,45.399523,12.361577
Via Delle Meduse ,"1",,45.39931,12.362088
Via Zante ,12b,,45.40242,12.359841
Via Zante ,10a,,45.40284,12.360024
Via Zante ,"5",,45.403045,12.360293
Via Zante ,"11",,45.402527,12.360065
Via Zante ,12a,,45.40253,12.359926
Via Zante ,"13",,45.40252,12.360061
Via Zante ,"7",,45.402909,12.360193
Via Zante ,"3",,45.403514,12.360694
Via Zante ,"18",,45.402268,12.360003
Via Zante ,"4",,45.40344,12.360564
Via Zante ,"14",,45.40237,12.359877
Via Zante ,"12",,45.402772,12.360104
Via Zante ,"9",,45.402727,12.360272
Via Zante ,"2",,45.403514,12.36062
Via Zante ,"6",,45.403373,12.360514
Via Zante ,"10",,45.403018,12.360215
Riva Gio E Vindelino Da Spira ,"9",,45.39444,12.353251
Riva Gio E Vindelino Da Spira ,"1",,45.395933,12.354454
Riva Gio E Vindelino Da Spira ,1a,,45.395842,12.354381
Riva Gio E Vindelino Da Spira ,"5",,45.39492,12.353639
Riva Gio E Vindelino Da Spira ,"4",,45.395058,12.35375
Riva Gio E Vindelino Da Spira ,"21",,45.392014,12.351295
Riva Gio E Vindelino Da Spira ,2b,,45.39526,12.353912
Riva Gio E Vindelino Da Spira ,1b,,45.39566,12.354235
Riva Gio E Vindelino Da Spira ,"13",,45.39368,12.35264
Riva Gio E Vindelino Da Spira ,"15",,45.393315,12.352344
Riva Gio E Vindelino Da Spira ,4a,,45.395017,12.353717
Riva Gio E Vindelino Da Spira ,"20",,45.392178,12.351428
Riva Gio E Vindelino Da Spira ,"17",,45.393001,12.35209
Riva Gio E Vindelino Da Spira ,"11",,45.394252,12.3531
Riva Gio E Vindelino Da Spira ,"7",,45.394735,12.35349
Riva Gio E Vindelino Da Spira ,"8",,45.39466,12.353429
Riva Gio E Vindelino Da Spira ,"19",,45.392298,12.351526
Riva Gio E Vindelino Da Spira ,"16",,45.393112,12.352179
Riva Gio E Vindelino Da Spira ,"3",,45.395136,12.353812
Riva Gio E Vindelino Da Spira ,"6",,45.394834,12.35357
Riva Gio E Vindelino Da Spira ,"12",,45.394005,12.3529
Rivagio E Vindelino Da Spira ,"18",,45.392726,12.351869
Riva Gio E Vindelino Da Spira ,2c,,45.395217,12.353878
Riva Gio E Vindelino Da Spira ,"14",,45.393634,12.352602
Via Jacopo de Cavalli ,10b,,45.412101,12.370482
Via Jacopo de Cavalli ,4a,,45.412269,12.369695
Via Jacopo de Cavalli ,"7",,45.412205,12.370217
Via Jacopo de Cavalli ,17b,,45.412135,12.370575
Via Jacopo de Cavalli ,17a,,45.412123,12.370635
Via Jacopo de Cavalli ,4b,,45.412241,12.369818
Via degli Antonelli ,"1",,45.392283,12.353135
Via degli Antonelli ,"6",,45.39242,12.352873
Via degli Antonelli ,"2",,45.392217,12.353385
Via degli Antonelli ,6a,,45.392382,12.352969
Via degli Antonelli ,"4",,45.3923,12.353173
Via Anita Mezzalira ,"4",,45.380099,12.342728
Via Anita Mezzalira ,"8",,45.380099,12.342321
Via Anita Mezzalira ,"6",,45.380148,12.342364
Via Anita Mezzalira ,"10",,45.379757,12.342037
Strada della Droma ,88bis,,45.347509,12.315203
Strada della Droma ,"72",,45.346837,12.317295
Strada della Droma ,"97",,45.345862,12.312706
Strada della Droma ,44b,,45.348035,12.319737
Strada della Droma ,61e,,45.346771,12.317377
Strada della Droma ,"101",,45.344951,12.310656
Strada della Droma ,61i,,45.346764,12.317362
Strada della Droma ,13a,,45.349894,12.324741
Strada della Droma ,"84",,45.347195,12.314731
Strada della Droma ,"100",,45.341136,12.309352
Strada della Droma ,78a,,45.346689,12.315679
Strada della Droma ,"78",,45.346689,12.315679
Strada della Droma ,"77",,45.346677,12.317064
Strada della Droma ,"88",,45.347402,12.314989
Strada della Droma ,"119",,45.343732,12.309759
Strada della Droma ,"93",,45.346142,12.313322
Strada della Droma ,"59",,45.346856,12.317607
"Strada della Droma, ",49m,,45.347182,12.318438
Strada della Droma ,"92",,45.346589,12.313974
Strada della Droma ,"126",,45.339576,12.310513
Strada della Droma ,"46",,45.347962,12.319607
Strada della Droma ,"115",,45.344168,12.31005
Strada della Droma ,"124",,45.339443,12.310661
Strada della Droma ,"107",,45.344507,12.310293
Strada della Droma ,74f,,45.346692,12.316042
Via dei Villini ,"8",,45.348852,12.318072
Via dei Villini ,"11",,45.348627,12.318605
Via dei Villini ,"13",,45.348641,12.318513
Via dei Villini ,"21",,45.348785,12.318044
Via dei Villini ,"3",,45.348607,12.319058
Via dei Villini ,"17",,45.348688,12.318171
Via Delle Meduse ,"3",,45.39937,12.361894
Via Delle Meduse ,1d,,45.399363,12.361958
Via Delle Meduse ,"2",,45.399348,12.362127
Via Delle Meduse ,"6",,45.399486,12.361696
Via Delle Meduse ,3a,,45.399367,12.361904
Via Delle Meduse ,1a,,45.399342,12.361986
Calle de la Scoeta ,"1",,45.371784,12.338612
Calle de la Scoeta ,"3",,45.371789,12.338562
Via Giannantonio Selva ,"9",,45.424843,12.381369
Via Giannantonio Selva ,"5",,45.424922,12.381133
Via Jacopo de Cavalli ,"20",,45.411558,12.371253
Via Jacopo de Cavalli ,23a,,45.41167,12.370844
Via Jacopo de Cavalli ,"16",,45.411645,12.370784
Via Jacopo de Cavalli ,"9",,45.412186,12.370314
Via Jacopo de Cavalli ,2b,,45.412296,12.369575
Via Jacopo de Cavalli ,"21",,45.412068,12.370822
Via Jacopo de Cavalli ,"19",,45.41209,12.370804
Via Jacopo de Cavalli ,"15",,45.412136,12.370566
Via Jacopo de Cavalli ,"6",,45.412206,12.369966
Via Jacopo de Cavalli ,"5",,45.412237,12.370056
Via Jacopo de Cavalli ,1a,,45.412295,12.369789
Via Jacopo de Cavalli ,11a,,45.412169,12.370401
Via Jacopo de Cavalli ,10a,,45.412103,12.370472
Via Jacopo de Cavalli ,"23",,45.411808,12.370738
Via Jacopo de Cavalli ,"8",,45.412186,12.370055
Via Jacopo de Cavalli ,"14",,45.411838,12.370677
Via Jacopo de Cavalli ,2a,,45.412319,12.369479
Via Jacopo de Cavalli ,"1",,45.412344,12.369581
Via Jacopo de Cavalli ,"18",,45.411576,12.371085
Via Jacopo de Cavalli ,"2",,45.412342,12.369385
Via Jacopo de Cavalli ,"17",,45.412094,12.370783
Via Jacopo de Cavalli ,"10",,45.412137,12.370301
Via Jacopo de Cavalli ,5a,,45.412259,12.369945
Via Jacopo de Cavalli ,"12",,45.412057,12.370712
Via Jacopo de Cavalli ,"25",,45.411615,12.371102
Via Marcantonio Bragadin ,6f,,45.412807,12.368767
Via Marcantonio Bragadin ,6e,,45.412807,12.368767
Via Marcantonio Bragadin ,6d,,45.412807,12.368767
Via Marcantonio Bragadin ,"6",,45.412829,12.368603
Via Marcantonio Bragadin ,4b,,45.412944,12.368261
Via Marcantonio Bragadin ,3b,,45.412878,12.368799
Via Marcantonio Bragadin ,3a,,45.412891,12.368661
Via Marcantonio Bragadin ,"14",,45.412757,12.370649
Via Marcantonio Bragadin ,"22",,45.412658,12.371206
Via Marcantonio Bragadin ,"3",,45.412893,12.368636
Via Marcantonio Bragadin ,11a,,45.412701,12.371253
Via Marcantonio Bragadin ,4e,,45.412853,12.368488
Via Marcantonio Bragadin ,1i,,45.41344,12.367736
Via Marcantonio Bragadin ,18a,,45.412727,12.370819
Via Marcantonio Bragadin ,16b,,45.412727,12.370819
Via Marcantonio Bragadin ,"34",,45.411935,12.372454
Via Marcantonio Bragadin ,5a,,45.412852,12.369414
Via Marcantonio Bragadin ,"8",,45.4128,12.369026
Via Marcantonio Bragadin ,"9",,45.412768,12.370868
Via Marcantonio Bragadin ,"18",,45.41271,12.370912
Via Marcantonio Bragadin ,12a,,45.412782,12.370504
Via Marcantonio Bragadin ,"12",,45.412811,12.370344
Via Marcantonio Bragadin ,1m,,45.41336,12.367824
Via Marcantonio Bragadin ,2c,,45.413264,12.367823
Via Marcantonio Bragadin ,2h,,45.413106,12.368023
Via Marcantonio Bragadin ,12c,,45.412832,12.370227
Via Marcantonio Bragadin ,"26",,45.412592,12.371583
Via Marcantonio Bragadin ,26c,,45.412423,12.372211
Via Marcantonio Bragadin ,"2",,45.413177,12.367935
Via Marcantonio Bragadin ,"4",,45.413006,12.36816
Via Marcantonio Bragadin ,"32",,45.412069,12.372361
Via Marcantonio Bragadin ,18a,,45.412728,12.370811
Via Marcantonio Bragadin ,16a,,45.412728,12.370811
Via Marcantonio Bragadin ,6e,,45.412807,12.368762
Via Marcantonio Bragadin ,6d,,45.412807,12.368762
Via Marcantonio Bragadin ,"36",,45.411894,12.372493
Via Marcantonio Bragadin ,4c,,45.412927,12.368288
Via Marcantonio Bragadin ,24b,,45.412632,12.371356
Via Marcantonio Bragadin ,"5",,45.412863,12.36904
Via Marcantonio Bragadin ,1e,,45.412908,12.368552
Via Marcantonio Bragadin ,14a,,45.412738,12.370754
Via Marcantonio Bragadin ,"38",,45.411642,12.372964
Via Marcantonio Bragadin ,24a,,45.412631,12.371365
Via Marcantonio Bragadin ,1d,,45.412932,12.368465
Via Marcantonio Bragadin ,2e,,45.413213,12.36789
Via Marcantonio Bragadin ,"28",,45.412559,12.37177
Via Modone E Corone ,"5",,45.407458,12.364695
Via Modone E Corone ,"3",,45.407615,12.364778
Via Modone E Corone ,"11",,45.406543,12.364223
Via Modone E Corone ,4a,,45.407367,12.364548
Via Modone E Corone ,"7",,45.407259,12.364589
Via Modone E Corone ,"8",,45.406808,12.364261
Via Modone E Corone ,"9",,45.406789,12.364348
Via Modone E Corone ,"4",,45.407289,12.364507
Via Modone E Corone ,"6",,45.407123,12.364421
Via Modone E Corone ,"1",,45.407816,12.364936
Via Marcantonio Bragadin ,9a,,45.412745,12.370998
Via Marcantonio Bragadin ,2b,,45.413291,12.367789
Via Marcantonio Bragadin ,4d,,45.412881,12.368397
Via Marcantonio Bragadin ,18a,,45.412727,12.370815
Via Marcantonio Bragadin ,16b,,45.412727,12.370815
Via Marcantonio Bragadin ,16a,,45.412727,12.370815
Via Marcantonio Bragadin ,6c,,45.412807,12.368753
Via Marcantonio Bragadin ,2a,,45.413314,12.367759
Via Marcantonio Bragadin ,"13",,45.412625,12.37168
Via Marcantonio Bragadin ,1b,,45.412964,12.368379
Via Marcantonio Bragadin ,1l,,45.413238,12.367976
Via Marcantonio Bragadin ,"10",,45.412788,12.369374
Via Marcantonio Bragadin ,6a,,45.412806,12.368744
Via Marcantonio Bragadin ,12b,,45.412773,12.370559
Via Marcantonio Bragadin ,1a,,45.413166,12.36807
Via Marcantonio Bragadin ,12l,,45.412869,12.37002
Via Marcantonio Bragadin ,2d,,45.41324,12.367855
Via Marcantonio Bragadin ,"30",,45.412213,12.372296
Via Marcantonio Bragadin ,6b,,45.412808,12.368839
Via Marcantonio Bragadin ,6f,,45.412808,12.368773
Via Marcantonio Bragadin ,6e,,45.412808,12.368773
Via Marcantonio Bragadin ,"16",,45.41273,12.370802
Via Marcantonio Bragadin ,1c,,45.412946,12.368429
Via Renato Morandi ,"9",,45.426472,12.381325
Calle de la Bissa ,"1",,45.371588,12.338671
Campo Nicoli ,"6",,45.371695,12.338692
Campo Nicoli ,"2",,45.371704,12.338849
Campo Nicoli ,"1",,45.37182,12.338808
Campo Nicoli ,"4",,45.371648,12.338665
Via Giusto Fuga ,12a,,45.392659,12.355693
Via Giusto Fuga ,"5",,45.392828,12.355793
Via Giusto Fuga ,"2",,45.393168,12.35506
Via Giusto Fuga ,"14",,45.392598,12.355901
Via Giusto Fuga ,"12",,45.392741,12.355482
Via Giusto Fuga ,"7",,45.392682,12.356175
Via Giusto Fuga ,"3",,45.393278,12.355219
Via Giusto Fuga ,"10",,45.392781,12.35538
Via Giusto Fuga ,"8",,45.39285,12.355196
Via Giusto Fuga ,"4",,45.393153,12.355169
Gran Viale Santa Maria Elisabetta ,65d,,45.415334,12.374516
Gran Viale Santa Maria Elisabetta ,"36",,45.415533,12.372974
Gran Viale Santa Maria Elisabetta ,57b,,45.41595,12.372584
Gran Viale Santa Maria Elisabetta ,"23",,45.416864,12.369548
Gran Viale Santa Maria Elisabetta ,"43",,45.416483,12.370876
Gran Viale Santa Maria Elisabetta ,"12",,45.416446,12.369984
Gran Viale Santa Maria Elisabetta ,"2",,45.416858,12.368504
Gran Viale Santa Maria Elisabetta ,"18",,45.416191,12.370699
Gran Viale Santa Maria Elisabetta ,"33",,45.416756,12.369898
Gran Viale Santa Maria Elisabetta ,47g,,45.416265,12.371477
Gran Viale Santa Maria Elisabetta ,"59",,45.415819,12.373008
Gran Viale Santa Maria Elisabetta ,"34",,45.415676,12.372544
Gran Viale Santa Maria Elisabetta ,63b,,45.415398,12.374293
Gran Viale Santa Maria Elisabetta ,"25",,45.416833,12.369647
Gran Viale Santa Maria Elisabetta ,51d,,45.41607,12.372191
Gran Viale Santa Maria Elisabetta ,10c,,45.416523,12.369825
Gran Viale Santa Maria Elisabetta ,"45",,45.416469,12.370923
Via Sandro Gallo ,61b,,45.41068,12.36664
Via Sandro Gallo ,57b,,45.410972,12.36677
Via Sandro Gallo ,"57",,45.410956,12.366764
Via Sandro Gallo ,"34",,45.412974,12.367224
Via Sandro Gallo ,32b,,45.413055,12.367255
Via Sandro Gallo ,57d,,45.4109,12.366731
Via Sandro Gallo ,"125",,45.405468,12.364152
Via Sandro Gallo ,61d,,45.410627,12.366619
Via Sandro Gallo ,173a,,45.398223,12.358585
Via Sandro Gallo ,"40",,45.412476,12.367072
Via Sandro Gallo ,"59",,45.41079,12.366699
Via Sandro Gallo ,61c,,45.410661,12.366633
Via Francesco Pezzana ,"3",,45.391358,12.352212
Via Francesco Pezzana ,"9",,45.391532,12.351133
Ramo Merceria ,"2",,45.372522,12.338666
Ramo Merceria ,"1",,45.372526,12.338605
Ramo Merceria ,"3",,45.37252,12.338692
Gran Viale Santa Maria Elisabetta ,2f,,45.416811,12.368692
Gran Viale Santa Maria Elisabetta ,41e,,45.416602,12.370474
Gran Viale Santa Maria Elisabetta ,47c,,45.416317,12.371333
Gran Viale Santa Maria Elisabetta ,"30",,45.415746,12.372306
Gran Viale Santa Maria Elisabetta ,"20",,45.41617,12.370767
Gran Viale Santa Maria Elisabetta ,"6",,45.416676,12.369218
Gran Viale Santa Maria Elisabetta ,"38",,45.41525,12.373972
Gran Viale Santa Maria Elisabetta ,"29",,45.416805,12.369738
Gran Viale Santa Maria Elisabetta ,10d,,45.416504,12.36989
Gran Viale Santa Maria Elisabetta ,49a,,45.41625,12.371559
Gran Viale Santa Maria Elisabetta ,"21",,45.416913,12.369388
Gran Viale Santa Maria Elisabetta ,41f,,45.416567,12.370587
Gran Viale Santa Maria Elisabetta ,"61",,45.415555,12.373859
Gran Viale Santa Maria Elisabetta ,49h,,45.416171,12.371852
Gran Viale Santa Maria Elisabetta ,"32",,45.415728,12.372367
Gran Viale Santa Maria Elisabetta ,"37",,45.416684,12.370201
Gran Viale Santa Maria Elisabetta ,65c,,45.415358,12.37447
Gran Viale Santa Maria Elisabetta ,"53",,45.416039,12.372314
Gran Viale Santa Maria Elisabetta ,"41",,45.416604,12.370466
Via Sandro Gallo ,57c,,45.410921,12.366739
Via Sandro Gallo ,84g,,45.406028,12.364207
Calle de la Bissa ,"8",,45.37131,12.338678
Calle de la Bissa ,"4",,45.371425,12.338722
Calle de la Bissa ,"2",,45.371417,12.338629
Calle de la Bissa ,"9",,45.371219,12.338668
Calle de la Bissa ,"5",,45.371391,12.338737
Calle de la Bissa ,1a,,45.371531,12.338685
Calle de la Bissa ,"6",,45.371325,12.338747
Gran Viale Santa Maria Elisabetta ,"49",,45.416254,12.371547
Gran Viale Santa Maria Elisabetta ,2e,,45.416825,12.368621
Gran Viale Santa Maria Elisabetta ,"8",,45.416547,12.369591
Gran Viale Santa Maria Elisabetta ,61b,,45.415529,12.373931
Gran Viale Santa Maria Elisabetta ,57a,,45.415963,12.372537
Gran Viale Santa Maria Elisabetta ,21b,,45.41691,12.369407
Gran Viale Santa Maria Elisabetta ,61e,,45.415481,12.37412
Gran Viale Santa Maria Elisabetta ,49c,,45.416211,12.371687
Gran Viale Santa Maria Elisabetta ,49b,,45.416248,12.371568
Gran Viale Santa Maria Elisabetta ,"10",,45.416528,12.369653
Gran Viale Santa Maria Elisabetta ,21c,,45.416908,12.369415
Gran Viale Santa Maria Elisabetta ,65b,,45.415368,12.37444
Gran Viale Santa Maria Elisabetta ,"24",,45.416153,12.370951
Gran Viale Santa Maria Elisabetta ,8a,,45.41658,12.369534
Gran Viale Santa Maria Elisabetta ,"27",,45.41682,12.369691
Via Isola di Lemno ,"12",,45.411305,12.365021
Via Isola di Lemno ,4a,,45.412086,12.365401
Via Isola di Lemno ,"5",,45.411806,12.365351
Via Isola di Lemno ,"8",,45.411688,12.365205
Via Isola di Lemno ,4b,,45.412017,12.365367
Via Isola di Lemno ,3a,,45.411862,12.36538
Via Isola di Lemno ,"2",,45.412479,12.365595
Via Isola di Lemno ,"9",,45.411415,12.365157
Via Isola di Lemno ,"3",,45.411907,12.365403
Via Isola di Lemno ,"11",,45.411246,12.365074
Via Isola di Lemno ,"1",,45.412124,12.36551
Via Isola di Lemno ,"7",,45.411623,12.365261
Via Isola di Lemno ,"4",,45.412206,12.36546
Via Isola di Lemno ,7a,,45.411568,12.365233
Via Isola di Lemno ,"6",,45.411931,12.365324
Via Isola di Lemno ,"10",,45.41146,12.365096
Via Isola di Lemno ,9a,,45.41151,12.365204
Gran Viale Santa Maria Elisabetta ,2h,,45.416714,12.368809
Gran Viale Santa Maria Elisabetta ,57c,,45.415928,12.372659
Gran Viale Santa Maria Elisabetta ,"51",,45.416131,12.371997
Gran Viale Santa Maria Elisabetta ,49i,,45.416151,12.371922
Gran Viale Santa Maria Elisabetta ,"63",,45.415477,12.374134
Gran Viale Santa Maria Elisabetta ,42a,,45.415129,12.374382
Gran Viale Santa Maria Elisabetta ,47i,,45.416261,12.371526
Gran Viale Santa Maria Elisabetta ,65a,,45.415372,12.3744
Gran Viale Santa Maria Elisabetta ,61a,,45.415537,12.373903
Gran Viale Santa Maria Elisabetta ,2g,,45.416789,12.36879
Gran Viale Santa Maria Elisabetta ,28d,,45.415802,12.372123
Gran Viale Santa Maria Elisabetta ,"42",,45.415138,12.37435
Gran Viale Santa Maria Elisabetta ,"22",,45.416161,12.370797
Gran Viale Santa Maria Elisabetta ,55a,,45.415991,12.372396
Gran Viale Santa Maria Elisabetta ,21a,,45.416912,12.369398
Gran Viale Santa Maria Elisabetta ,28c,,45.415811,12.372093
Gran Viale Santa Maria Elisabetta ,"4",,45.416722,12.369028
Gran Viale Santa Maria Elisabetta ,47a,,45.416371,12.37119
Gran Viale Santa Maria Elisabetta ,53a,,45.416047,12.372288
Gran Viale Santa Maria Elisabetta ,"55",,45.416033,12.372333
Gran Viale Santa Maria Elisabetta ,"65",,45.415385,12.374351
Gran Viale Santa Maria Elisabetta ,10b,,45.416536,12.369782
Gran Viale Santa Maria Elisabetta ,47h,,45.416264,12.371512
Gran Viale Santa Maria Elisabetta ,28b,,45.415825,12.372044
Gran Viale Santa Maria Elisabetta ,"31",,45.41678,12.369818
Gran Viale Santa Maria Elisabetta ,63a,,45.415438,12.37418
Gran Viale Santa Maria Elisabetta ,51a,,45.41611,12.372062
Gran Viale Santa Maria Elisabetta ,23a,,45.41685,12.369594
Gran Viale Santa Maria Elisabetta ,32b,,45.415694,12.372484
Gran Viale Santa Maria Elisabetta ,47b,,45.416333,12.371281
Gran Viale Santa Maria Elisabetta ,"35",,45.416729,12.369985
Gran Viale Santa Maria Elisabetta ,"57",,45.415985,12.372475
Via Malamocco ,"77",,45.379597,12.343755
Piazza Maggiore ,1a,,45.372216,12.338137
Piazza Maggiore ,"1",,45.372237,12.338131
Piazza Maggiore ,"6",,45.372234,12.338388
Strada Vicinale Malamocco Alberoni ,"12",,45.396366,12.360013
Strada Vicinale Malamocco Alberoni ,"35",,45.361558,12.335372
Strada Vicinale Malamocco Alberoni ,"3",,45.397208,12.360624
Strada Vicinale Malamocco Alberoni ,6d,,45.397053,12.360489
Strada Vicinale Malamocco Alberoni ,"20",,45.362623,12.336217
Strada Vicinale Malamocco Alberoni ,"9",,45.396941,12.360392
Strada Vicinale Malamocco Alberoni ,"1",,45.397276,12.360676
Strada Vicinale Malamocco Alberoni ,"4",,45.397101,12.360543
Strada Vicinale Malamocco Alberoni ,"8",,45.396966,12.360411
Strada Vicinale Malamocco Alberoni ,"7",,45.397007,12.360443
Strada Vicinale Malamocco Alberoni ,7a,,45.396983,12.360424
Strada Vicinale Malamocco Alberoni ,"5",,45.397094,12.360538
Strada Vicinale Malamocco Alberoni ,"6",,45.397075,12.360521
Strada Vicinale Malamocco Alberoni ,"11",,45.396507,12.359632
Rio Terà ,"50",,45.372044,12.339599
Rio Terà ,"19",,45.372089,12.338511
Via Ludovico Manin ,"14",,45.402422,12.36286
Ottagono Alberoni ,"1",,45.348108,12.307085
Via Luigi Rubin ,"4",,45.348216,12.318634
Via Luigi Rubin ,"9",,45.348037,12.318221
Via Luigi Rubin ,"5",,45.347902,12.318731
Via Luigi Rubin ,"7",,45.348121,12.318353
Via Luigi Rubin ,"1",,45.347679,12.319076
Via Luigi Rubin ,"11",,45.348004,12.31817
Via Luigi Rubin ,"13",,45.348012,12.318102
Via Luigi Rubin ,"6",,45.348253,12.318406
Via Luigi Rubin ,"10",,45.348134,12.318227
Via Luigi Rubin ,"3",,45.347804,12.318891
Via Luigi Rubin ,"8",,45.348198,12.318323
Riviera Benedetto Marcello ,"1",,45.401424,12.358824
Riviera Benedetto Marcello ,"14",,45.399032,12.356947
Riviera Benedetto Marcello ,7a,,45.400475,12.358117
Riviera Benedetto Marcello ,"8",,45.400284,12.357978
Riviera Benedetto Marcello ,"2",,45.401352,12.358767
Riviera Benedetto Marcello ,"7",,45.400384,12.358051
Riviera Benedetto Marcello ,"10",,45.399746,12.35756
Riviera Benedetto Marcello ,"12",,45.399319,12.357226
Riviera Benedetto Marcello ,"5",,45.400654,12.35825
Riviera Santa Maria Elisabetta ,13a,,45.419572,12.374602
Riviera Benedetto Marcello ,"11",,45.399472,12.357347
Riviera Benedetto Marcello ,"6",,45.400605,12.358213
Riviera Benedetto Marcello ,"9",,45.399934,12.35771
Strada Dell'ospizio Marino ,"22",Strada Dell'Ospizio Marino ,45.421875,12.381703
Via Ferruccio Parri ,"6",,45.378236,12.34397
Via Giusto Fuga ,4a,,45.393109,12.355279
Via Giusto Fuga ,4c,,45.393056,12.355326
Via Giusto Fuga ,4e,,45.393056,12.355326
Via Giusto Fuga ,4d,,45.393056,12.355326
Via Mario Tiso ,"13",,45.379444,12.341541
Riviera San Nicolo' ,"9",,45.421324,12.376163
Riviera San Nicolo' ,"6",,45.420899,12.37596
Riviera San Nicolo' ,13b,,45.422551,12.376664
Riviera San Nicolo' ,11a,,45.421646,12.376315
Riviera San Nicolo' ,"11",,45.421511,12.376249
Riviera San Nicolo' ,10a,,45.421435,12.376213
Riviera San Nicolo' ,"10",,45.421357,12.376177
Riviera San Nicolo' ,"1",,45.419877,12.375477
Riviera San Nicolo' ,"7",,45.421081,12.376047
Riviera San Nicolo' ,"8",,45.421199,12.376103
Via Andrea Da Asola ,"4",,45.39398,12.353421
Via Andrea Da Asola ,"5",,45.393665,12.353894
Via Andrea Da Asola ,"11",,45.39398,12.35311
Via Andrea Da Asola ,"9",,45.393899,12.353312
Via Andrea Da Asola ,4a,,45.394016,12.353334
Via Andrea Da Asola ,4b,,45.393958,12.353474
Via Andrea Da Asola ,"1",,45.393492,12.354371
Via Andrea Da Asola ,"3",,45.39358,12.354107
Via Andrea Da Asola ,"7",,45.393804,12.353548
Via Andrea Da Asola ,"6",,45.394067,12.353208
Via Andrea Da Asola ,7a,,45.393838,12.353463
Via Malamocco ,"20",,45.38535,12.348118
Via Alberoni ,95a,,45.349515,12.319083
Via Alberoni ,47a,,45.359103,12.330782
Via Alberoni ,"52",,45.357825,12.329099
Via Alberoni ,"47",,45.359703,12.331474
Via Alberoni ,"70",,45.355186,12.327049
Via Alberoni ,"93",,45.349817,12.320135
Via Alberoni ,"36",,45.361895,12.332735
Via Alberoni ,47b,,45.358925,12.330536
Via Alberoni ,"95",,45.349716,12.319324
Via Alberoni ,"41",,45.360856,12.332184
Via Alberoni ,"60",,45.35568,12.327362
Via Alberoni ,"32",,45.361915,12.332746
Via Alberoni ,"92",,45.349832,12.320291
Via Alberoni ,"97",,45.349507,12.319082
Via Alberoni ,"40",,45.360972,12.332249
Via Alberoni ,41a,,45.360711,12.332077
Via Alberoni ,"10",,45.364512,12.334205
Via Alberoni ,"94",,45.349777,12.31967
Via Alberoni ,"78",,45.35178,12.324219
Via Alberoni ,"81",,45.35115,12.323725
Via dei Giunta ,"6",,45.395244,12.354573
Via Sandro Gallo ,155f,,45.402027,12.361491
Via Orso Partecipazio ,8d,,45.414416,12.367754
Via Orso Partecipazio ,8e,,45.414275,12.367718
Via Lepanto ,1l,,45.415888,12.370199
Via Lepanto ,1i,,45.415914,12.370215
Via Lepanto ,1m,,45.415859,12.370182
Via Lepanto ,1h,,45.415946,12.370235
Via Lepanto ,8b,,45.415547,12.370233
Via Lepanto ,8c,,45.415519,12.370221
Via Lepanto ,8a,,45.415604,12.370259
Via Giusto Fuga ,4c,,45.393059,12.355317
Via Giusto Fuga ,4b,,45.393059,12.355317
Via Giusto Fuga ,4c,,45.393058,12.355322
Via Giusto Fuga ,4d,,45.393058,12.355322
Via Giusto Fuga ,4b,,45.393058,12.355322
Via Giusto Fuga ,4e,,45.393054,12.35533
Via Giusto Fuga ,4d,,45.393054,12.35533
Via Alberoni ,7b,,45.369894,12.337001
Via Alberoni ,"54",,45.356737,12.328212
Via Alberoni ,"51",,45.358378,12.329942
Via Alberoni ,51b,,45.35835,12.329894
Via Alberoni ,51a,,45.358356,12.329903
Via Alberoni ,"74",,45.352172,12.324522
Via Alberoni ,"42",,45.36024,12.331925
Via Alberoni ,"38",,45.361287,12.332395
Lungomare Guglielmo Marconi ,"18",,45.411942,12.373944
Lungomare Guglielmo Marconi ,"93",,45.397713,12.361046
Via Alvisopoli ,"7",,45.382711,12.347545
Strada Nuova ,"21",,45.346185,12.3143
Riviera San Nicolo' ,69d,,45.431811,12.383596
Via Jacopo Fontana ,"70",,45.385039,12.349655
Via Jacopo Fontana ,"66",,45.385046,12.349636
Via Jacopo Fontana ,"68",,45.385046,12.349636
Via Jacopo Fontana ,"64",,45.385051,12.349622
Via Jacopo Fontana ,"66",,45.385048,12.349631
Via Jacopo Fontana ,"68",,45.385048,12.349631
Via Jacopo Fontana ,"74",,45.384999,12.349755
"Calle del Forno, ","4",,45.372286,12.339229
Via dei Giunta ,"1",,45.39511,12.354621
Via dei Giunta ,3c,,45.395295,12.354186
Via dei Giunta ,"3",,45.395242,12.35432
Via dei Giunta ,1d,,45.395199,12.354423
Via dei Giunta ,3d,,45.395324,12.354112
Via Andrea Contarini ,3a,,45.411766,12.367557
Via Alberoni ,"4",,45.370587,12.336985
Via Alberoni ,"2",,45.370665,12.336983
Via Alberoni ,"3",,45.370651,12.336984
Via Alberoni ,"6",,45.370247,12.336992
Via Alberoni ,"5",,45.370489,12.336988
Via Alberoni ,"1",,45.370673,12.336983
Via Alberoni ,"7",,45.369663,12.337008
Via Cipro ,24c,,45.418407,12.376784
Via Cipro ,"22",,45.418407,12.376784
Via Cipro ,24b,,45.418407,12.376784
Via Cipro ,24c,,45.418406,12.376783
Via Cipro ,"22",,45.418406,12.376783
Via Cipro ,24c,,45.418406,12.376782
Via Cipro ,"22",,45.418406,12.376782
Gran Viale Santa Maria Elisabetta ,49g,,45.416185,12.371805
Gran Viale Santa Maria Elisabetta ,51b,,45.416099,12.372096
Via Pietro Buratti ,"2",,45.4035,12.362119
Via Francesco Morosini ,"6",,45.405136,12.366203
Via Angelo Emo ,"14",,45.403739,12.364375
Via Dardanelli ,32b,,45.410606,12.37077
Via Paolo Paruta ,"10",,45.403038,12.361581
Via Doge Obelerio ,"1",,45.369273,12.338145
Via Frà Mauro ,"5",,45.418586,12.377722
Via Marcantonio Bragadin ,2g,,45.413123,12.368001
Strada della Droma ,76a,,45.346685,12.315693
Strada della Droma ,"76",,45.346685,12.315693
Via Marcantonio Bragadin ,2f,,45.413149,12.36797
Via Malamocco ,97i,,45.375787,12.341811
Via Delle Alghe ,"10",,45.399221,12.36092
Via Alberoni ,52t,,45.356748,12.328224
Via Alberoni ,52v,,45.356743,12.328219
Via Francesco Duodo ,31r,,45.419461,12.378451
Via Francesco Duodo ,33a,,45.419337,12.378681
Via Malamocco ,97p,,45.37489,12.340806
Lungomare Guglielmo Marconi ,56f,,45.401648,12.364136
